2006/10/02 03:45
KCTZ 020345Z AUTO 00000KT 10SM CLR 16/14 A3016 RMK AO2

2006/10/02 03:45
KCTZ 020345Z AUTO 00000KT 10SM CLR 16/14 A3016 RMK AO2

2006/10/02 03:45
KMWK 020345Z AUTO 00000KT 10SM CLR 13/11 A3020 RMK AO2

2006/10/02 03:46
KTNB 020346Z AUTO 00000KT 10SM CLR 13/08 A3027 RMK AO2

2006/10/02 03:45
KMWK 020345Z AUTO 00000KT 10SM CLR 13/11 A3020 RMK AO2

2006/10/02 03:46
KTNB 020346Z AUTO 00000KT 10SM CLR 13/08 A3027 RMK AO2

2006/10/02 03:45
KCTZ 020345Z AUTO 00000KT 10SM CLR 16/14 A3016

2006/10/02 03:45
KHYA 020345Z AUTO 27004KT 3SM BR FEW001 SCT015 BKN032 12/12 A2992 RMK AO2

2006/10/02 03:45
PAPB 020345Z AUTO 26011KT 3SM BR BKN002 OVC006 08/ A2945 RMK AO2 TSNO $

2006/10/02 03:48
K11R 020348Z AUTO 16004KT 10SM CLR 25/23 A3010 RMK AO2

2006/10/02 03:46
KFEP 020346Z AUTO 17010KT 10SM VCTS CLR 21/12 A2996 RMK AO2 LTG DSNT N AND NE

2006/10/02 03:45
KGBG 020345Z AUTO 18007KT 10SM CLR 21/11 A2998 RMK AO2 LTG DSNT N

2006/10/02 03:45
KJSO 020345Z AUTO 17004KT 10SM CLR 25/22 A3012 RMK AO2

2006/10/02 03:46
KRSV 020346Z AUTO 10SM CLR 17/13 A3013 RMK AO2 TSNO

2006/10/02 03:45
K1H2 020345Z AUTO 17005KT 10SM CLR 19/12 A3010 RMK AO2 TSNO

2006/10/02 03:45
KAAA 020345Z AUTO 18008KT 10SM CLR 20/13 A3005 RMK AO2 LTG DSNT N

2006/10/02 03:45
KAQO 020345Z AUTO 15004KT 10SM 27/17 A3011 RMK AO2

2006/10/02 03:45
KASW 020345Z AUTO 00000KT 10SM CLR 12/09 A3012 RMK AO2

2006/10/02 03:45
KBKS 020345Z AUTO 12005KT 10SM CLR 23/22 A3006 RMK AO1

2006/10/02 03:45
KBPG 020345Z AUTO 17011KT 10SM CLR 23/15 A3009 RMK AO1

2006/10/02 03:45
KLOT 020345Z AUTO 17028KT 7SM -RA SCT029 BKN055 OVC110 16/13 A2994 RMK AO2 LTG DSNT SW THRU NE P0001

2006/10/02 03:47
KCQT 020347Z AUTO 00000KT 10SM CLR 21/14 A2992 RMK AO2 SLP130 T02060139 TSNO

2006/10/02 03:45
KCIR 020345Z AUTO 00000KT 7SM CLR 15/15 A3015 RMK AO2 LTG DSNT N

2006/10/02 03:45
KCUL 020345Z AUTO 00000KT 10SM CLR 12/10 A3014 RMK AO2 LTG DSNT N

2006/10/02 03:47
KSEP 020347Z AUTO 16004KT 10SM CLR 26/16 A3007 RMK AO1

2006/10/02 03:45
KSFY 020345Z AUTO 17010KT 10SM CLR 20/10 A2994 RMK AO2 LTG DSNT N AND NE

2006/10/02 03:45
KAJG 020345Z AUTO 00000KT 10SM 16/12 A3014 RMK AO2 LTG DSNT N

2006/10/02 03:45
KBWD 020345Z AUTO 16005KT 10SM CLR 25/16 A3006 RMK AO1 T02500161

2006/10/02 03:45
KBYY 020345Z AUTO 00000KT 10SM CLR 22/21 A3010 RMK AO2

2006/10/02 03:45
KC09 020345Z AUTO 09005KT 10SM SCT044 SCT095 BKN120 18/12 A3006 RMK AO2 LTG DSNT N THRU SE

2006/10/02 03:45
KCIR 020345Z AUTO 00000KT 7SM CLR 15/15 A3015 RMK AO2 LTG DSNT N

2006/10/02 03:45
KCUL 020345Z AUTO 00000KT 10SM CLR 12/10 A3014 RMK AO2 LTG DSNT N

2006/10/02 03:47
KDKB 020347Z AUTO 19012KT 10SM VCTS CLR 17/12 A2999 RMK AO2 LTG DSNT N AND SE

2006/10/02 03:47
KDUX 020347Z AUTO 16009KT 10SM CLR 20/10 A3002 RMK AO2

2006/10/02 03:45
KE38 020345Z AUTO 17008KT 10SM CLR 21/12 A3017 RMK AO2

2006/10/02 03:45
KOLY 020345Z AUTO 18003KT 10SM CLR 18/15 A3012 RMK AO2 LTG DSNT N

2006/10/02 03:45
KPNT 020345Z AUTO 19008KT 10SM CLR 21/11 A3004 RMK AO2 LTG DSNT N

2006/10/02 03:47
KRPH 020347Z AUTO 16007KT 10SM CLR 27/13 A3001 RMK AO2

2006/10/02 03:47
KSEP 020347Z AUTO 16004KT 10SM CLR 26/16 A3007 RMK AO1

2006/10/02 03:45
K3T5 020345Z AUTO 00000KT 10SM CLR 25/23 A3008 RMK AO2

2006/10/02 03:45
KDKR 020345Z AUTO 16005KT 10SM CLR 25/22 A3012 RMK AO2

2006/10/02 03:45
KECU 020345Z AUTO 14012G15KT 10SM CLR 24/17 A3018 RMK AO2

2006/10/02 03:45
KENL 020345Z AUTO 17006KT 10SM CLR 19/12 A3012 RMK AO2 LTG DSNT N

2006/10/02 03:45
KETB 020345Z AUTO 18010G15KT 10SM -DZ 15/12 A2997 RMK AO2 P0003

2006/10/02 03:45
KF05 020345Z AUTO 17007KT 10SM CLR 23/16 A2999 RMK AO2

2006/10/02 03:45
KRZN 020345Z AUTO 17011G16KT 10SM CLR 17/10 A2977 RMK AO2

2006/10/02 03:45
KSAR 020345Z AUTO 14005KT 10SM CLR 19/13 A3012 RMK AO2 LTG DSNT N

2006/10/02 03:45
KSFY 020345Z AUTO 17010KT 10SM CLR 20/10 A2994 RMK AO2 LTG DSNT N AND NE

2006/10/02 03:45
KT82 020345Z AUTO 16004KT 10SM CLR 23/17 A3013 RMK AO1

2006/10/02 03:45
KTAZ 020345Z AUTO 17010KT 10SM CLR 19/13 A3007 RMK AO2 LTG DSNT N

2006/10/02 03:48
K11R 020348Z AUTO 16004KT 10SM CLR 25/23 A3010 RMK AO2

2006/10/02 03:46
KFEP 020346Z AUTO 17010KT 10SM VCTS CLR 21/12 A2996 RMK AO2 LTG DSNT N AND NE

2006/10/02 03:45
KGBG 020345Z AUTO 18007KT 10SM CLR 21/11 A2998 RMK AO2 LTG DSNT N

2006/10/02 03:45
KJSO 020345Z AUTO 17004KT 10SM CLR 25/22 A3012 RMK AO2

2006/10/02 03:46
KRSV 020346Z AUTO 10SM CLR 17/13 A3013 RMK AO2 TSNO

2006/10/02 03:45
K1H2 020345Z AUTO 17005KT 10SM CLR 19/12 A3010 RMK AO2 TSNO

2006/10/02 03:45
KAAA 020345Z AUTO 18008KT 10SM CLR 20/13 A3005 RMK AO2 LTG DSNT N

2006/10/02 03:45
KAQO 020345Z AUTO 15004KT 10SM 27/17 A3011 RMK AO2

2006/10/02 03:45
KASW 020345Z AUTO 00000KT 10SM CLR 12/09 A3012 RMK AO2

2006/10/02 03:45
KBKS 020345Z AUTO 12005KT 10SM CLR 23/22 A3006 RMK AO1

2006/10/02 03:45
KBPG 020345Z AUTO 17011KT 10SM CLR 23/15 A3009 RMK AO1

2006/10/02 03:45
KLOT 020345Z AUTO 17028KT 7SM -RA SCT029 BKN055 OVC110 16/13 A2994 RMK AO2 LTG DSNT SW THRU NE P0001

2006/10/02 03:45
KAJG 020345Z AUTO 00000KT 10SM 16/12 A3014 RMK AO2 LTG DSNT N

2006/10/02 03:45
KBWD 020345Z AUTO 16005KT 10SM CLR 25/16 A3006 RMK AO1 T02500161

2006/10/02 03:45
KBYY 020345Z AUTO 00000KT 10SM CLR 22/21 A3010 RMK AO2

2006/10/02 03:45
KC09 020345Z AUTO 09005KT 10SM SCT044 SCT095 BKN120 18/12 A3006 RMK AO2 LTG DSNT N THRU SE

2006/10/02 03:47
KDKB 020347Z AUTO 19012KT 10SM VCTS CLR 17/12 A2999 RMK AO2 LTG DSNT N AND SE

2006/10/02 03:47
KDUX 020347Z AUTO 16009KT 10SM CLR 20/10 A3002 RMK AO2

2006/10/02 03:45
KE38 020345Z AUTO 17008KT 10SM CLR 21/12 A3017 RMK AO2

2006/10/02 03:45
KOLY 020345Z AUTO 18003KT 10SM CLR 18/15 A3012 RMK AO2 LTG DSNT N

2006/10/02 03:45
KPNT 020345Z AUTO 19008KT 10SM CLR 21/11 A3004 RMK AO2 LTG DSNT N

2006/10/02 03:47
KRPH 020347Z AUTO 16007KT 10SM CLR 27/13 A3001 RMK AO2

2006/10/02 03:45
K3T5 020345Z AUTO 00000KT 10SM CLR 25/23 A3008 RMK AO2

2006/10/02 03:45
KDKR 020345Z AUTO 16005KT 10SM CLR 25/22 A3012 RMK AO2

2006/10/02 03:45
KECU 020345Z AUTO 14012G15KT 10SM CLR 24/17 A3018 RMK AO2

2006/10/02 03:45
KENL 020345Z AUTO 17006KT 10SM CLR 19/12 A3012 RMK AO2 LTG DSNT N

2006/10/02 03:45
KETB 020345Z AUTO 18010G15KT 10SM -DZ 15/12 A2997 RMK AO2 P0003

2006/10/02 03:45
KF05 020345Z AUTO 17007KT 10SM CLR 23/16 A2999 RMK AO2

2006/10/02 03:45
KRZN 020345Z AUTO 17011G16KT 10SM CLR 17/10 A2977 RMK AO2

2006/10/02 03:45
KSAR 020345Z AUTO 14005KT 10SM CLR 19/13 A3012 RMK AO2 LTG DSNT N

2006/10/02 03:45
KT82 020345Z AUTO 16004KT 10SM CLR 23/17 A3013 RMK AO1

2006/10/02 03:45
KTAZ 020345Z AUTO 17010KT 10SM CLR 19/13 A3007 RMK AO2 LTG DSNT N

2006/10/02 03:46
KBFD 020346Z AUTO 00000KT 1 3/4SM BR FEW001 04/03 A3014 RMK AO2 VIS 1/2V5

2006/10/02 03:46
KBOS 020346Z 01012KT 9SM SCT012 OVC021 12/11 A2998 RMK AO2 RAE05B07E17 CIG 010 E P0000 T01220106

2006/10/02 03:45
KHYA 020345Z AUTO 27004KT 3SM BR FEW001 SCT015 BKN032 12/12 A2992 RMK AO2

2006/10/02 03:45
PAPB 020345Z AUTO 26011KT 3SM BR BKN002 OVC006 08/ A2945 RMK AO2 TSNO $

2006/10/02 03:46
KBFD 020346Z AUTO 00000KT 1 3/4SM BR FEW001 04/03 A3014 RMK AO2 VIS 1/2V5

2006/10/02 03:46
KBOS 020346Z 01012KT 9SM SCT012 OVC021 12/11 A2998 RMK AO2 RAE05B07E17 CIG 010 E P0000 T01220106

2006/10/02 03:47
PADL 020347Z 06010G16KT 8SM -RA BR OVC019 08/07 A2946

2006/10/02 03:45
PAKU 020345Z 00000KT 10SM OVC007 00/M01 A2972 RMK LAST

2006/10/02 03:46
KFOA 020346Z AUTO 17005KT 10SM CLR 16/12 A3013 RMK AO2 LTG DSNT N

2006/10/02 03:45
KGOP 020345Z AUTO 17009KT 10SM CLR 27/18 A3009 RMK AO2 TSNO

2006/10/02 03:45
KGPM 020345Z AUTO 17008KT 10SM CLR 26/17 A3005 RMK AO1

2006/10/02 03:45
KGVT 020345Z AUTO 16007KT 10SM CLR 25/18 A3007 RMK AO2

2006/10/02 03:45
KGYB 020345Z AUTO 17004KT 10SM CLR 25/22 A3012 RMK AO2

2006/10/02 03:47
KHHF 020347Z AUTO 18016G21KT 10SM CLR 25/14 A2994 RMK AO2

2006/10/02 03:45
KJAS 020345Z AUTO 00000KT 10SM SCT100 SCT120 22/20 A3013 RMK AO2

2006/10/02 03:45
KJXI 020345Z AUTO 16003KT 10SM CLR 26/19 A3009 RMK AO2

2006/10/02 03:47
KJYL 020347Z AUTO 00000KT 10SM CLR 21/18 A3012 RMK AO2

2006/10/02 03:45
KLUD 020345Z AUTO 16012G16KT 10SM CLR 27/15 A3004 RMK AO2

2006/10/02 03:46
KRPJ 020346Z AUTO 17010G15KT 10SM CLR 24/10 A3000 RMK AO2 LTG DSNT N AND NE

2006/10/02 03:45
KVYS 020345Z AUTO 17009KT 10SM CLR 20/11 A3000 RMK AO2 LTG DSNT N

2006/10/02 03:47
KXBP 020347Z AUTO 17008KT 10SM CLR 28/15 A3004 RMK AO2 PWINO

2006/10/02 03:45
PAWR 020345Z 12010KT 6SM -RA BR OVC020 06/05 A2995 RMK SLP142 70057 NOSPECI

2006/10/02 03:45
KHBV 020345Z AUTO 12007KT 10SM CLR 25/23 A3008 RMK AO2

2006/10/02 03:45
KHSB 020345Z AUTO 00000KT 10SM CLR 13/12 A3015 RMK AO2 LTG DSNT N

2006/10/02 03:45
KIGQ 020345Z AUTO 22007KT 10SM -RA SCT044 SCT080 17/13 A3007 RMK AO2 LTG DSNT N AND NW

2006/10/02 03:45
KIJX 020345Z AUTO 19012G15KT 10SM CLR 21/12 A3005 RMK AO2 TSNO

2006/10/02 03:47
KMEZ 020347Z AUTO 19008KT 10SM CLR 28/17 A3011 RMK AO2

2006/10/02 03:45
KORG 020345Z AUTO 00000KT 1 1/2SM BR VV007 22/21 A3011 RMK AO2

2006/10/02 03:45
KPCM 020345Z AUTO 35003KT 10SM CLR 21/18 A3013 RMK AO2

2006/10/02 03:46
KPEQ 020346Z AUTO 14009KT 10SM CLR 26/14 A3003 RMK AO2

2006/10/02 03:46
KPPA 020346Z AUTO 19016G20KT 10SM CLR 22/16 A3002 RMK AO2

2006/10/02 03:45
KPSN 020345Z AUTO 14005KT 10SM CLR 26/20 A3010 RMK AO2

2006/10/02 03:45
KPVW 020345Z AUTO 19011KT 10SM CLR 21/15 A3006 RMK AO2

2006/10/02 03:48
KRHP 020348Z AUTO 00000KT 7SM CLR 11/10 A3025 RMK AO2

2006/10/02 03:45
KRWV 020345Z AUTO 15006KT 10SM CLR 25/21 A3011 RMK AO2

2006/10/02 03:45
KSOA 020345Z AUTO 21003KT 10SM CLR 24/14 A3009 RMK AO2

2006/10/02 03:45
KTIP 020345Z AUTO 21010KT 10SM CLR 22/10 A3008 RMK AO2 LTG DSNT N

2006/10/02 03:45
KIKK 020345Z AUTO 02007KT 10SM 21/12 A3009 RMK AO2 LTG DSNT N AND NE

2006/10/02 03:45
KJOT 020345Z AUTO 16009KT 10SM -RA SCT045 SCT060 BKN075 15/13 A3004 RMK AO2 P0001 LTG DSNT NW THRU E

2006/10/02 03:45
KLBR 020345Z AUTO 14003KT 10SM CLR 23/15 A3007 RMK AO1

2006/10/02 03:45
KM30 020345Z AUTO 00000KT 10SM CLR 13/13 A3015 RMK AO2 LTG DSNT N

2006/10/02 03:45
KMKN 020345Z AUTO 17009KT 10SM 26/16 A3008 RMK AO2

2006/10/02 03:45
KMQB 020345Z AUTO 18009KT 10SM CLR 23/11 A3001 RMK AO2 LTG DSNT N

2006/10/02 03:45
KMWA 020345Z AUTO 17004KT 10SM CLR 17/13 A3015 RMK AO2 LTG DSNT N

2006/10/02 03:45
KRBO 020345Z AUTO 12007KT 10SM CLR 25/23 A3007 RMK AO2

2006/10/02 03:45
KSNK 020345Z AUTO 19008KT 10SM CLR 22/17 A3007 RMK AO2

2006/10/02 03:48
TJNR 020348Z AUTO 08008KT 10SM CLR 28/23 A2998

2006/10/02 03:45
FJDG 020345Z 12012KT 9000 -SHRA SCT020 BKN050 BKN150 28/24 A2991 RMK SLP125

2006/10/02 03:48
KMKE 020348Z 13018KT 10SM -TSRA OVC100 16/11 A3004 RMK AO2 WSHFT 0328 RAB12 FRQ LTGICCCCG W-N-E-SE TS W-N-E-SE MOV SE P0005 $

2006/10/02 03:48
KIJD 020348Z AUTO 00000KT 10SM SCT030 12/11 A3001 RMK AO2 $

2006/10/02 03:46
KBOS 020346Z 01012KT 9SM SCT012 OVC021 12/11 A2998

2006/10/02 03:45
K1H2 020345Z AUTO 17005KT 10SM CLR 19/12 A3010

2006/10/02 03:45
KAAA 020345Z AUTO 18008KT 10SM CLR 20/13 A3005

2006/10/02 03:45
KC09 020345Z AUTO 09005KT 10SM SCT044 SCT095 BKN120 18/12 A3006

2006/10/02 03:47
KDKB 020347Z AUTO 19012KT 10SM VCTS CLR 17/12 A2999

2006/10/02 03:45
KENL 020345Z AUTO 17006KT 10SM CLR 19/12 A3012

2006/10/02 03:46
KFEP 020346Z AUTO 17010KT 10SM VCTS CLR 21/12 A2996

2006/10/02 03:45
KGBG 020345Z AUTO 18007KT 10SM CLR 21/11 A2998

2006/10/02 03:45
KLOT 020345Z AUTO 17028KT 7SM -RA SCT029 BKN055 OVC110 16/13 A2994

2006/10/02 03:45
KOLY 020345Z AUTO 18003KT 10SM CLR 18/15 A3012

2006/10/02 03:45
KPNT 020345Z AUTO 19008KT 10SM CLR 21/11 A3004

2006/10/02 03:45
KSAR 020345Z AUTO 14005KT 10SM CLR 19/13 A3012

2006/10/02 03:45
KTAZ 020345Z AUTO 17010KT 10SM CLR 19/13 A3007

2006/10/02 03:48
K11R 020348Z AUTO 16004KT 10SM CLR 25/23 A3010

2006/10/02 03:45
KBPG 020345Z AUTO 17011KT 10SM CLR 23/15 A3009

2006/10/02 03:45
KBYY 020345Z AUTO 00000KT 10SM CLR 22/21 A3010

2006/10/02 03:47
KSEP 020347Z AUTO 16004KT 10SM CLR 26/16 A3007

2006/10/02 03:48
KJDN 020348Z AUTO 00000KT 08/01 A2986

2006/10/02 03:48
KJDN 020348Z AUTO 00000KT 08/01 A2986 RMK AO2 SLP113 T00830006 PWINO TSNO

2006/10/02 03:45
KPSN 020345Z AUTO 14005KT 10SM CLR 26/20 A3010 RMK AO2

2006/10/02 03:45
KSOA 020345Z AUTO 21003KT 10SM CLR 24/14 A3009 RMK AO2

2006/10/02 03:45
KMKN 020345Z AUTO 17009KT 10SM 26/16 A3008 RMK AO2

2006/10/02 03:47
PAQT 020347Z 23005KT 10SM OVC004 00/M01 A2973 RMK ASOS VIA PHONE

2006/10/02 03:49
KLBT 020349Z AUTO 00000KT 3SM BR CLR 16/15 A3016 RMK AO2 TSNO

2006/10/02 03:48
KMKE 020348Z 13018KT 10SM -TSRA OVC100 16/11 A3004 RMK AO2 WSHFT 0328 RAB12 FRQ LTGICCCCG W-N-E-SE TS W-N-E-SE MOV SE P0005 $

2006/10/02 03:48
KIJD 020348Z AUTO 00000KT 10SM SCT030 12/11 A3001 RMK AO2 $

2006/10/02 03:49
KLBT 020349Z AUTO 00000KT 3SM BR CLR 16/15 A3016 RMK AO2 TSNO

2006/10/02 03:49
LFTW 020349Z 11002KT 1500 BR BKN010 19/18 Q1017 BECMG 5000 RMK M3

2006/10/02 03:48
TJNR 020348Z AUTO 08008KT 10SM CLR 28/23 A2998 RMK AO2 SLP151 T02830228 403170261 TSNO $

2006/10/02 03:45
KRCA 020345Z 06003KT 6SM HZ CLR 19/05 A2985 RMK AO2A SLP088 $

2006/10/02 03:50
PAEL 020350Z 00000KT 7SM -RA OVCO30 07/07 A3009 RMK NOSPECI

2006/10/02 03:47
PAQT 020347Z 23005KT 10SM OVC004 00/M01 A2973 RMK ASOS VIA PHONE

2006/10/02 03:45
KT65 020345Z AUTO 13005KT 10SM FEW025 27/23 A3008 RMK AO2

2006/10/02 03:47
PADL 020347Z 06010G16KT 8SM -RA BR OVC019 08/07 A2946

2006/10/02 03:45
PAKU 020345Z 00000KT 10SM OVC007 00/M01 A2972 RMK LAST

2006/10/02 03:46
KFOA 020346Z AUTO 17005KT 10SM CLR 16/12 A3013 RMK AO2 LTG DSNT N

2006/10/02 03:45
KGOP 020345Z AUTO 17009KT 10SM CLR 27/18 A3009 RMK AO2 TSNO

2006/10/02 03:45
KGPM 020345Z AUTO 17008KT 10SM CLR 26/17 A3005 RMK AO1

2006/10/02 03:45
KGVT 020345Z AUTO 16007KT 10SM CLR 25/18 A3007 RMK AO2

2006/10/02 03:45
KGYB 020345Z AUTO 17004KT 10SM CLR 25/22 A3012 RMK AO2

2006/10/02 03:47
KHHF 020347Z AUTO 18016G21KT 10SM CLR 25/14 A2994 RMK AO2

2006/10/02 03:45
KJAS 020345Z AUTO 00000KT 10SM SCT100 SCT120 22/20 A3013 RMK AO2

2006/10/02 03:45
KJXI 020345Z AUTO 16003KT 10SM CLR 26/19 A3009 RMK AO2

2006/10/02 03:47
KJYL 020347Z AUTO 00000KT 10SM CLR 21/18 A3012 RMK AO2

2006/10/02 03:45
KLUD 020345Z AUTO 16012G16KT 10SM CLR 27/15 A3004 RMK AO2

2006/10/02 03:46
KRPJ 020346Z AUTO 17010G15KT 10SM CLR 24/10 A3000 RMK AO2 LTG DSNT N AND NE

2006/10/02 03:45
KVYS 020345Z AUTO 17009KT 10SM CLR 20/11 A3000 RMK AO2 LTG DSNT N

2006/10/02 03:47
KXBP 020347Z AUTO 17008KT 10SM CLR 28/15 A3004 RMK AO2 PWINO

2006/10/02 03:45
PAWR 020345Z 12010KT 6SM -RA BR OVC020 06/05 A2995 RMK SLP142 70057 NOSPECI

2006/10/02 03:45
KHBV 020345Z AUTO 12007KT 10SM CLR 25/23 A3008 RMK AO2

2006/10/02 03:45
KHSB 020345Z AUTO 00000KT 10SM CLR 13/12 A3015 RMK AO2 LTG DSNT N

2006/10/02 03:45
KIGQ 020345Z AUTO 22007KT 10SM -RA SCT044 SCT080 17/13 A3007 RMK AO2 LTG DSNT N AND NW

2006/10/02 03:45
KIJX 020345Z AUTO 19012G15KT 10SM CLR 21/12 A3005 RMK AO2 TSNO

2006/10/02 03:47
KMEZ 020347Z AUTO 19008KT 10SM CLR 28/17 A3011 RMK AO2

2006/10/02 03:45
KORG 020345Z AUTO 00000KT 1 1/2SM BR VV007 22/21 A3011 RMK AO2

2006/10/02 03:45
KPCM 020345Z AUTO 35003KT 10SM CLR 21/18 A3013 RMK AO2

2006/10/02 03:46
KPEQ 020346Z AUTO 14009KT 10SM CLR 26/14 A3003 RMK AO2

2006/10/02 03:46
KPPA 020346Z AUTO 19016G20KT 10SM CLR 22/16 A3002 RMK AO2

2006/10/02 03:45
KPVW 020345Z AUTO 19011KT 10SM CLR 21/15 A3006 RMK AO2

2006/10/02 03:48
KRHP 020348Z AUTO 00000KT 7SM CLR 11/10 A3025 RMK AO2

2006/10/02 03:45
KRWV 020345Z AUTO 15006KT 10SM CLR 25/21 A3011 RMK AO2

2006/10/02 03:45
KTIP 020345Z AUTO 21010KT 10SM CLR 22/10 A3008 RMK AO2 LTG DSNT N

2006/10/02 03:45
KIKK 020345Z AUTO 02007KT 10SM 21/12 A3009 RMK AO2 LTG DSNT N AND NE

2006/10/02 03:45
KJOT 020345Z AUTO 16009KT 10SM -RA SCT045 SCT060 BKN075 15/13 A3004 RMK AO2 P0001 LTG DSNT NW THRU E

2006/10/02 03:45
KLBR 020345Z AUTO 14003KT 10SM CLR 23/15 A3007 RMK AO1

2006/10/02 03:45
KM30 020345Z AUTO 00000KT 10SM CLR 13/13 A3015 RMK AO2 LTG DSNT N

2006/10/02 03:45
KMQB 020345Z AUTO 18009KT 10SM CLR 23/11 A3001 RMK AO2 LTG DSNT N

2006/10/02 03:45
KMWA 020345Z AUTO 17004KT 10SM CLR 17/13 A3015 RMK AO2 LTG DSNT N

2006/10/02 03:45
KRBO 020345Z AUTO 12007KT 10SM CLR 25/23 A3007 RMK AO2

2006/10/02 03:45
KSNK 020345Z AUTO 19008KT 10SM CLR 22/17 A3007 RMK AO2

2006/10/02 03:50
PAEL 020350Z 00000KT 7SM -RA OVCO30 07/07 A3009 RMK NOSPECI

2006/10/02 03:45
KT65 020345Z AUTO 13005KT 10SM FEW025 27/23 A3008 RMK AO2

2006/10/02 03:48
TJNR 020348Z AUTO 08008KT 10SM CLR 28/23 A2998 RMK AO2 SLP151 T02830228 403170261 TSNO $

2006/10/02 03:55
KNFW 020355Z 18012KT 7SM BKN200 28/17 A3008 RMK SLP184 LAST T02830167

2006/10/02 03:55
KNZY 020355Z 33006KT 7SM FEW015 BKN150 BKN200 21/17 A2992 RMK SLP132 T02110167

2006/10/02 03:48
KMKE 020348Z 13018KT 10SM -TSRA OVC100 16/11 A3004

2006/10/02 03:50
KDSV 020350Z AUTO 14003KT 1SM BR VV001 09/08 A3013 RMK AO2 VIS 1/4V4

2006/10/02 03:46
PAXK 020346Z 00000KT 7SM BKN035 BKN080 02/M02 A2982 RMK MAX 39 MIN 29 NOSPECI

2006/10/02 03:50
KMYL 020350Z AUTO 00000KT 10SM CLR 08/M02 A2997 RMK AO2 SLP142 T00781022 TSNO

2006/10/02 03:51
KMFI 020351Z AUTO 14008KT 10SM VCTS SCT046 16/11 A2990 RMK AO2 LTG DSNT SE TSB45RAB25E51 P0000

2006/10/02 03:51
KWST 020351Z AUTO 34005KT 10SM FEW008 OVC015 13/12 A3000 RMK AO2

2006/10/02 03:50
PTTP 020350Z 13004KT 15SM FEW019 BKN130 OVC300 30/25 A2976 RMK SLP076 T03000248

2006/10/02 03:50
KLAX 020350Z 25007KT 10SM SCT150 SCT200 18/15 A2992 RMK AO2 SLP130 T01830150

2006/10/02 03:50
KSAD 020350Z AUTO 34007KT 10SM CLR 24/M02 A3002 RMK AO2 SLP120 T02391017 TSNO $

2006/10/02 03:51
KSAN 020351Z 31006KT 8SM FEW010 SCT170 20/16 A2994 RMK AO2 SLP139 T02000161

2006/10/02 03:51
KCRP 020351Z 14008KT 10SM FEW020 26/23 A3008 RMK AO2 SLP183 T02610228 $

2006/10/02 03:50
KMYL 020350Z AUTO 00000KT 10SM CLR 08/M02 A2997 RMK AO2 SLP142 T00781022 TSNO

2006/10/02 03:51
KP59 020351Z AUTO 19013G22KT 130V210 13/09 A2986 RMK AO2 SLP110 T01280089 PWINO TSNO

2006/10/02 03:51
KORF 020351Z 07003KT 10SM FEW070 BKN095 19/13 A3014 RMK AO2 SLP205 T01890133

2006/10/02 03:51
KROW 020351Z AUTO 21008KT 10SM CLR 18/05 A3005 RMK AO2 SLP126 T01830050 TSNO $

2006/10/02 03:51
KSMX 020351Z AUTO 29008KT 10SM -RA SCT100 16/12 A3001 RMK AO2 RAB49 SLP164 P0000 T01560117 TSNO

2006/10/02 03:51
KSNT 020351Z AUTO 16004KT 03/M09 A3006 RMK AO2 SLP146 T00331089 PWINO TSNO

2006/10/02 03:51
KEKN 020351Z AUTO 00000KT 1SM BR VV001 05/04 A3024 RMK AO2 SLP245 T00500044 TSNO

2006/10/02 03:51
KNYC 020351Z AUTO 28003KT 10SM CLR 14/09 A3008 RMK AO2 SLP175 T01440094 TSNO $

2006/10/02 03:51
KGDP 020351Z AUTO 28011KT 10SM CLR 23/M03 A3022 RMK AO2 SLP156 T02331028

2006/10/02 03:51
KHTS 020351Z 00000KT 5SM BR CLR 12/10 A3019 RMK AO2 SLP221 T01170100

2006/10/02 03:51
KBKW 020351Z AUTO 20004KT 10SM CLR 09/08 A3025 RMK AO2 SLP237 T00890078 $

2006/10/02 03:51
KCAK 020351Z 00000KT 10SM CLR 10/08 A3015 RMK AO2 SLP211 T01000078

2006/10/02 03:51
KYNG 020351Z 00000KT 10SM CLR 07/06 A3016 RMK AO2 SLP214 T00670061

2006/10/02 03:51
KP58 020351Z AUTO VRB03KT 09/06 A3010 RMK AO2 SLP195 T00890056 PWINO TSNO $

2006/10/02 03:51
KHSE 020351Z AUTO VRB04KT 10SM CLR 21/15 A3014 RMK AO2 SLP206 T02110150

2006/10/02 03:51
KBVE 020351Z AUTO 00000KT 5SM BR CLR 23/22 A3014 RMK AO2 SLP206 T02330222 TSNO

2006/10/02 03:51
KPVD 020351Z 32008KT 8SM FEW005 OVC020 13/11 A2999 RMK AO2 SLP154 BINOVC T01330111

2006/10/02 03:51
KBDL 020351Z 34005KT 10SM FEW023 11/10 A3002 RMK AO2 SLP164 T01110100

2006/10/02 03:51
KABE 020351Z 22004KT 10SM CLR 11/08 A3009 RMK AO2 SLP190 T01060078

2006/10/02 03:51
KATT 020351Z AUTO VRB06G14KT 10SM CLR 26/19 A3010 RMK AO2 SLP178 T02610189

2006/10/02 03:51
KALB 020351Z 00000KT 1SM BR FEW029 BKN075 09/09 A3005 RMK AO2 TWR VIS 10 SLP175 VIS S 7 VIS N 3/4 T00890089

2006/10/02 03:51
KCON 020351Z AUTO 31003KT 10SM OVC031 10/08 A3003 RMK AO2 SLP170 T01000083

2006/10/02 03:51
KVCT 020351Z AUTO 13005KT 10SM CLR 23/22 A3010 RMK AO2 SLP191 T02330217

2006/10/02 03:51
KTEB 020351Z 32003KT 10SM CLR 14/09 A3004 RMK AO2 SLP172 T01390089

2006/10/02 03:52
KMLF 020352Z AUTO 20010KT 10SM CLR 18/00 A3005 RMK AO2 SLP121 T01780000 TSNO

2006/10/02 03:51
KCLE 020351Z 00000KT 10SM CLR 09/07 A3017 RMK AO2 SLP218 T00890072

2006/10/02 03:46
PAXK 020346Z 00000KT 7SM BKN035 BKN080 02/M02 A2982 RMK MAX 39 MIN 29 NOSPECI

2006/10/02 03:51
KPIT 020351Z 00000KT 10SM SCT060 09/07 A3015 RMK AO2 SLP219 T00940072

2006/10/02 03:51
KRDU 020351Z 00000KT 10SM CLR 14/13 A3017 RMK AO2 SLP215 T01390128

2006/10/02 03:51
KJCT 020351Z AUTO 15007KT 10SM CLR 25/14 A3009 RMK AO2 SLP154 T02500144 TSNO

2006/10/02 03:51
KACT 020351Z 15009KT 10SM CLR 27/19 A3006 RMK AO2 SLP172 T02720189 $

2006/10/02 03:51
KAHN 020351Z AUTO 29007KT 10SM CLR 19/13 A3016 RMK AO2 SLP208 T01890133 TSNO

2006/10/02 03:51
KASH 020351Z AUTO 36005KT 10SM FEW008 OVC012 11/10 A3002 RMK AO2 T01110100 401440111 SLP170 $

2006/10/02 03:51
KAVX 020351Z AUTO 29004KT 10SM CLR 19/08 A2997 RMK AO2 SLP130 T01890083 TSNO

2006/10/02 03:51
KBAZ 020351Z AUTO 18009KT 10SM CLR 25/20 A3009 RMK AO2 SLP180 T02500200

2006/10/02 03:51
KBGD 020351Z AUTO 17016G23KT 10SM CLR 23/16 A2999 RMK AO2 SLP112 T02330161 TSNO

2006/10/02 03:51
KCMH 020351Z 00000KT 10SM CLR 12/09 A3016 RMK AO2 SLP214 T01170094

2006/10/02 03:51
KCSG 020351Z AUTO 00000KT 5SM HZ CLR 22/19 A3013 RMK AO2 SLP200 T02170189

2006/10/02 03:51
KDAW 020351Z AUTO 35005KT 10SM FEW008 SCT030 OVC037 10/09 A3001 RMK AO2 SLP160 T01000089

2006/10/02 03:51
KEWR 020351Z 31006KT 10SM FEW080 14/09 A3005 RMK AO2 SLP176 T01440089 $

2006/10/02 03:51
KHDO 020351Z AUTO 13012KT 10SM CLR 26/21 A3011 RMK AO2 SLP180 T02560211 $

2006/10/02 03:51
KILG 020351Z AUTO 28008KT 10SM CLR 12/09 A3012 RMK AO2 SLP199 T01220094

2006/10/02 03:51
KJFK 020351Z 33009KT 10SM CLR 16/08 A3005 RMK AO2 SLP175 T01560083 $

2006/10/02 03:51
KLGA 020351Z 35007KT 10SM CLR 16/09 A3004 RMK AO2 SLP173 T01610094

2006/10/02 03:51
KLGU 020351Z AUTO 00000KT 10SM CLR 12/06 A2996 RMK AO2 SLP124 T01170056

2006/10/02 03:51
KMDW 020351Z 20016G27KT 10SM -RA SCT055 BKN080 OVC110 22/12 A2996 RMK AO2 PK WND 20027/0348 RAB00 SLP140 FRQ LTGICCCCG DSNT N-NE P0003 T02170117 $

2006/10/02 03:51
KMPV 020351Z AUTO 00000KT 3SM BR OVC014 09/08 A3007 RMK AO2 SLP188 T00940078

2006/10/02 03:51
KORD 020351Z 22020KT 10SM FEW060 SCT090 SCT120 BKN250 22/11 A2998 RMK AO2 RAE19 SLP147 FRQ LTGCGIC DSNT N-NE CB DSNT N-NE MOV SE P0000 T02220111

2006/10/02 03:51
KOXR 020351Z 25006KT 10SM BKN110 17/14 A2994 RMK AO2 SLP136 T01670139

2006/10/02 03:51
KPHX 020351Z 25006KT 10SM BKN200 32/06 A2987 RMK AO2 SLP097 T03170056

2006/10/02 03:51
KPWM 020351Z AUTO 01008KT 10SM OVC040 10/08 A3003 RMK AO2 RAE28 SLP170 P0001 T01000083

2006/10/02 03:51
KSJT 020351Z AUTO 22005KT 10SM CLR 22/14 A3007 RMK AO2 SLP163 T02170139

2006/10/02 03:51
KSLK 020351Z AUTO 00000KT 6SM BR SCT010 BKN022 OVC060 10/09 A3001 RMK AO2 RAB0253E10 SLP166 P0001 T01000094

2006/10/02 03:51
KSMO 020351Z AUTO 00000KT 10SM FEW085 18/14 A2992 RMK AO2 SLP130 T01830144

2006/10/02 03:51
KSTL 020351Z 17008KT 10SM FEW250 22/12 A3008 RMK AO2 SLP176 T02220117

2006/10/02 03:51
KVNY 020351Z VRB03KT 10SM FEW150 19/14 A2993 RMK AO2 SLP128 T01890144

2006/10/02 03:50
KDSV 020350Z AUTO 14003KT 1SM BR VV001 09/08 A3013 RMK AO2 VIS 1/4V4

2006/10/02 03:51
KMFI 020351Z AUTO 14008KT 10SM VCTS SCT046 16/11 A2990 RMK AO2 LTG DSNT SE TSB45RAB25E51 P0000

2006/10/02 03:51
KWST 020351Z AUTO 34005KT 10SM FEW008 OVC015 13/12 A3000 RMK AO2

2006/10/02 03:50
OIBB 020350Z 00000KT 7000 BR SKC 25O22 Q1010 A2984

2006/10/02 03:51
KACT 020351Z 15009KT 10SM CLR 27/19 A3006 RMK AO2 SLP172 T02720189 $

2006/10/02 03:51
KAHN 020351Z AUTO 29007KT 10SM CLR 19/13 A3016 RMK AO2 SLP208 T01890133 TSNO

2006/10/02 03:51
KASH 020351Z AUTO 36005KT 10SM FEW008 OVC012 11/10 A3002 RMK AO2 T01110100 401440111 SLP170 $

2006/10/02 03:51
KAVX 020351Z AUTO 29004KT 10SM CLR 19/08 A2997 RMK AO2 SLP130 T01890083 TSNO

2006/10/02 03:51
KBAZ 020351Z AUTO 18009KT 10SM CLR 25/20 A3009 RMK AO2 SLP180 T02500200

2006/10/02 03:51
KBGD 020351Z AUTO 17016G23KT 10SM CLR 23/16 A2999 RMK AO2 SLP112 T02330161 TSNO

2006/10/02 03:51
KCMH 020351Z 00000KT 10SM CLR 12/09 A3016 RMK AO2 SLP214 T01170094

2006/10/02 03:51
KCSG 020351Z AUTO 00000KT 5SM HZ CLR 22/19 A3013 RMK AO2 SLP200 T02170189

2006/10/02 03:51
KDAW 020351Z AUTO 35005KT 10SM FEW008 SCT030 OVC037 10/09 A3001 RMK AO2 SLP160 T01000089

2006/10/02 03:51
KEWR 020351Z 31006KT 10SM FEW080 14/09 A3005 RMK AO2 SLP176 T01440089 $

2006/10/02 03:51
KHDO 020351Z AUTO 13012KT 10SM CLR 26/21 A3011 RMK AO2 SLP180 T02560211 $

2006/10/02 03:51
KILG 020351Z AUTO 28008KT 10SM CLR 12/09 A3012 RMK AO2 SLP199 T01220094

2006/10/02 03:51
KJFK 020351Z 33009KT 10SM CLR 16/08 A3005 RMK AO2 SLP175 T01560083 $

2006/10/02 03:51
KLGA 020351Z 35007KT 10SM CLR 16/09 A3004 RMK AO2 SLP173 T01610094

2006/10/02 03:51
KLGU 020351Z AUTO 00000KT 10SM CLR 12/06 A2996 RMK AO2 SLP124 T01170056

2006/10/02 03:51
KMDW 020351Z 20016G27KT 10SM -RA SCT055 BKN080 OVC110 22/12 A2996 RMK AO2 PK WND 20027/0348 RAB00 SLP140 FRQ LTGICCCCG DSNT N-NE P0003 T02170117 $

2006/10/02 03:51
KMPV 020351Z AUTO 00000KT 3SM BR OVC014 09/08 A3007 RMK AO2 SLP188 T00940078

2006/10/02 03:51
KORD 020351Z 22020KT 10SM FEW060 SCT090 SCT120 BKN250 22/11 A2998 RMK AO2 RAE19 SLP147 FRQ LTGCGIC DSNT N-NE CB DSNT N-NE MOV SE P0000 T02220111

2006/10/02 03:51
KOXR 020351Z 25006KT 10SM BKN110 17/14 A2994 RMK AO2 SLP136 T01670139

2006/10/02 03:51
KPHX 020351Z 25006KT 10SM BKN200 32/06 A2987 RMK AO2 SLP097 T03170056

2006/10/02 03:51
KPWM 020351Z AUTO 01008KT 10SM OVC040 10/08 A3003 RMK AO2 RAE28 SLP170 P0001 T01000083

2006/10/02 03:51
KSJT 020351Z AUTO 22005KT 10SM CLR 22/14 A3007 RMK AO2 SLP163 T02170139

2006/10/02 03:51
KSLK 020351Z AUTO 00000KT 6SM BR SCT010 BKN022 OVC060 10/09 A3001 RMK AO2 RAB0253E10 SLP166 P0001 T01000094

2006/10/02 03:51
KSMO 020351Z AUTO 00000KT 10SM FEW085 18/14 A2992 RMK AO2 SLP130 T01830144

2006/10/02 03:51
KSTL 020351Z 17008KT 10SM FEW250 22/12 A3008 RMK AO2 SLP176 T02220117

2006/10/02 03:51
KTEB 020351Z 32003KT 10SM CLR 14/09 A3004 RMK AO2 SLP172 T01390089

2006/10/02 03:51
KVNY 020351Z VRB03KT 10SM FEW150 19/14 A2993 RMK AO2 SLP128 T01890144

2006/10/02 03:51
CYTE 020351Z AUTO 03003KT 9SM -SN OVC006 OVC032 01/ A2988

2006/10/02 03:47
PADL 020347Z 06010G16KT 8SM -RA BR OVC019 08/07 A2946

2006/10/02 03:46
KFOA 020346Z AUTO 17005KT 10SM CLR 16/12 A3013

2006/10/02 03:45
KHSB 020345Z AUTO 00000KT 10SM CLR 13/12 A3015

2006/10/02 03:45
KIGQ 020345Z AUTO 22007KT 10SM -RA SCT044 SCT080 17/13 A3007

2006/10/02 03:45
KIJX 020345Z AUTO 19012G15KT 10SM CLR 21/12 A3005

2006/10/02 03:45
KIKK 020345Z AUTO 02007KT 10SM 21/12 A3009

2006/10/02 03:45
KJOT 020345Z AUTO 16009KT 10SM -RA SCT045 SCT060 BKN075 15/13 A3004

2006/10/02 03:45
KMQB 020345Z AUTO 18009KT 10SM CLR 23/11 A3001

2006/10/02 03:45
KMWA 020345Z AUTO 17004KT 10SM CLR 17/13 A3015

2006/10/02 03:45
KTIP 020345Z AUTO 21010KT 10SM CLR 22/10 A3008

2006/10/02 03:45
KVYS 020345Z AUTO 17009KT 10SM CLR 20/11 A3000

2006/10/02 03:51
KERI 020351Z 00000KT 10SM CLR 10/08 A3015 RMK AO2 VIS 2 1/2 NE SLP211 T01000083 CHINO NE $

2006/10/02 03:52
KGLS 020352Z AUTO 14007KT 10SM CLR 27/22 A3012 RMK AO2 SLP198 T02720217

2006/10/02 03:52
KHRL 020352Z 12008KT 10SM FEW095 27/22 A3007 RMK AO2 SLP181 T02720222

2006/10/02 03:50
TJBQ 020350Z 10006KT 10SM SCT020 25/24 A2999

2006/10/02 03:52
KDSV 020352Z AUTO 15003KT 2SM BR FEW001 09/08 A3013 RMK AO2 VIS 3/4V5

2006/10/02 03:50
LLBG 020350Z 13005KT 9999 FEW035 21/16 Q1011 NOSIG

2006/10/02 03:52
PATA 020352Z 00000KT 10SM BKN040 BKN060 OVC095 04/M01 A2973 RMK AO2 SLP071 T00441006

2006/10/02 03:52
KAFN 020352Z AUTO VRB03KT 10SM OVC004 09/08 A3002 RMK AO2 SLP174 T00940083

2006/10/02 03:52
KAQW 020352Z AUTO 00000KT 10SM OVC006 12/11 A3003 RMK AO2 CIG 005V011 SLP171 T01170111

2006/10/02 03:52
KARR 020352Z AUTO 18010KT RA CLR 19/13 A3001 RMK AO2 WSHFT 0240 LTG DSNT SE AND S TSE30 SLP159 P0003 T01890128 $

2006/10/02 03:52
KATL 020352Z 01008KT 10SM CLR 21/13 A3017 RMK AO2 SLP207 T02060128

2006/10/02 03:52
KBIS 020352Z 32005KT 10SM CLR 14/03 A2980 RMK AO2 SLP090 T01390028

2006/10/02 03:52
KBLF 020352Z AUTO 27006KT 10SM CLR 13/08 A3027 RMK AO2 SLP231 T01330078

2006/10/02 03:52
KBML 020352Z AUTO 10SM OVC041 08/06 A3005 RMK AO2 SLP183 T00780061 $

2006/10/02 03:52
KCFV 020352Z AUTO 16007KT 10SM CLR 26/17 A2999 RMK AO2 SLP146 T02560167

2006/10/02 03:52
KCID 020352Z 19013G19KT 10SM CLR 22/10 A2989 RMK AO2 SLP118 T02220100

2006/10/02 03:55
KCIU 020355Z AUTO 14006KT 10SM BKN100 OVC120 08/06 A3007 RMK AO1

2006/10/02 03:52
KCKV 020352Z AUTO 00000KT 10SM CLR 14/12 A3018 RMK AO2 SLP216 T01390122 $

2006/10/02 03:52
KCLT 020352Z 34003KT 10SM CLR 17/11 A3019 RMK AO2 SLP215 T01720111

2006/10/02 03:52
KCNU 020352Z AUTO 16010KT 10SM CLR 25/17 A2998 RMK AO2 SLP139 T02500172

2006/10/02 03:55
KCOD 020355Z 19005KT 10SM CLR 16/M02 A2995 RMK AO1

2006/10/02 03:52
KCQX 020352Z AUTO 00000KT 3SM BR SCT032 14/12 A2992 RMK AO2 SLP134 T01390122

2006/10/02 03:52
KDCA 020352Z 20003KT 10SM CLR 14/10 A3016 RMK AO2 SLP213 T01390100

2006/10/02 03:52
KDDC 020352Z AUTO 18010KT 10SM CLR 23/13 A2993 RMK AO2 SLP102 T02280133

2006/10/02 03:52
KDPA 020352Z 20011KT 10SM CLR 19/14 A2999 RMK AO2 RAE07 SLP152 P0000 T01890139

2006/10/02 03:52
KDVN 020352Z AUTO 19017G22KT 10SM CLR 23/09 A2995 RMK AO2 SLP136 T02330094 $

2006/10/02 03:55
KEGE 020355Z AUTO 11007KT 10SM CLR 12/M02 A3019 RMK AO1

2006/10/02 03:55
KEHR 020355Z AUTO 00000KT 10SM CLR 13/11 A3016 RMK AO1

2006/10/02 03:55
KESC 020355Z AUTO 16006KT 10SM BKN090 14/10 A2999 RMK AO1

2006/10/02 03:52
KEST 020352Z AUTO 20008KT 10SM CLR 20/13 A2978 RMK AO2 SLP078 T02000133

2006/10/02 03:52
KFIT 020352Z AUTO 35007KT 10SM BKN009 OVC014 11/09 A3002 RMK AO2 CIG 007V012 SLP167 T01110094

2006/10/02 03:55
KFNL 020355Z AUTO 33005KT 10SM CLR 19/M05 A3004 RMK AO1

2006/10/02 03:55
KGDV 020355Z AUTO 34005KT 10SM CLR 14/M01 A2986 RMK AO1

2006/10/02 03:55
KGUC 020355Z 00000KT 10SM CLR 09/M04 A3033 RMK AO1

2006/10/02 03:55
KGXY 020355Z AUTO 33006KT 10SM CLR 17/M05 A3003 RMK AO1

2006/10/02 03:55
KHDN 020355Z 06005KT 10SM CLR 12/M04 A3018 RMK AO1

2006/10/02 03:52
KHIE 020352Z AUTO 08007KT 10SM BKN039 OVC055 08/06 A3004 RMK AO2 SLP177 T00830056

2006/10/02 03:55
KHNB 020355Z AUTO 00000KT 10SM CLR 16/13 A3016 RMK AO1

2006/10/02 03:52
KHUT 020352Z 17011KT 10SM CLR 26/16 A2992 RMK AO2 SLP108 T02560156

2006/10/02 03:52
KIAD 020352Z 00000KT 10SM CLR 11/09 A3017 RMK AO2 SLP214 T01060089

2006/10/02 03:52
KIEN 020352Z AUTO 00000KT 10SM CLR 12/07 A2986 RMK AO2 SLP094 T01170072 TSNO

2006/10/02 03:52
KIJD 020352Z AUTO VRB03KT 10SM FEW030 12/11 A3001 RMK AO2 SLP162 T01220106 $

2006/10/02 03:52
KIOW 020352Z AUTO 18010KT 10SM CLR 22/10 A2993 RMK AO2 SLP132 T02220100

2006/10/02 03:52
KISN 020352Z 03003KT 10SM CLR 11/04 A2983 RMK AO2 SLP104 T01060044

2006/10/02 03:55
KIWD 020355Z AUTO 17017G22KT 10SM CLR 17/07 A2980 RMK AO1

2006/10/02 03:55
KJAC 020355Z AUTO 12004KT 10SM CLR 07/M04 A3009 RMK AO1

2006/10/02 03:52
KLWC 020352Z AUTO 17011G20KT 10SM CLR 27/19 A2993 RMK AO2 SLP125 T02670194

2006/10/02 03:55
KMBL 020355Z AUTO 09006KT 10SM BKN110 11/07 A3003 RMK AO1

2006/10/02 03:52
KMDH 020352Z AUTO 17004KT 10SM CLR 15/13 A3014 RMK AO2 SLP206 T01500128

2006/10/02 03:52
KMEB 020352Z AUTO 00000KT 10SM CLR 13/12 A3017 RMK AO2 SLP214 T01330122

2006/10/02 03:52
KMHK 020352Z AUTO 19013G21KT 10SM CLR 27/14 A2988 RMK AO2 SLP109 T02670139

2006/10/02 03:52
KMKE 020352Z 13017G23KT 10SM -TSRA OVC100 16/11 A3003 RMK AO2 WSHFT 0328 RAB12 SLP169 FRQ LTGICCCCG W-N-E-SE TS W-N-E-SE MOV SE P0005 T01610106 $

2006/10/02 03:52
KMLI 020352Z AUTO 19015G20KT 10SM CLR 23/09 A2995 RMK AO2 SLP137 T02330094

2006/10/02 03:55
KMNM 020355Z AUTO 17009KT 10SM BKN090 14/11 A2997 RMK AO1

2006/10/02 03:55
KMTW 020355Z AUTO 16009KT 10SM VCTS BKN090 14/12 A3001 RMK AO1 LTG DSNT ALQDS

2006/10/02 03:55
KMVN 020355Z 00000KT 10SM CLR 13/11 A3016 RMK AO1

2006/10/02 03:52
KMWH 020352Z 14005KT 10SM CLR 13/03 A2988 RMK AO2 SLP120 T01330033

2006/10/02 03:52
KOKB 020352Z AUTO 26003KT 7SM CLR 18/17 A2992 RMK AO2 SLP132 T01830167 TSNO

2006/10/02 03:52
KOKC 020352Z 20010KT 10SM SCT300 25/16 A3000 RMK AO2 SLP143 T02500161 $

2006/10/02 03:52
KOMA 020352Z 16011KT 10SM CLR 24/14 A2982 RMK AO2 SLP088 T02440144

2006/10/02 03:52
KORE 020352Z AUTO 01003KT 10SM BKN014 OVC029 12/10 A3002 RMK AO2 SLP167 T01170100

2006/10/02 03:52
KPPF 020352Z AUTO 17007KT 10SM CLR 25/17 A3000 RMK AO2 SLP146 T02500172

2006/10/02 03:52
KPWK 020352Z AUTO 20006KT 10SM FEW100 20/12 A2999 RMK AO2 LTG DSNT NE AND E TSB09E34RAB05E23 SLP152 P0000 T02000117

2006/10/02 03:52
KRAP 020352Z 00000KT 10SM CLR 17/04 A2985 RMK AO2 SLP086 T01670039

2006/10/02 03:55
KSDY 020355Z AUTO 34005KT 10SM CLR 12/02 A2985 RMK AO1

2006/10/02 03:52
KSGF 020352Z 16011KT 10SM CLR 23/16 A3007 RMK AO2 SLP171 T02280161

2006/10/02 03:52
KSPI 020352Z AUTO 19012G17KT 10SM CLR 21/11 A3006 RMK AO2 SLP174 T02110106

2006/10/02 03:55
KSQI 020355Z 15003KT 10SM CLR 20/09 A2999 RMK AO1

2006/10/02 03:55
KSUE 020355Z AUTO 16010KT 10SM OVC100 14/11 A2996 RMK AO1 LTG DSNT S TSB19E34

2006/10/02 03:52
KSUX 020352Z 13007KT 10SM CLR 19/13 A2979 RMK AO2 SLP080 T01940133

2006/10/02 03:52
KTAN 020352Z AUTO 31007KT 7SM OVC005 13/12 A2995 RMK AO2 SLP142 T01280117

2006/10/02 03:52
KTRM 020352Z AUTO 33012KT 10SM CLR 31/08 A2976 RMK AO2 SLP079 T03110083 TSNO

2006/10/02 03:52
KUGN 020352Z AUTO 04007KT 10SM SCT110 17/13 A3001 RMK AO2 LTG DSNT N-SE TSE0256B03E48 SLP156 T01670133

2006/10/02 03:50
EBAW 020350Z 23013KT 9999 BKN025 15/12 Q1006 TEMPO 23018G28KT SHRA

2006/10/02 03:50
EBBR 020350Z 22015KT 9999 FEW025 15/11 Q1006 TEMPO 21018G28KT

2006/10/02 03:50
EBCI 020350Z 21016KT 9999 SCT020 15/12 Q1009 NOSIG

2006/10/02 03:50
EBOS 020350Z 20011KT 9999 FEW022CB 13/12 Q1004 TEMPO TS

2006/10/02 03:50
ELLX 020350Z 22009KT 190V260 CAVOK 14/11 Q1012 NOSIG

2006/10/02 03:50
EDLP 020350Z 21014KT CAVOK 15/10 Q1007

2006/10/02 03:50
EDLW 020350Z 21011KT 9999 FEW037 15/11 Q1007

2006/10/02 03:50
EDMA 020350Z 22008KT CAVOK 15/14 Q1016

2006/10/02 03:50
LOWG 020350Z VRB01KT 3000 MIFG BR FEW060 SCT280 14/13 Q1016 TEMPO 1200 BCFG

2006/10/02 03:50
LOWI 020350Z VRB01KT 9999 -RA FEW010 SCT022 BKN040 15/14 Q1018 TEMPO RA FEW005 BKN020

2006/10/02 03:50
LOWK 020350Z 28002KT 9999 FEW050 SCT070 13/12 Q1017 NOSIG

2006/10/02 03:50
LOWL 020350Z VRB01KT 6000 -RA FEW010 SCT040 BKN060 15/15 Q1017 TEMPO 4000 BR

2006/10/02 03:50
LOWS 020350Z VRB01KT 8000 RA FEW009 SCT025 BKN030 16/14 Q1018 NOSIG

2006/10/02 03:50
LOWW 020350Z VRB01KT 9999 SCT076 BKN100 15/14 Q1016 WS ALL RWY NOSIG

2006/10/02 03:50
EKAH 020350Z 18003KT CAVOK 12/12 Q1001

2006/10/02 03:50
EKBI 020350Z 15005KT 110V190 9999 FEW020 SCT050 12/10 Q1001

2006/10/02 03:50
EKCH 020350Z 19006KT CAVOK 14/12 Q1003 NOSIG

2006/10/02 03:50
EKEB 020350Z 15008KT 110V170 9999 FEW020CB BKN080 13/11 Q1000

2006/10/02 03:50
EKKA 020350Z 17009KT 9999 FEW025 SCT080 BKN120 12/10 Q1000

2006/10/02 03:50
EKRK 020350Z 15004KT 9999 FEW035 BKN200 11/11 Q1003

2006/10/02 03:50
EKRN 020350Z 20011KT 170V230 9999 SCT041 BKN077 17/16 Q1005

2006/10/02 03:50
EKSP 020350Z 17008KT CAVOK 12/12 Q1001 RMK SCT080

2006/10/02 03:50
EKTS 020350Z 15006KT CAVOK 13/12 Q0998

2006/10/02 03:50
EKVD 020350Z AUTO 17007KT //// ///////// 12/11 Q1001

2006/10/02 03:50
EKYT 020350Z 17007KT CAVOK 13/11 Q0999 RMK FEW078 SCT120

2006/10/02 03:50
EDDF 020350Z 21012KT CAVOK 16/14 Q1012 NOSIG

2006/10/02 03:50
EDDH 020350Z 21009KT 9999 FEW040 SCT120 14/10 Q1004 NOSIG

2006/10/02 03:50
EDDK 020350Z 18008KT 9999 FEW045 BKN200 15/11 Q1009 NOSIG

2006/10/02 03:50
EDDL 020350Z 21015KT 9999 FEW030 SCT080 15/11 Q1007 NOSIG

2006/10/02 03:50
EDDM 020350Z 21006KT CAVOK 15/14 Q1016 NOSIG

2006/10/02 03:50
EDDN 020350Z 21005KT CAVOK 15/13 Q1014

2006/10/02 03:50
EDDS 020350Z 21006KT CAVOK 15/12 Q1015

2006/10/02 03:50
EDDW 020350Z 19008KT 9999 SCT027 13/12 Q1004 NOSIG

2006/10/02 03:50
EDFM 020350Z 20007KT 170V230 9000 FEW012 BKN170 16/13 Q1014

2006/10/02 03:45
LMML 020345Z VRB01KT 6000 FEW015 19/19 Q1020 TEMPO 3000 BR SCT012

2006/10/02 03:50
EETN 020350Z VRB01KT 7000 0150E R26/0225V0450N PRFG BKN015 10/10 Q1007 TEMPO 0800 FG VV003

2006/10/02 03:50
EFHF 020350Z AUTO 25004KT 210V280 8000 FEW003 OVC005 12/12 Q1006

2006/10/02 03:50
EFHK 020350Z 21004KT 7000 FEW004 SCT006 BKN012 12/12 Q1006 BECMG 4000 BR BKN004

2006/10/02 03:50
EFJY 020350Z 14004KT 5000 -RA BKN002 OVC008 08/08 Q1004

2006/10/02 03:50
EFKK 020350Z 16005KT 1400 BR OVC001 10/10 Q1002

2006/10/02 03:50
EFKU 020350Z 13008KT 100V160 3000 -DZ BR OVC004 07/07 Q1006

2006/10/02 03:50
EFMA 020350Z 22003KT CAVOK 10/09 Q1005

2006/10/02 03:50
EFOU 020350Z 12007KT 7000 -RA FEW003 SCT006 BKN017 05/04 Q1004

2006/10/02 03:50
EFPO 020350Z 17002KT 3000 BR SCT001 BKN003 13/13 Q1004

2006/10/02 03:50
EFRO 020350Z 09009KT 6000 -RA FEW001 SCT004 BKN006 BKN008 02/02 Q1005

2006/10/02 03:50
EFTP 020350Z 21004KT 6000 BKN002 OVC005 12/12 Q1004

2006/10/02 03:50
EFTU 020350Z 17002KT 4000 BR FEW007 BKN070 13/13 Q1005

2006/10/02 03:50
EFVA 020350Z 24002KT 0400 R16/1400N R34/1000N FG VV002 11/11 Q1003

2006/10/02 03:50
ENBO 020350Z 10008KT 9999 -RA FEW012 BKN020 08/06 Q1001 TEMPO BKN012

2006/10/02 03:50
ENBR 020350Z 05003KT 9999 -SHRA FEW020 BKN054 11/08 Q0996

2006/10/02 03:50
ENVA 020350Z 13003KT 9999 FEW025 BKN050 09/08 Q1002

2006/10/02 03:50
ENZV 020350Z 12006KT 9999 FEW015 BKN050 12/10 Q0996

2006/10/02 03:50
EVRA 020350Z 17003KT 2300 BR BKN001 OVC014 12/12 Q1008 18090070 TEMPO 0500 FG

2006/10/02 03:50
EYVI 020350Z 21006KT 2300 -RA BR OVC003 14/14 Q1010 TEMPO 0800 FG

2006/10/02 03:50
LSGG 020350Z VRB01KT 3500 R05/P1500N R23/1200VP1500D MIFG BCFG FEW015 13/13 Q1018 TEMPO 0800

2006/10/02 03:50
LSZH 020350Z 15004KT 9999 MIFG FEW020 SCT080 14/13 Q1017 NOSIG

2006/10/02 03:52
KDSV 020352Z AUTO 15003KT 2SM BR FEW001 09/08 A3013 RMK AO2 VIS 3/4V5

2006/10/02 03:52
KCVG 020352Z 20003KT 10SM CLR 14/11 A3017 RMK AO2 SLP211 T01390111

2006/10/02 03:51
KERI 020351Z 00000KT 10SM CLR 10/08 A3015 RMK AO2 VIS 2 1/2 NE SLP211 T01000083 CHINO NE $

2006/10/02 03:52
KGLS 020352Z AUTO 14007KT 10SM CLR 27/22 A3012 RMK AO2 SLP198 T02720217

2006/10/02 03:52
KHRL 020352Z 12008KT 10SM FEW095 27/22 A3007 RMK AO2 SLP181 T02720222

2006/10/02 03:50
TJBQ 020350Z 10006KT 10SM SCT020 25/24 A2999

2006/10/02 03:53
KBNA 020353Z 13003KT 10SM CLR 17/12 A3019 RMK AO2 SLP220 T01670117

2006/10/02 03:53
KTPA 020353Z 04006KT 8SM CLR 24/19 A3011 RMK AO2 SLP197 T02440189 $

2006/10/02 03:53
KSIY 020353Z AUTO 16008KT 10SM CLR 16/M01 A2996 RMK AO2 SLP147 T01611011 TSNO

2006/10/02 03:53
KMCO 020353Z 08005KT 10SM CLR 23/19 A3011 RMK AO2 SLP194 T02280194

2006/10/02 03:53
KTUL 020353Z 16010KT 10SM BKN250 27/16 A2999 RMK AO2 SLP145 T02670156

2006/10/02 03:53
KNEW 020353Z AUTO 21003KT 10SM CLR 26/22 A3011 RMK AO2 SLP195 T02610217 TSNO

2006/10/02 03:53
KDFW 020353Z 17011KT 10SM SCT150 SCT300 28/18 A3004 RMK AO2 SLP164 T02780178

2006/10/02 03:53
KASD 020353Z AUTO 00000KT 6SM BR CLR 22/19 A3012 RMK AO2 SLP198 T02170194 TSNO

2006/10/02 03:52
PATA 020352Z 00000KT 10SM BKN040 BKN060 OVC095 04/M01 A2973 RMK AO2 SLP071 T00441006

2006/10/02 03:52
KAFN 020352Z AUTO VRB03KT 10SM OVC004 09/08 A3002 RMK AO2 SLP174 T00940083

2006/10/02 03:52
KAQW 020352Z AUTO 00000KT 10SM OVC006 12/11 A3003 RMK AO2 CIG 005V011 SLP171 T01170111

2006/10/02 03:52
KARR 020352Z AUTO 18010KT RA CLR 19/13 A3001 RMK AO2 WSHFT 0240 LTG DSNT SE AND S TSE30 SLP159 P0003 T01890128 $

2006/10/02 03:52
KATL 020352Z 01008KT 10SM CLR 21/13 A3017 RMK AO2 SLP207 T02060128

2006/10/02 03:52
KBIS 020352Z 32005KT 10SM CLR 14/03 A2980 RMK AO2 SLP090 T01390028

2006/10/02 03:52
KBLF 020352Z AUTO 27006KT 10SM CLR 13/08 A3027 RMK AO2 SLP231 T01330078

2006/10/02 03:52
KBML 020352Z AUTO 10SM OVC041 08/06 A3005 RMK AO2 SLP183 T00780061 $

2006/10/02 03:52
KCFV 020352Z AUTO 16007KT 10SM CLR 26/17 A2999 RMK AO2 SLP146 T02560167

2006/10/02 03:55
KCIU 020355Z AUTO 14006KT 10SM BKN100 OVC120 08/06 A3007 RMK AO1

2006/10/02 03:52
KCKV 020352Z AUTO 00000KT 10SM CLR 14/12 A3018 RMK AO2 SLP216 T01390122 $

2006/10/02 03:52
KCLT 020352Z 34003KT 10SM CLR 17/11 A3019 RMK AO2 SLP215 T01720111

2006/10/02 03:55
KCOD 020355Z 19005KT 10SM CLR 16/M02 A2995 RMK AO1

2006/10/02 03:52
KCQX 020352Z AUTO 00000KT 3SM BR SCT032 14/12 A2992 RMK AO2 SLP134 T01390122

2006/10/02 03:52
KDCA 020352Z 20003KT 10SM CLR 14/10 A3016 RMK AO2 SLP213 T01390100

2006/10/02 03:52
KDDC 020352Z AUTO 18010KT 10SM CLR 23/13 A2993 RMK AO2 SLP102 T02280133

2006/10/02 03:52
KDPA 020352Z 20011KT 10SM CLR 19/14 A2999 RMK AO2 RAE07 SLP152 P0000 T01890139

2006/10/02 03:52
KDVN 020352Z AUTO 19017G22KT 10SM CLR 23/09 A2995 RMK AO2 SLP136 T02330094 $

2006/10/02 03:55
KEGE 020355Z AUTO 11007KT 10SM CLR 12/M02 A3019 RMK AO1

2006/10/02 03:55
KEHR 020355Z AUTO 00000KT 10SM CLR 13/11 A3016 RMK AO1

2006/10/02 03:55
KESC 020355Z AUTO 16006KT 10SM BKN090 14/10 A2999 RMK AO1

2006/10/02 03:52
KEST 020352Z AUTO 20008KT 10SM CLR 20/13 A2978 RMK AO2 SLP078 T02000133

2006/10/02 03:52
KFIT 020352Z AUTO 35007KT 10SM BKN009 OVC014 11/09 A3002 RMK AO2 CIG 007V012 SLP167 T01110094

2006/10/02 03:55
KFNL 020355Z AUTO 33005KT 10SM CLR 19/M05 A3004 RMK AO1

2006/10/02 03:55
KGDV 020355Z AUTO 34005KT 10SM CLR 14/M01 A2986 RMK AO1

2006/10/02 03:55
KGUC 020355Z 00000KT 10SM CLR 09/M04 A3033 RMK AO1

2006/10/02 03:55
KGXY 020355Z AUTO 33006KT 10SM CLR 17/M05 A3003 RMK AO1

2006/10/02 03:55
KHDN 020355Z 06005KT 10SM CLR 12/M04 A3018 RMK AO1

2006/10/02 03:52
KHIE 020352Z AUTO 08007KT 10SM BKN039 OVC055 08/06 A3004 RMK AO2 SLP177 T00830056

2006/10/02 03:55
KHNB 020355Z AUTO 00000KT 10SM CLR 16/13 A3016 RMK AO1

2006/10/02 03:52
KHUT 020352Z 17011KT 10SM CLR 26/16 A2992 RMK AO2 SLP108 T02560156

2006/10/02 03:52
KIAD 020352Z 00000KT 10SM CLR 11/09 A3017 RMK AO2 SLP214 T01060089

2006/10/02 03:52
KIEN 020352Z AUTO 00000KT 10SM CLR 12/07 A2986 RMK AO2 SLP094 T01170072 TSNO

2006/10/02 03:52
KIJD 020352Z AUTO VRB03KT 10SM FEW030 12/11 A3001 RMK AO2 SLP162 T01220106 $

2006/10/02 03:50
EGLL 020350Z 24012KT CAVOK 14/11 Q1002 NOSIG

2006/10/02 03:45
MMTJ 020345Z 28003KT 6SM SCT200 19/17 A2996 RMK 8/002 HZY

2006/10/02 03:52
KIOW 020352Z AUTO 18010KT 10SM CLR 22/10 A2993 RMK AO2 SLP132 T02220100

2006/10/02 03:52
KISN 020352Z 03003KT 10SM CLR 11/04 A2983 RMK AO2 SLP104 T01060044

2006/10/02 03:55
KIWD 020355Z AUTO 17017G22KT 10SM CLR 17/07 A2980 RMK AO1

2006/10/02 03:55
KJAC 020355Z AUTO 12004KT 10SM CLR 07/M04 A3009 RMK AO1

2006/10/02 03:52
KLWC 020352Z AUTO 17011G20KT 10SM CLR 27/19 A2993 RMK AO2 SLP125 T02670194

2006/10/02 03:55
KMBL 020355Z AUTO 09006KT 10SM BKN110 11/07 A3003 RMK AO1

2006/10/02 03:52
KMDH 020352Z AUTO 17004KT 10SM CLR 15/13 A3014 RMK AO2 SLP206 T01500128

2006/10/02 03:52
KMEB 020352Z AUTO 00000KT 10SM CLR 13/12 A3017 RMK AO2 SLP214 T01330122

2006/10/02 03:52
KMKE 020352Z 13017G23KT 10SM -TSRA OVC100 16/11 A3003 RMK AO2 WSHFT 0328 RAB12 SLP169 FRQ LTGICCCCG W-N-E-SE TS W-N-E-SE MOV SE P0005 T01610106 $

2006/10/02 03:52
KMLI 020352Z AUTO 19015G20KT 10SM CLR 23/09 A2995 RMK AO2 SLP137 T02330094

2006/10/02 03:55
KMNM 020355Z AUTO 17009KT 10SM BKN090 14/11 A2997 RMK AO1

2006/10/02 03:55
KMTW 020355Z AUTO 16009KT 10SM VCTS BKN090 14/12 A3001 RMK AO1 LTG DSNT ALQDS

2006/10/02 03:55
KMVN 020355Z 00000KT 10SM CLR 13/11 A3016 RMK AO1

2006/10/02 03:52
KMWH 020352Z 14005KT 10SM CLR 13/03 A2988 RMK AO2 SLP120 T01330033

2006/10/02 03:52
KOKB 020352Z AUTO 26003KT 7SM CLR 18/17 A2992 RMK AO2 SLP132 T01830167 TSNO

2006/10/02 03:52
KOKC 020352Z 20010KT 10SM SCT300 25/16 A3000 RMK AO2 SLP143 T02500161 $

2006/10/02 03:52
KOMA 020352Z 16011KT 10SM CLR 24/14 A2982 RMK AO2 SLP088 T02440144

2006/10/02 03:52
KORE 020352Z AUTO 01003KT 10SM BKN014 OVC029 12/10 A3002 RMK AO2 SLP167 T01170100

2006/10/02 03:52
KPPF 020352Z AUTO 17007KT 10SM CLR 25/17 A3000 RMK AO2 SLP146 T02500172

2006/10/02 03:52
KPWK 020352Z AUTO 20006KT 10SM FEW100 20/12 A2999 RMK AO2 LTG DSNT NE AND E TSB09E34RAB05E23 SLP152 P0000 T02000117

2006/10/02 03:52
KRAP 020352Z 00000KT 10SM CLR 17/04 A2985 RMK AO2 SLP086 T01670039

2006/10/02 03:55
KSDY 020355Z AUTO 34005KT 10SM CLR 12/02 A2985 RMK AO1

2006/10/02 03:52
KSGF 020352Z 16011KT 10SM CLR 23/16 A3007 RMK AO2 SLP171 T02280161

2006/10/02 03:52
KSPI 020352Z AUTO 19012G17KT 10SM CLR 21/11 A3006 RMK AO2 SLP174 T02110106

2006/10/02 03:55
KSQI 020355Z 15003KT 10SM CLR 20/09 A2999 RMK AO1

2006/10/02 03:55
KSUE 020355Z AUTO 16010KT 10SM OVC100 14/11 A2996 RMK AO1 LTG DSNT S TSB19E34

2006/10/02 03:52
KSUX 020352Z 13007KT 10SM CLR 19/13 A2979 RMK AO2 SLP080 T01940133

2006/10/02 03:52
KTAN 020352Z AUTO 31007KT 7SM OVC005 13/12 A2995 RMK AO2 SLP142 T01280117

2006/10/02 03:52
KTRM 020352Z AUTO 33012KT 10SM CLR 31/08 A2976 RMK AO2 SLP079 T03110083 TSNO

2006/10/02 03:52
KUGN 020352Z AUTO 04007KT 10SM SCT110 17/13 A3001 RMK AO2 LTG DSNT N-SE TSE0256B03E48 SLP156 T01670133

2006/10/02 03:50
TJBQ 020350Z 10006KT 10SM SCT020 25/24 A2999

2006/10/02 03:54
KIND 020354Z 17005KT 10SM CLR 17/12 A3012 RMK AO2 SLP197 T01670117

2006/10/02 03:53
KTRI 020353Z 00000KT 10SM CLR 11/10 A3024 RMK AO2 SLP235 T01060100 $

2006/10/02 03:53
KSAT 020353Z 16009KT 10SM FEW018 SCT250 26/21 A3011 RMK AO2 SLP177 T02560211

2006/10/02 03:53
KRMG 020353Z AUTO 00000KT 3SM BR CLR 14/13 A3017 RMK AO2 SLP209 T01440133 TSNO

2006/10/02 03:53
KHTL 020353Z AUTO 13004KT 10SM CLR 04/03 A3007 RMK AO2 SLP189 T00440033

2006/10/02 03:52
KCID 020352Z 19013G19KT 10SM CLR 22/10 A2989 RMK AO2 SLP118 T02220100

2006/10/02 03:52
KCNU 020352Z AUTO 16010KT 10SM CLR 25/17 A2998 RMK AO2 SLP139 T02500172

2006/10/02 03:52
KMHK 020352Z AUTO 19013G21KT 10SM CLR 27/14 A2988 RMK AO2 SLP109 T02670139

2006/10/02 03:53
KCQC 020353Z AUTO 26010KT 10SM CLR 12/M05 A3026 RMK AO2 SLP166 T01221050 TSNO $

2006/10/02 03:53
KTCS 020353Z AUTO 03003KT 10SM CLR 21/00 A3012 RMK AO2 SLP129 T02060000 TSNO

2006/10/02 03:53
KMWN 020353Z 28020KT 1/16SM FG VV000 00/00 RMK

2006/10/02 03:48
KEHA 020348Z AUTO 18006KT 18/M01 RMK AO1 PK WND 13 000 T01831005

2006/10/02 03:54
KACY 020354Z 29008KT 10SM CLR 13/10 A3010 RMK AO2 SLP193 T01280100

2006/10/02 03:54
KFWA 020354Z 16003KT 10SM CLR 11/08 A3014 RMK AO2 SLP207 T01110078

2006/10/02 03:54
KAVP 020354Z 00000KT 6SM BR CLR 08/08 A3010 RMK AO2 SLP188 T00830078 $

2006/10/02 03:54
KCOS 020354Z 30008KT 10SM FEW120 19/M04 A3013 RMK AO2 SLP116 T01891039

2006/10/02 03:54
KBFF 020354Z AUTO 09006KT 10SM CLR 16/00 A2993 RMK AO2 SLP101 T01610000

2006/10/02 03:54
KGSO 020354Z 33003KT 10SM CLR 17/11 A3019 RMK AO2 SLP218 T01670111

2006/10/02 03:54
KCOU 020354Z AUTO 16010KT 10SM CLR 22/12 A3005 RMK AO2 SLP167 T02170117 TSNO

2006/10/02 03:54
KRFD 020354Z 18012KT 10SM CLR 19/11 A2998 RMK AO2 SLP150 T01940111

2006/10/02 03:52
KSPS 020352Z AUTO 15008KT 10SM 25/15 A2999 RMK AO2 SLP141 T02500150 $

2006/10/02 03:50
EGNM 020350Z 27009KT 9999 FEW006 SCT010 12/11 Q0995

2006/10/02 03:50
EGNS 020350Z 29013KT 9999 FEW012 13/11 Q0997

2006/10/02 03:50
EGNT 020350Z 28003KT 2500 BR FEW005 10/09 Q0994

2006/10/02 03:50
EGNV 020350Z 26005KT 9999 SCT015 BKN020 12/11 Q0994

2006/10/02 03:50
EGNX 020350Z 22014KT 9999 FEW020 SCT029 13/10 Q0997

2006/10/02 03:50
EGPB 020350Z AUTO 02016KT 9999 FEW007/// BKN009/// BKN045/// 11/10 Q0997

2006/10/02 03:50
EGPD 020350Z 01002KT 2500 BR BKN014 10/10 Q0994

2006/10/02 03:50
EGPF 020350Z 22004KT 5000 R05/0700 BR FEW000 BKN005 BKN006 08/07 Q0995

2006/10/02 03:50
EGPH 020350Z 00000KT 8000 MIFG FEW005 SCT008 10/10 Q0994

2006/10/02 03:50
EGPK 020350Z VRB03KT 9999 BKN009 11/11 Q0995

2006/10/02 03:50
ENMS 020350Z 17005KT 9999 -DZ SCT023 BKN028 11/09 Q1000

2006/10/02 03:50
ENNM 020350Z 09004KT 9999 FEW040 09/08 Q1002

2006/10/02 03:50
ENOL 020350Z 04003KT 9999 FEW020 BKN050 10/09 Q1001

2006/10/02 03:50
ENRM 020350Z 19004KT 9999 SCT018 SCT035 12/09 Q1001

2006/10/02 03:50
ENSK 020350Z 02003KT 9999 SCT025 BKN035 06/04 Q1001

2006/10/02 03:50
ENST 020350Z 07005KT 9999 BKN006 10/09 Q1001

2006/10/02 03:50
ENVD 020350Z 15012KT 9999 SCT012 BKN020 03/M01 Q1009

2006/10/02 03:52
KNBG 020352Z 00000KT 6SM BR SCT200 22/19 A3013 RMK AO2 SLP200 T02170194 $

2006/10/02 03:52
KNHK 020352Z 26004KT 10SM CLR 13/11 A3015 RMK AO2 SLP208 T01280111 VISNO RY24 $

2006/10/02 03:53
KNIP 020353Z 18005KT 7SM CLR 26/19 A3012 RMK AO2 SLP196 T02610194

2006/10/02 03:53
KNGU 020353Z 06004KT 10SM SCT060 19/13 A3016 RMK AO2 SLP211 T01940133

2006/10/02 03:55
KCOF 020355Z 06006KT 7SM SKC 27/21 A3010 RMK SLP193 LAST

2006/10/02 03:55
KGTB 020355Z 23002KT 7SM FEW030 SCT050 BKN090 11/11 A3004 RMK SLP173 RCRNR

2006/10/02 03:56
KNCA 020356Z 00000KT 7MS SKC 15/14 A3017 RMK SLP216 T01500139

2006/10/02 03:55
KNHZ 020355Z 36007KT 5SM -RA BR BKN025 OVC034 09/08 A3004 RMK SLP174 T00940083

2006/10/02 03:55
KQHN 020355Z 10002KT 9999 SKC 23/M03 A3002 RMK SLP117 WND DATA ESTMD ALSTG/SLP ESTMD QNH1016.6

2006/10/02 03:50
EGGP 020350Z 25015KT 8000 SHRA BKN022 13/10 Q0997

2006/10/02 03:50
EGGW 020350Z 24013KT 180V270 9999 FEW020 12/10 Q1001

2006/10/02 03:50
EGNT 020350Z 28003KT 2500 BR FEW005 10/09 Q0994

2006/10/02 03:50
ENAN 020350Z 20004KT 9999 FEW014 BKN020 07/05 Q1001

2006/10/02 03:50
ENDU 020350Z 00000KT 9999 -RA FEW025 BKN040 03/02 Q1002

2006/10/02 03:50
ENGC 020350Z 05017KT CAVOK 12/11 Q0997

2006/10/02 03:50
ENHV 020350Z 18015G25KT 150V230 9999 SHRA BKN020 05/01 Q1005

2006/10/02 03:50
ENLK 020350Z 00000KT 9999 -RA SCT025 BKN035 06/05 Q1002

2006/10/02 03:46
MMDO 020346Z 00000KT 10SM SCT020CB BKN030 OVC200 14/14 A3030 RMK 8/903 ISOL AC -RA E10 DROPS OCNLS

2006/10/02 03:46
MMHO 020346Z 00000KT 10SM FEW200 29/13 A2989 RMK 8/001 HZY

2006/10/02 03:54
MMLP 020354Z 00000KT 10SM FEW120 27/23 A2991 RMK 8/010 ISOL CI

2006/10/02 03:52
KSDB 020352Z AUTO 21006KT 10SM SCT080 14/10 A3006 RMK AO2 SLP135 T01440100 TSNO

2006/10/02 03:52
KP69 020352Z AUTO 00000KT 11/07 A2995 RMK AO2 SLP144 T01060067 PWINO TSNO

2006/10/02 03:52
KREO 020352Z AUTO 16004KT 12/M17 A2992 RMK AO2 SLP114 T01221167 PWINO TSNO

2006/10/02 03:52
KABI 020352Z 17012KT 10SM CLR 26/14 A3006 RMK AO2 SLP153 T02610139

2006/10/02 03:52
KALS 020352Z AUTO 27005KT 10SM CLR 14/M04 A3027 RMK AO2 SLP180 T01391044

2006/10/02 03:52
KVTN 020352Z AUTO 29004KT 10SM CLR 12/09 A2984 RMK AO2 SLP095 T01170089

2006/10/02 03:52
KN60 020352Z AUTO 32009KT 11/03 A2980 RMK AO1 SLP091 T01110033

2006/10/02 03:52
KSPS 020352Z AUTO 15008KT 10SM 25/15 A2999 RMK AO2 SLP141 T02500150 $

2006/10/02 03:52
K9V9 020352Z AUTO 33005KT 17/12 A2978 RMK AO1 SLP078 T01670117

2006/10/02 03:52
KTOL 020352Z 00000KT 10SM CLR 09/08 A3013 RMK AO2 SLP203 T00890078 $

2006/10/02 03:52
KBLU 020352Z AUTO 09004KT 10SM -RA OVC039 08/06 A3010 RMK AO2 SLP145 P0003 T00830056 TSNO

2006/10/02 03:52
KMFD 020352Z AUTO 21005KT 10SM CLR 09/07 A3016 RMK AO2 SLP213 T00890072 TSNO

2006/10/02 03:51
KELP 020351Z 00000KT 10SM FEW250 24/03 A3009 RMK AO2 SLP126 T02390028

2006/10/02 03:52
KCZZ 020352Z AUTO 00000KT 17/12 A2999 RMK AO1 SLP126 T01720117

2006/10/02 03:53
KSAV 020353Z 00000KT 9SM BKN065 21/19 A3012 RMK AO2 SLP197 T02110189

2006/10/02 03:53
KFNT 020353Z 16003KT 10SM MIFG CLR 05/04 A3012 RMK AO2 SLP204 T00500044

2006/10/02 03:53
KMGM 020353Z 00000KT 10SM CLR 23/20 A3013 RMK AO2 SLP200 T02330200

2006/10/02 03:53
KCAO 020353Z AUTO A3005 RMK AO2 SLPNO PWINO FZRANO TSNO PNO

2006/10/02 03:53
KLND 020353Z AUTO 23011KT 10SM CLR 18/M05 A3000 RMK AO2 SLP108 T01781050

2006/10/02 03:53
KMCN 020353Z AUTO 27003KT 5SM BR CLR 19/17 A3013 RMK AO2 SLP199 T01890167 TSNO

2006/10/02 03:53
KTLH 020353Z 27003KT 10SM CLR 23/18 A3012 RMK AO2 SLP200 T02280178

2006/10/02 03:53
KUIL 020353Z AUTO 00000KT 10SM BKN044 09/07 A3001 RMK AO2 SLP165 T00890067 TSNO

2006/10/02 03:53
KMSN 020353Z 13005KT 10SM FEW050 15/11 A2995 RMK AO2 SLP140 T01500106

2006/10/02 03:53
KLXV 020353Z AUTO 07005KT 10SM CLR 05/M08 A3039 RMK AO2 SLP159 T00501078 TSNO

2006/10/02 03:53
KELY 020353Z AUTO 18008KT 10SM BKN110 16/M06 A3007 RMK AO2 SLP101 T01561061

2006/10/02 03:53
KDAB 020353Z 00000KT 8SM CLR 22/19 A3013 RMK AO2 SLP202 T02220189

2006/10/02 03:53
KBNO 020353Z AUTO 33009KT 10SM CLR 15/M03 A2993 RMK AO2 SLP119 T01501033 TSNO

2006/10/02 03:53
KSTC 020353Z 00000KT 10SM CLR 16/12 A2973 RMK AO2 SLP075 T01610117

2006/10/02 03:53
KFAR 020353Z 25005KT 10SM CLR 16/09 A2970 RMK AO2 SLP056 T01610094

2006/10/02 03:53
K6R6 020353Z AUTO 10004KT 24/12 A3007 RMK AO2 SLP148 T02390122 PWINO TSNO

2006/10/02 03:53
KRQE 020353Z AUTO 00000KT 10SM CLR 09/M03 A3026 RMK AO2 SLP175 T00891033 TSNO $

2006/10/02 03:53
KSDM 020353Z AUTO 00000KT 9SM CLR 18/16 A2993 RMK AO2 SLP131 T01830161 TSNO

2006/10/02 03:53
KP68 020353Z AUTO VRB05KT 21/M03 A3002 RMK AO2 SLP087 T02061033 PWINO TSNO

2006/10/02 03:53
KCUT 020353Z AUTO 34003KT 10SM CLR 11/M01 A2999 RMK AO2 SLP098 T01111006 TSNO

2006/10/02 03:53
KMWT 020353Z AUTO 00000KT 10SM CLR 22/17 A3008 RMK AO2 SLP175 T02170172 TSNO

2006/10/02 03:53
KTYS 020353Z 00000KT 10SM CLR 16/13 A3020 RMK AO2 SLP221 T01610133

2006/10/02 03:53
KNUI 020353Z AUTO 00000KT 9SM CLR 12/11 A3014 RMK AO2 SLP206 T01220111 $

2006/10/02 03:53
KOQT 020353Z AUTO 00000KT 10SM CLR 13/11 A3023 RMK AO2 SLP231 T01280111 TSNO

2006/10/02 03:53
KTUP 020353Z AUTO 02004KT 10SM CLR 19/16 A3015 RMK AO2 SLP206 T01890156

2006/10/02 03:54
KJAN 020354Z 00000KT 10SM FEW070 22/18 A3013 RMK AO2 SLP196 T02220183

2006/10/02 03:53
KCTY 020353Z AUTO 00000KT 18/16 A3012 RMK AO2 SLP197 T01780156 PWINO TSNO

2006/10/02 03:53
KBTR 020353Z 00000KT 10SM FEW250 23/20 A3011 RMK AO2 SLP195 T02280200 $

2006/10/02 03:53
KP92 020353Z AUTO 00000KT 26/22 A3011 RMK AO2 SLP197 T02610222 PWINO TSNO

2006/10/02 03:53
KHSV 020353Z 06003KT 10SM CLR 17/11 A3019 RMK AO2 SLP219 T01670106

2006/10/02 03:53
K40J 020353Z AUTO 00000KT 19/16 A3011 RMK AO2 SLP195 T01940161 PWINO TSNO

2006/10/02 03:50
PKMR 020350Z 03007KT 15SM FEW016 SCT050 OVC300 30/25 A2972 RMK SLP064 T03030247

2006/10/02 03:54
PGUM 020354Z 24010KT 10SM -RA FEW075 27/25 A2959 RMK AO2 RAB22 SLP012 P0000 T02720250

2006/10/02 03:50
EGAA 020350Z 29009KT 9999 DZ BKN007 BKN018 12/12 Q0997

2006/10/02 03:50
EGBB 020350Z 21009KT 9999 FEW024 SCT030 12/11 Q0999

2006/10/02 03:50
EGFF 020350Z 24014G24KT 9000 VCSH SCT012 14/12 Q1001

2006/10/02 03:50
EGGD 020350Z 22010KT 9999 SHRA SCT015 SCT040 12/10 Q1002

2006/10/02 03:50
EGGP 020350Z 25015KT 8000 SHRA BKN022 13/10 Q0997

2006/10/02 03:50
EGGW 020350Z 24013KT 180V270 9999 FEW020 12/10 Q1001

2006/10/02 03:50
EGHH 020350Z 24010KT 9999 -SHRA SCT019 15/12 Q1003

2006/10/02 03:50
EGJB 020350Z 22017KT 9999 FEW012 16/14 Q1006

2006/10/02 03:50
EGJJ 020350Z 22018KT 9999 SCT018 16/12 Q1007 NOSIG

2006/10/02 03:50
EGKK 020350Z 22008KT CAVOK 14/11 Q1003

2006/10/02 03:50
EGLL 020350Z 24012KT CAVOK 14/11 Q1002

2006/10/02 03:50
EGPF 020350Z 22004KT 5000 R05/0700 BR FEW000 BKN005 BKN006 08/07 Q0995

2006/10/02 03:50
EGSS 020350Z 24015KT 9999 SCT016 BKN020 13/10 Q1001

2006/10/02 03:53
KMSY 020353Z 00000KT 10SM FEW250 25/21 A3012 RMK AO2 SLP201 T02500211 $

2006/10/02 03:49
MMLM 020349Z 00000KT 10SM SCT200 29/22 A2989 RMK 8/001

2006/10/02 03:50
ESDF 020350Z AUTO 19006KT 8000 SCT006 BKN010 BKN130 15/14 Q1004 RERA

2006/10/02 03:50
ESGG 020350Z 16006KT 8000 SHRA BKN005 SCT030CB 12/11 Q1001

2006/10/02 03:50
ESGJ 020350Z 14008KT 5000 BR OVC002 11/11 Q1002

2006/10/02 03:50
ESGP 020350Z 15006KT 3900 RA BKN004 14/13 Q1000

2006/10/02 03:50
ESMK 020350Z AUTO 21006KT 9000 BR NSC 15/14 Q1003

2006/10/02 03:50
ESMS 020350Z 17005KT 7000 BR FEW038 SCT044 14/14 Q1004

2006/10/02 03:50
ESMX 020350Z 14005KT 110V170 5000 BR BKN003 13/13 Q1003 RERA

2006/10/02 03:50
ESNN 020350Z 00000KT 9999 BCFG FEW026 BKN048 08/08 Q1003

2006/10/02 03:50
ESNO 020350Z VRB03KT 9999 BKN005 09/08 Q1003

2006/10/02 03:50
ESNQ 020350Z AUTO VRB01KT 3400 -PL OVC005 00/00 Q1002

2006/10/02 03:50
ESNS 020350Z 00000KT 0450 R10/1000U R28/0100N FG VV008 09/08 Q1002

2006/10/02 03:50
ESNU 020350Z AUTO 00000KT 9999 OVC001 09/09 Q1003

2006/10/02 03:50
ESPA 020350Z AUTO VRB03KT 1500 BR BKN002 OVC004 09/09 Q1003

2006/10/02 03:53
KBBW 020353Z AUTO 00000KT 10SM CLR 13/09 A2983 RMK AO2 SLPNO T01330094 $

2006/10/02 03:53
KBCE 020353Z AUTO 00000KT 10SM FEW110 12/M01 A3025 RMK AO2 SLP155 T01171006

2006/10/02 03:53
KBDE 020353Z AUTO 19003KT 10SM CLR 13/10 A2968 RMK AO2 SLP054 T01330100

2006/10/02 03:53
KBEH 020353Z AUTO 14007KT 10SM SCT090 OVC120 15/08 A3006 RMK AO2 SLP179 T01500083

2006/10/02 03:53
KBFD 020353Z AUTO 00000KT 3/4SM BR VV001 03/03 A3014 RMK AO2 SLP216 T00330028

2006/10/02 03:53
KBFI 020353Z 00000KT 10SM CLR 13/08 A3000 RMK AO2 SLP157 T01330078

2006/10/02 03:53
KBFM 020353Z AUTO 26004KT 10SM CLR 25/22 A3013 RMK AO2 SLP202 T02500222

2006/10/02 03:53
KBGM 020353Z 29006KT 10SM BKN080 10/08 A3010 RMK AO2 SLP193 T01000078

2006/10/02 03:53
KBGR 020353Z 01005KT 8SM -RA SCT031 BKN038 OVC055 10/08 A3004 RMK AO2 SLP171 P0003 T01000083

2006/10/02 03:53
KBHK 020353Z AUTO 14003KT 10SM CLR 13/04 A2988 RMK AO2 SLP107 T01330044

2006/10/02 03:53
KBHM 020353Z 00000KT 9SM CLR 20/17 A3018 RMK AO2 SLP213 T02000167

2006/10/02 03:53
KBIV 020353Z AUTO 16004KT 10SM -RA FEW070 BKN110 13/09 A3007 RMK AO2 RAB43 SLP183 P0000 T01280089

2006/10/02 03:53
KBKE 020353Z AUTO 20004KT 10SM CLR 08/M01 A2995 RMK AO2 SLP144 T00831006

2006/10/02 03:53
KBKV 020353Z AUTO 00000KT 5SM BR CLR 19/17 A3013 RMK AO2 SLP200 T01890172

2006/10/02 03:53
KBLH 020353Z AUTO 24004KT 10SM CLR 32/09 A2979 RMK AO2 SLP082 T03220094

2006/10/02 03:53
KBLI 020353Z 00000KT 10SM CLR 07/06 A3001 RMK AO2 SLP170 T00720061

2006/10/02 03:53
KBMG 020353Z AUTO 22004KT 10SM CLR 17/13 A3014 RMK AO2 SLP202 T01720128 $

2006/10/02 03:53
KBMQ 020353Z AUTO VRB06KT 10SM CLR 26/17 A3011 RMK AO2 SLP179 T02560172

2006/10/02 03:53
KBOI 020353Z 18005KT 10SM CLR 15/M04 A2987 RMK AO2 SLP099 T01501044

2006/10/02 03:56
KBOK 020356Z AUTO 00000KT 10SM BKN007 OVC011 10/10 A3003 RMK AO2 T01000100 CIG 003V010 SLP170

2006/10/02 03:53
KBPI 020353Z AUTO 31008KT 10SM CLR 09/M06 A3013 RMK AO2 SLP151 T00891056

2006/10/02 03:53
KBPK 020353Z AUTO 12005KT 10SM CLR 22/14 A3010 RMK AO2 SLP184 T02170144

2006/10/02 03:53
KBPT 020353Z AUTO 00000KT 8SM CLR 23/22 A3011 RMK AO2 SLP195 T02280217

2006/10/02 03:53
KBRD 020353Z AUTO 00000KT 10SM CLR 13/11 A2973 RMK AO2 SLP067 T01330111

2006/10/02 03:53
KBRL 020353Z AUTO 19013KT 10SM CLR 23/10 A2998 RMK AO2 SLP147 T02330100 $

2006/10/02 03:53
KBRO 020353Z 12007KT 10SM CLR 26/22 A3008 RMK AO2 SLP184 T02610222

2006/10/02 03:53
KBTL 020353Z AUTO 00000KT 10SM FEW120 12/08 A3011 RMK AO2 SLP194 T01170078

2006/10/02 03:53
KBTM 020353Z AUTO 12005KT 10SM CLR 09/M04 A2998 RMK AO2 SLP133 T00941039 $

2006/10/02 03:53
KBUR 020353Z 01003KT 10SM BKN085 21/14 A2993 RMK AO2 SLP124 T02060139

2006/10/02 03:53
KBVO 020353Z AUTO 17005KT 10SM BKN090 24/17 A2999 RMK AO2 SLP144 T02440172

2006/10/02 03:53
KBVY 020353Z AUTO 01008KT 10SM OVC008 11/10 A2999 RMK AO2 RAE03 CIG 005V012 SLP149 P0000 T01110100

2006/10/02 03:53
KBWG 020353Z AUTO 00000KT 10SM CLR 14/13 A3019 RMK AO2 SLP221 T01440128

2006/10/02 03:53
KHQM 020353Z AUTO 26003KT 10SM CLR 12/08 A3002 RMK AO2 SLP168 T01170083

2006/10/02 03:53
KHRI 020353Z AUTO 18007KT 10SM CLR 16/05 A2988 RMK AO2 SLP115 T01610050 TSNO

2006/10/02 03:53
KHRO 020353Z AUTO 13005KT 10SM CLR 21/17 A3011 RMK AO2 SLP184 T02060167

2006/10/02 03:53
KHSI 020353Z AUTO 19008KT 10SM CLR 23/11 A2981 RMK AO2 SLP079 T02280106

2006/10/02 03:53
KHUF 020353Z 19003KT 10SM CLR 15/11 A3013 RMK AO2 SLP200 T01500111 $

2006/10/02 03:53
KHUL 020353Z AUTO 05005KT 10SM BKN100 BKN120 11/06 A3006 RMK AO2 SLP182 T01060061

2006/10/02 03:53
KHVN 020353Z AUTO 32006KT 10SM FEW065 13/11 A3002 RMK AO2 SLP164 T01330111

2006/10/02 03:53
KHWO 020353Z AUTO 05008KT 10SM CLR A3008 RMK AO2 SLP187 FZRANO TSNO

2006/10/02 03:53
KHYR 020353Z AUTO 10SM CLR 18/10 A2981 RMK AO2 SLP094 T01780100 $

2006/10/02 03:53
KIAH 020353Z 17004KT 10SM FEW140 BKN250 25/21 A3010 RMK AO2 SLP192 T02500211

2006/10/02 03:53
KIDA 020353Z AUTO 20006KT 10SM CLR 13/01 A2998 RMK AO2 SLP134 T01280006

2006/10/02 03:53
KPMD 020353Z 00000KT 10SM CLR 20/11 A2998 RMK AO2 SLP131 T02000106

2006/10/02 03:53
KPMP 020353Z AUTO 06011KT 10SM FEW030 27/22 A3006 RMK AO2 SLP181 T02720222 PNO

2006/10/02 03:53
KPNC 020353Z AUTO 15011G18KT 10SM CLR 28/16 A2995 RMK AO2 SLP126 T02780161 $

2006/10/02 03:53
KPNS 020353Z AUTO 26005KT 10SM CLR 26/22 A3011 RMK AO2 SLP198 T02560217

2006/10/02 03:53
KPOU 020353Z AUTO 00000KT 1/4SM FG BKN085 09/09 A3004 RMK AO2 SLP170 T00940094

2006/10/02 03:53
KPQL 020353Z AUTO 00000KT 2 1/2SM BR CLR 21/19 A3012 RMK AO2 SLP200 T02060194

2006/10/02 03:53
KPRB 020353Z AUTO 28008KT 10SM CLR 14/09 A3000 RMK AO2 SLP158 T01440089

2006/10/02 03:53
KPRC 020353Z 17004KT 10SM CLR 22/01 A3016 RMK AO2 SLP129 T02170011

2006/10/02 03:53
KPSC 020353Z 00000KT 10SM CLR 12/08 A2988 RMK AO2 SLP117 T01220083

2006/10/02 03:53
KPSP 020353Z 31009KT 10SM CLR 30/08 A2980 RMK AO2 SLP088 T03000078

2006/10/02 03:53
KPSX 020353Z AUTO 15006KT 8SM CLR 25/22 A3010 RMK AO2 SLP191 T02500222

2006/10/02 03:53
KPUB 020353Z AUTO 27006KT 10SM CLR 16/02 A3004 RMK AO2 SLP120 T01610017

2006/10/02 03:53
KPUC 020353Z AUTO 02008KT 10SM CLR 15/M06 A3010 RMK AO2 SLP146 T01501056 $

2006/10/02 03:53
KPUW 020353Z AUTO 00000KT 10SM CLR 10/01 A2995 RMK AO2 SLP143 T01000006

2006/10/02 03:53
KPWA 020353Z 17013KT 10SM CLR 26/16 A3000 RMK AO2 SLP143 T02560161 $

2006/10/02 03:53
KRAC 020353Z AUTO 09015G19KT 10SM -TSRA OVC110 17/11 A3009 RMK AO2 LTG DSNT ALQDS TSB0257RAB05E22B50 SLP186 P0005 T01670111

2006/10/02 03:53
KRAL 020353Z AUTO 21003KT 8SM CLR 22/14 A2994 RMK AO2 SLP124 T02170139

2006/10/02 03:53
KRBD 020353Z 16009KT 10SM CLR 27/18 A3005 RMK AO2 SLP167 T02670183

2006/10/02 03:53
KRBG 020353Z AUTO 00000KT 10SM CLR 17/06 A2996 RMK AO2 SLP145 T01670061

2006/10/02 03:53
KRHI 020353Z AUTO 16005KT 10SM CLR 14/08 A2991 RMK AO2 SLP131 T01390078

2006/10/02 03:53
KRIL 020353Z AUTO 00000KT 10SM CLR 13/M03 A3012 RMK AO2 SLP158 T01281028

2006/10/02 03:53
KRIW 020353Z AUTO 29008KT 10SM CLR 13/M04 A3000 RMK AO2 SLP112 T01331039

2006/10/02 03:53
KRKP 020353Z AUTO 14008KT 10SM CLR 28/23 A3007 RMK AO2 SLP185 T02780228 $

2006/10/02 03:53
KRNT 020353Z AUTO 35006KT 10SM CLR 14/09 A3000 RMK AO2 SLP162 T01390094

2006/10/02 03:53
KRSL 020353Z AUTO 18014KT 10SM CLR 26/12 A2985 RMK AO2 SLP087 T02560122

2006/10/02 03:53
KRSW 020353Z AUTO 08006KT 10SM CLR 24/21 A3009 RMK AO2 SLP186 T02390206

2006/10/02 03:53
KRUE 020353Z AUTO 00000KT 10SM CLR 24/20 A3009 RMK AO2 SLP181 T02390200

2006/10/02 03:53
KRVS 020353Z AUTO 18007KT 10SM CLR 26/17 A3000 RMK AO2 SLP161 T02560167

2006/10/02 03:53
KRWF 020353Z AUTO 00000KT 10SM CLR 19/12 A2973 RMK AO2 SLP064 T01940122

2006/10/02 03:53
KRWI 020353Z AUTO 00000KT 10SM CLR 12/12 A3015 RMK AO2 SLP211 T01170117

2006/10/02 03:53
KRWL 020353Z AUTO 25013KT 10SM CLR 14/M06 A3012 RMK AO2 SLP126 T01441056 $

2006/10/02 03:53
KMGW 020353Z AUTO 00000KT 10SM CLR 09/07 A3020 RMK AO2 SLP226 T00890072

2006/10/02 03:53
KMGY 020353Z AUTO 00000KT 10SM CLR 14/09 A3016 RMK AO2 SLP212 T01390089

2006/10/02 03:53
KMHE 020353Z AUTO 27003KT 10SM CLR 17/13 A2976 RMK AO2 SLP073 T01670128 $

2006/10/02 03:53
KMHT 020353Z AUTO 35007KT 10SM FEW007 OVC013 11/09 A3001 RMK AO2 SLP174 T01110094 TSNO

2006/10/02 03:53
KMIA 020353Z 05009KT 10SM FEW027 28/21 A3006 RMK AO2 SLP180 T02780211

2006/10/02 03:53
KMIC 020353Z AUTO 15003KT 10SM CLR 18/11 A2975 RMK AO2 SLP071 T01830111

2006/10/02 03:53
KMIE 020353Z AUTO 19004KT 10SM CLR 14/10 A3014 RMK AO2 SLP199 T01440100

2006/10/02 03:53
KMIW 020353Z AUTO 18014KT 10SM CLR 23/12 A2985 RMK AO2 SLP103 T02330117

2006/10/02 03:53
KMKL 020353Z AUTO 00000KT 10SM CLR 14/12 A3016 RMK AO2 SLP211 T01440117

2006/10/02 03:53
KMKO 020353Z AUTO 16006KT 10SM CLR 22/16 A3005 RMK AO2 SLP169 T02220156

2006/10/02 03:53
KMLB 020353Z AUTO 06009KT 10SM CLR 26/21 A3010 RMK AO2 SLP190 T02610211

2006/10/02 03:53
KMLC 020353Z AUTO 18007KT 10SM CLR 27/14 A3005 RMK AO2 SLP164 T02670139

2006/10/02 03:53
KMLP 020353Z AUTO 21006KT 10SM CLR 07/M01 A2999 RMK AO2 SLP094 T00721006 TSNO

2006/10/02 03:50
K7BM 020350Z AUTO 23006KT 10SM CLR 12/M08 A3039 RMK AO2

2006/10/02 03:53
KABR 020353Z AUTO 00000KT 10SM CLR 12/09 A2975 RMK AO2 SLP074 T01220094

2006/10/02 03:53
KABY 020353Z 00000KT 6SM BR CLR 21/19 A3014 RMK AO2 SLP205 T02110189

2006/10/02 03:53
KACK 020353Z AUTO 29006KT 10SM CLR 14/13 A2992 RMK AO2 SLP132 T01390133 TSNO

2006/10/02 03:53
KACV 020353Z AUTO 08003KT 10SM CLR 10/08 A3002 RMK AO2 SLP172 T01000078

2006/10/02 03:45
KAEG 020345Z AUTO 26007KT CLR 14/M03 A3017 RMK A01 P000

2006/10/02 03:53
KAEX 020353Z 00000KT 10SM CLR 23/20 A3009 RMK AO2 SLP190 T02280200

2006/10/02 03:53
KAFW 020353Z 17010KT 10SM CLR 28/16 A3003 RMK AO2 SLP154 T02780161

2006/10/02 03:53
KAGS 020353Z 00000KT 10SM CLR 17/15 A3013 RMK AO2 SLP200 T01720150

2006/10/02 03:53
KAIA 020353Z AUTO 17003KT 10SM CLR 13/06 A2991 RMK AO2 SLP096 T01330056

2006/10/02 03:53
KAKO 020353Z AUTO 23007KT 10SM CLR 18/M02 A3001 RMK AO2 SLP111 T01831022

2006/10/02 03:53
KALI 020353Z AUTO 11007KT 10SM CLR 26/23 A3007 RMK AO2 SLP180 T02560233

2006/10/02 03:53
KALW 020353Z AUTO 09005KT 10SM CLR 14/04 A2990 RMK AO2 SLP123 T01390039

2006/10/02 03:53
KAMA 020353Z 18015KT 10SM CLR 22/16 A3004 RMK AO2 SLP122 T02170156 $

2006/10/02 03:53
KAMG 020353Z AUTO 00000KT 9SM SCT070 19/17 A3011 RMK AO2 SLP193 T01890172

2006/10/02 03:53
KAMW 020353Z AUTO 18009KT 10SM FEW095 23/15 A2985 RMK AO2 SLP099 T02280150

2006/10/02 03:53
KANB 020353Z AUTO 00000KT 5SM BR CLR 18/16 A3017 RMK AO2 SLP211 T01830161

2006/10/02 03:51
KANW 020351Z AUTO 30003KT 10SM CLR 17/09 A2984 RMK AO2

2006/10/02 03:53
KAOH 020353Z AUTO 17007KT 10SM CLR 11/08 A3015 RMK AO2 SLP208 T01060078

2006/10/02 03:53
KAOO 020353Z AUTO 24003KT 10SM CLR 08/07 A3016 RMK AO2 SLP215 T00780067

2006/10/02 03:53
KAPA 020353Z 25003KT 10SM SCT120 BKN200 18/M05 A3009 RMK AO2 SLP123 T01831050

2006/10/02 03:53
KAPF 020353Z AUTO 05008KT 10SM CLR 25/22 A3008 RMK AO2 SLP184 T02500217

2006/10/02 03:51
KAQR 020351Z AUTO 16005KT 10SM CLR 26/17 A3004 RMK AO2

2006/10/02 03:53
KARA 020353Z 00000KT 7SM CLR 23/21 A3012 RMK AO2 SLP199 T02280211

2006/10/02 03:53
KASE 020353Z 16008KT 10SM CLR 11/M04 A3027 RMK AO2 SLP158 T01061039

2006/10/02 03:53
KASX 020353Z AUTO 00000KT 10SM CLR 12/09 A2979 RMK AO2 SLP090 T01170089

2006/10/02 03:53
KATY 020353Z AUTO 20003KT 10SM CLR 13/11 A2976 RMK AO2 SLP074 T01280106

2006/10/02 03:53
KAUG 020353Z AUTO 36005KT 6SM -RA BR SCT031 BKN043 OVC050 09/08 A3004 RMK AO2 SLP174 P0008 T00890083

2006/10/02 03:53
KAUS 020353Z 17009KT 10SM SCT120 25/19 A3008 RMK AO2 SLP177 T02500194 $

2006/10/02 03:53
KAWM 020353Z AUTO 00000KT 10SM CLR 20/13 A3011 RMK AO2 SLP194 T02000128 $

2006/10/02 03:53
KAXN 020353Z AUTO 16003KT 10SM CLR 15/11 A2975 RMK AO2 SLP073 T01500111

2006/10/02 03:53
KAZO 020353Z 00000KT 10SM BKN120 12/08 A3010 RMK AO2 SLP194 T01170078

2006/10/02 03:53
KBAF 020353Z 01003KT 10SM BKN017 BKN029 11/10 A3002 RMK AO2 SLP168 T01110100

2006/10/02 03:53
KDEW 020353Z AUTO 00000KT 10SM CLR 06/00 A2990 RMK AO2 SLP131 T00610000 $

2006/10/02 03:53
KDGW 020353Z AUTO 08007KT 10SM CLR 16/M03 A2996 RMK AO2 SLP101 T01611028

2006/10/02 03:53
KDHN 020353Z 00000KT 10SM SCT060 21/18 A3016 RMK AO2 SLP207 T02110183

2006/10/02 03:53
KDHT 020353Z AUTO 18011KT 10SM CLR 18/05 A3003 RMK AO2 SLP119 T01830050 $

2006/10/02 03:53
KDLN 020353Z AUTO 21003KT 10SM CLR 11/M03 A2992 RMK AO2 SLP104 T01111033

2006/10/02 03:53
KDLS 020353Z AUTO 28017G23KT 10SM CLR 18/07 A2990 RMK AO2 SLP125 T01780072 $

2006/10/02 03:53
KDMN 020353Z AUTO 32004KT 10SM FEW080 18/03 A3012 RMK AO2 SLP142 T01780028

2006/10/02 03:53
KDMO 020353Z AUTO 17012KT 10SM CLR 24/14 A3002 RMK AO2 SLP158 T02390144

2006/10/02 03:53
KDNL 020353Z AUTO 07008KT 10SM CLR 23/15 A3014 RMK AO2 SLP202 T02330150

2006/10/02 03:53
KDRO 020353Z AUTO 35005KT 10SM CLR 13/M02 A3024 RMK AO2 SLP182 T01331022

2006/10/02 03:53
KDRT 020353Z AUTO 13006KT 10SM CLR 27/17 A3004 RMK AO2 SLP157 T02670172

2006/10/02 03:53
KDTN 020353Z AUTO 14003KT 10SM CLR 22/18 A3009 RMK AO2 SLP187 T02170183

2006/10/02 03:53
KDTO 020353Z 16011KT 10SM CLR 28/17 A3004 RMK AO2 SLP161 T02830167

2006/10/02 03:53
KILM 020353Z AUTO 04006KT 10SM CLR 17/13 A3015 RMK AO2 SLP209 T01720133 $

2006/10/02 03:53
KIML 020353Z AUTO 27003KT 10SM CLR 16/04 A2989 RMK AO2 SLP102 T01610039

2006/10/02 03:53
KINK 020353Z AUTO 13011KT 10SM CLR 27/16 A3005 RMK AO2 SLP128 T02670156

2006/10/02 03:53
KIPL 020353Z AUTO 27009KT 10SM CLR 31/04 A2977 RMK AO2 SLP081 T03110044

2006/10/02 03:53
KITR 020353Z AUTO 22006KT 10SM CLR 16/02 A2998 RMK AO2 SLP106 T01560022 $

2006/10/02 03:53
KIWI 020353Z AUTO 00000KT 5SM -RA BR OVC035 10/09 A3003 RMK AO2 SLP170 P0007 T01000089

2006/10/02 03:53
KIXD 020353Z AUTO 18011KT 10SM CLR 25/18 A2997 RMK AO2 SLP136 T02500183

2006/10/02 03:53
KJBR 020353Z AUTO 00000KT 10SM CLR 19/14 A3012 RMK AO2 SLP197 T01890139 $

2006/10/02 03:53
KJEF 020353Z AUTO 13006KT 10SM CLR 22/12 A3004 RMK AO2 SLP160 T02170122

2006/10/02 03:53
KJER 020353Z AUTO 00000KT 10SM CLR 16/M09 A2993 RMK AO2 SLP111 T01561089 TSNO

2006/10/02 03:53
KJKL 020353Z AUTO 19003KT 10SM CLR 16/11 A3022 RMK AO2 SLP227 T01560106

2006/10/02 03:53
KJLN 020353Z 18011KT 10SM CLR 24/18 A3002 RMK AO2 SLP155 T02440183

2006/10/02 03:53
KLAA 020353Z AUTO 23003KT 10SM CLR 13/06 A2996 RMK AO2 SLP115 T01280061 $

2006/10/02 03:53
KLAR 020353Z AUTO 25007KT 10SM CLR 08/M06 A3016 RMK AO2 SLP129 T00781061

2006/10/02 03:53
KLAW 020353Z AUTO 16008KT 10SM CLR 26/15 A2999 RMK AO2 SLP143 T02560150 TSNO

2006/10/02 03:53
KLBB 020353Z 17012KT 10SM CLR 23/16 A3008 RMK AO2 SLP137 T02330156 $

2006/10/02 03:53
KLBF 020353Z AUTO 00000KT 10SM CLR 12/08 A2987 RMK AO2 SLP100 T01220083

2006/10/02 03:50
KLCG 020350Z AUTO 00000KT 10SM CLR 16/12 A2978 RMK AO2

2006/10/02 03:53
KLBX 020353Z AUTO 00000KT 10SM CLR 23/21 A3010 RMK AO2 SLP193 T02280206

2006/10/02 03:53
KLCH 020353Z AUTO 00000KT 8SM CLR 23/21 A3011 RMK AO2 SLP203 T02280211 TSNO $

2006/10/02 03:53
KLEB 020353Z 00000KT 7SM OVC022 10/09 A3003 RMK AO2 SLP169 T01000089

2006/10/02 03:53
KLEE 020353Z AUTO 00000KT 9SM CLR 23/20 A3013 RMK AO2 SLP202 T02280200

2006/10/02 03:53
KBYG 020353Z AUTO 30008KT 10SM CLR 14/M02 A2992 RMK AO2 SLP082 T01441022 $

2006/10/02 03:53
KBYI 020353Z AUTO 17005KT 10SM CLR 11/03 A2993 RMK AO2 SLP113 T01110033

2006/10/02 03:53
KCAG 020353Z AUTO 13005KT 10SM CLR 04/00 A3015 RMK AO2 SLP181 T00440000

2006/10/02 03:53
KCCR 020353Z 26006KT 10SM CLR 14/08 A3000 RMK AO2 SLP146 T01390083

2006/10/02 03:53
KCDC 020353Z AUTO 21004KT 10SM CLR 18/M01 A3010 RMK AO2 SLP124 T01831011

2006/10/02 03:53
KCDR 020353Z AUTO 00000KT 10SM CLR 14/06 A2986 RMK AO2 SLP097 T01390061

2006/10/02 03:53
KCDS 020353Z AUTO 16009KT 10SM CLR 22/16 A3001 RMK AO2 SLP138 T02220156 $

2006/10/02 03:53
KCDW 020353Z 00000KT 10SM CLR 11/10 A3006 RMK AO2 SLP185 T01110100

2006/10/02 03:53
KCEW 020353Z AUTO 00000KT 10SM CLR 22/20 A3013 RMK AO2 SLP200 T02170200 $

2006/10/02 03:53
KCEZ 020353Z AUTO 00000KT 10SM CLR 11/M01 A3019 RMK AO2 SLP173 T01061011

2006/10/02 03:53
KCGI 020353Z AUTO 18006KT 10SM CLR 16/12 A3014 RMK AO2 SLP205 T01560117

2006/10/02 03:53
KCHO 020353Z 00000KT 10SM CLR 11/09 A3018 RMK AO2 SLP218 T01110094

2006/10/02 03:53
KCLL 020353Z AUTO 17006KT 10SM CLR 26/21 A3009 RMK AO2 SLP185 T02560211

2006/10/02 03:53
KCLM 020353Z AUTO 00000KT 10SM OVC060 10/08 A3002 RMK AO2 SLP167 T01000078

2006/10/02 03:53
KCMI 020353Z 20008KT 10SM CLR 18/11 A3009 RMK AO2 SLP186 T01780111 $

2006/10/02 03:53
KCMX 020353Z AUTO 13008KT 10SM CLR 12/08 A2987 RMK AO2 SLP118 T01170078

2006/10/02 03:53
KCNM 020353Z AUTO 21008KT 10SM CLR 18/06 A3004 RMK AO2 SLP133 T01780056

2006/10/02 03:53
KCNO 020353Z AUTO 00000KT 6SM HZ CLR 19/14 A2995 RMK AO2 SLP137 T01940139

2006/10/02 03:53
KCNY 020353Z AUTO 22010KT 10SM CLR 20/M04 A3002 RMK AO2 SLP123 T02001039

2006/10/02 03:53
KCOT 020353Z AUTO 12009KT 10SM OVC020 26/23 A3007 RMK AO2 SLP174 T02610228

2006/10/02 03:53
KCPR 020353Z AUTO 24010KT 10SM CLR 14/M04 A2998 RMK AO2 SLP101 T01391039

2006/10/02 03:53
KCRE 020353Z 00000KT 10SM CLR 19/17 A3015 RMK AO2 SLP208 T01890167

2006/10/02 03:53
KCRG 020353Z AUTO 00000KT 7SM CLR 21/18 A3012 RMK AO2 SLP199 T02110183

2006/10/02 03:53
KCRQ 020353Z 31004KT 7SM FEW010 19/16 A2993 RMK AO2 SLP132 T01890161

2006/10/02 03:53
KCRS 020353Z AUTO 16007KT 10SM CLR 26/19 A3007 RMK AO2 SLP175 T02560189

2006/10/02 03:53
KCSM 020353Z AUTO 20011KT 10SM CLR 24/14 A3001 RMK AO2 SLP137 T02440144

2006/10/02 03:53
KCSV 020353Z AUTO 00000KT 10SM CLR 12/10 A3025 RMK AO2 SLP233 T01170100

2006/10/02 03:53
KCXO 020353Z AUTO 00000KT 10SM CLR 21/19 A3010 RMK AO2 SLP190 T02110194

2006/10/02 03:53
KCYS 020353Z AUTO 27011KT 10SM CLR 14/M07 A3009 RMK AO2 SLP116 T01391067

2006/10/02 03:53
KDAL 020353Z 16010KT 10SM FEW130 BKN300 28/18 A3005 RMK AO2 SLP168 T02780183

2006/10/02 03:53
KDCU 020353Z AUTO 04004KT 10SM CLR 19/10 A3018 RMK AO2 SLP215 T01890100 $

2006/10/02 03:53
KDEN 020353Z 27007KT 10SM SCT120 BKN200 23/M06 A3006 RMK AO2 SLP098 T02281061

2006/10/02 03:53
KDEQ 020353Z AUTO 00000KT 10SM CLR 26/17 A3006 RMK AO2 SLP174 T02560167

2006/10/02 03:53
KLFK 020353Z AUTO 15004KT 10SM CLR 23/19 A3011 RMK AO2 SLP192 T02330194

2006/10/02 03:53
KLFT 020353Z AUTO 00000KT 8SM CLR 24/22 A3012 RMK AO2 SLP197 T02390217 $

2006/10/02 03:53
KLGB 020353Z 30006KT 10SM CLR 19/12 A2992 RMK AO2 SLP131 T01890122

2006/10/02 03:53
KLHQ 020353Z AUTO 00000KT 10SM CLR 09/07 A3018 RMK AO2 SLP219 T00890067

2006/10/02 03:53
KLHX 020353Z AUTO 21007KT 10SM CLR 18/01 A2999 RMK AO2 SLP103 T01780011

2006/10/02 03:53
KLIT 020353Z 00000KT 7SM BKN250 24/19 A3010 RMK AO2 SLP191 T02390194 $

2006/10/02 03:53
KLLQ 020353Z AUTO 00000KT 10SM CLR 22/20 A3012 RMK AO2 SLP194 T02220200

2006/10/02 03:53
KLMT 020353Z 27008KT 7SM FEW250 14/06 A2997 RMK AO2 SLP129 T01390056 $

2006/10/02 03:53
KLNS 020353Z 29004KT 10SM CLR 11/09 A3013 RMK AO2 SLP201 T01060089

2006/10/02 03:53
KLOL 020353Z AUTO 33006KT 10SM CLR 22/M04 A2994 RMK AO2 SLP108 T02171039 TSNO

2006/10/02 03:53
KLOU 020353Z AUTO 00000KT 10SM CLR 16/13 A3016 RMK AO2 SLP212 T01560128

2006/10/02 03:53
KLOZ 020353Z AUTO 00000KT 7SM CLR 12/11 A3023 RMK AO2 SLP231 T01170106

2006/10/02 03:53
KLSE 020353Z AUTO 17007KT 10SM CLR 21/12 A2983 RMK AO2 SLP097 T02060117

2006/10/02 03:53
KLUK 020353Z AUTO 00000KT 9SM CLR 12/11 A3018 RMK AO2 SLP219 T01220111

2006/10/02 03:53
KLVJ 020353Z AUTO 00000KT 10SM CLR 24/21 A3012 RMK AO2 SLP198 T02440211

2006/10/02 03:53
KLVK 020353Z 26003KT 10SM CLR 13/11 A3000 RMK AO2 SLP158 T01330106

2006/10/02 03:53
KLVM 020353Z AUTO 24003KT 10SM CLR 12/M02 A2989 RMK AO2 SLP101 T01171022

2006/10/02 03:53
KLVS 020353Z AUTO 28005KT 10SM CLR 17/M06 A3023 RMK AO2 SLP131 T01721061

2006/10/02 03:53
KLWD 020353Z AUTO 18009KT 10SM CLR 23/16 A2991 RMK AO2 SLP122 T02330161 $

2006/10/02 03:53
KLWV 020353Z AUTO 00000KT 10SM CLR 16/12 A3013 RMK AO2 SLP200 T01610117

2006/10/02 03:53
KLXT 020353Z AUTO 18012G18KT 10SM CLR 26/18 A2998 RMK AO2 SLP140 T02560178

2006/10/02 03:53
KMAE 020353Z AUTO 00000KT 4SM BR BKN060 14/14 A2999 RMK AO2 RAE11 SLP153 T01440139 PNO $

2006/10/02 03:53
KMAF 020353Z AUTO 17014KT 10SM CLR 24/14 A3007 RMK AO2 SLP140 T02440144 TSNO

2006/10/02 03:53
KMAI 020353Z AUTO 00000KT 9SM FEW055 23/19 A3011 RMK AO2 SLP193 T02280189

2006/10/02 03:53
KMCB 020353Z AUTO 00000KT 8SM CLR 21/19 A3013 RMK AO2 SLP198 T02110194

2006/10/02 03:53
KMCE 020353Z AUTO 00000KT 6SM HZ FEW090 15/12 A2998 RMK AO2 RAB13E31 SLP151 P0000 T01500122

2006/10/02 03:53
KMCI 020353Z 18015KT 10SM SCT100 27/18 A2995 RMK AO2 SLP128 T02720178

2006/10/02 03:53
KMCK 020353Z AUTO 00000KT 10SM CLR 16/08 A2986 RMK AO2 SLP096 T01560078 $

2006/10/02 03:53
KMCW 020353Z AUTO 18009KT 10SM CLR 20/12 A2982 RMK AO2 SLP088 T02000117

2006/10/02 03:53
KMEI 020353Z AUTO 20003KT 10SM CLR 23/21 A3013 RMK AO2 SLP200 T02330211 $

2006/10/02 03:53
KMEM 020353Z 12005KT 10SM BKN250 23/12 A3013 RMK AO2 SLP200 T02330122 $

2006/10/02 03:53
KMFE 020353Z 13008KT 10SM CLR 26/22 A3007 RMK AO2 SLP181 T02610222

2006/10/02 03:53
KMFR 020353Z 04005KT 10SM FEW090 16/05 A2993 RMK AO2 SLP132 T01560050

2006/10/02 03:50
K0CO 020350Z AUTO 10SM 03/M11 A3053 RMK AO2

2006/10/02 03:51
K20V 020351Z AUTO 00000KT 10SM CLR 11/M05 A3025 RMK AO2

2006/10/02 03:53
KGEY 020353Z AUTO 32006KT 10SM BKN110 19/00 A2987 RMK AO2 SLP092 T01940000

2006/10/02 03:53
KGEZ 020353Z AUTO 18005KT 10SM CLR 15/11 A3013 RMK AO2 SLP201 T01500106

2006/10/02 03:53
KGFK 020353Z 27004KT 10SM CLR 12/06 A2968 RMK AO2 SLP052 T01170056

2006/10/02 03:53
KGFL 020353Z AUTO 00000KT 3/4SM BR OVC001 10/10 A3003 RMK AO2 CIG 001V004 SLP171 T01000100

2006/10/02 03:53
KGGG 020353Z AUTO 17003KT 10SM CLR 23/19 A3009 RMK AO2 SLP184 T02330189

2006/10/02 03:53
KGGW 020353Z AUTO 02007KT 10SM CLR 11/06 A2985 RMK AO2 SLP110 T01060061

2006/10/02 03:53
KGJT 020353Z AUTO 10011KT 10SM CLR 19/M01 A3007 RMK AO2 SLP134 T01891011

2006/10/02 03:53
KGKY 020353Z AUTO 16008KT 10SM CLR 27/17 A3005 RMK AO2 SLP166 T02670172

2006/10/02 03:53
KGLD 020353Z AUTO 21005KT 9SM CLR 20/01 A2993 RMK AO2 SLP096 T02000006 $

2006/10/02 03:53
KGLH 020353Z AUTO 14007KT 10SM FEW060 24/19 A3010 RMK AO2 SLP196 T02440189

2006/10/02 03:53
KGLR 020353Z AUTO 14003KT 10SM CLR 07/04 A3007 RMK AO2 SLP190 T00670044

2006/10/02 03:53
KGMU 020353Z AUTO 06004KT 10SM CLR 17/10 A3020 RMK AO2 SLP219 T01720100

2006/10/02 03:53
KGNV 020353Z AUTO 00000KT 9SM CLR 21/18 A3013 RMK AO2 SLP198 T02110178

2006/10/02 03:53
KGOK 020353Z AUTO 16011KT 10SM CLR 26/16 A2997 RMK AO2 SLP137 T02610161

2006/10/02 03:53
KGPT 020353Z AUTO 00000KT 6SM BR CLR 22/21 A3011 RMK AO2 SLP196 T02220206

2006/10/02 03:53
KGRB 020353Z 16007KT 10SM CLR 14/10 A2997 RMK AO2 SLP151 T01390100

2006/10/02 03:53
KGSH 020353Z AUTO 15004KT 10SM CLR 13/08 A3013 RMK AO2 SLP201 T01280083

2006/10/02 03:53
KGSP 020353Z AUTO 03003KT 10SM CLR 18/09 A3018 RMK AO2 SLP212 T01780094

2006/10/02 03:53
KGTF 020353Z 00000KT 10SM CLR 11/02 A2988 RMK AO2 SLP106 T01110017

2006/10/02 03:53
KGUP 020353Z AUTO 06005KT 10SM CLR 11/M08 A3024 RMK AO2 SLP151 T01061083

2006/10/02 03:53
KGUY 020353Z AUTO 19008KT 10SM CLR 19/08 A2996 RMK AO2 SLP101 T01940078

2006/10/02 03:53
KGVL 020353Z AUTO 35003KT 10SM CLR 18/12 A3019 RMK AO2 SLP212 T01830117

2006/10/02 03:53
KGWO 020353Z AUTO 00000KT 8SM OVC100 24/21 A3011 RMK AO2 SLP196 T02390206

2006/10/02 03:53
KGZH 020353Z AUTO 00000KT 10SM CLR 22/19 A3012 RMK AO2 SLP197 T02220194 $

2006/10/02 03:53
KHAO 020353Z AUTO 00000KT 10SM CLR 11/09 A3017 RMK AO2 SLP216 T01060089

2006/10/02 03:53
KHBG 020353Z AUTO 00000KT 10SM CLR 23/20 A3012 RMK AO2 SLP197 T02280200

2006/10/02 03:53
KHBR 020353Z AUTO 17011KT 10SM CLR 23/13 A3000 RMK AO2 SLP140 T02330133 $

2006/10/02 03:53
KHEI 020353Z AUTO 00000KT 10SM CLR 10/04 A2987 RMK AO2 SLP109 T01000044

2006/10/02 03:53
KHFD 020353Z AUTO 32005KT 10SM BKN023 12/11 A3002 RMK AO2 SLP165 T01220106

2006/10/02 03:53
KHGR 020353Z AUTO 00000KT 10SM CLR 11/08 A3015 RMK AO2 SLP220 T01110078

2006/10/02 03:53
KHHR 020353Z AUTO 28005KT 10SM CLR 19/14 A2992 RMK AO2 SLP130 T01940139

2006/10/02 03:53
KHIB 020353Z AUTO 00000KT 10SM CLR 08/07 A2976 RMK AO2 SLP084 T00780072

2006/10/02 03:53
KHIO 020353Z AUTO 35006KT 10SM CLR 12/08 A2998 RMK AO2 SLP153 T01220083 TSNO

2006/10/02 03:53
KHJO 020353Z AUTO 00000KT 10SM OVC100 16/12 A2999 RMK AO2 SLP156 T01560122 $

2006/10/02 03:53
KHKA 020353Z AUTO 11006KT 10SM CLR 19/12 A3013 RMK AO2 SLP202 T01940122

2006/10/02 03:53
KHKS 020353Z AUTO 00000KT 7SM CLR 23/20 A3013 RMK AO2 SLP194 T02330200

2006/10/02 03:53
KHKY 020353Z AUTO 35004KT 10SM CLR 15/10 A3020 RMK AO2 SLP209 T01500100

2006/10/02 03:53
KHLC 020353Z AUTO 00000KT 10SM CLR 17/04 A2984 RMK AO2 SLP086 T01670044

2006/10/02 03:53
KHLG 020353Z AUTO 18006KT 10SM CLR 11/08 A3017 RMK AO2 SLP220 T01110078

2006/10/02 03:53
KHLN 020353Z 23004KT 10SM CLR 16/M02 A2991 RMK AO2 SLP127 T01561017

2006/10/02 03:53
KHOT 020353Z AUTO 06004KT 10SM CLR 23/19 A3010 RMK AO2 SLP185 T02280189

2006/10/02 03:53
KHOU 020353Z 00000KT 10SM FEW150 BKN250 24/21 A3010 RMK AO2 SLP198 T02390211 $

2006/10/02 03:53
KXNA 020353Z AUTO 17005KT 10SM FEW090 19/18 A3008 RMK AO2 SLP173 T01890178

2006/10/02 03:53
KPLB 020353Z AUTO 00000KT 8SM SCT048 BKN055 OVC085 11/11 A3001 RMK AO2 RAB09E27 SLP164 P0001 T01110106

2006/10/02 03:53
KMLS 020353Z AUTO 04004KT 10SM CLR 18/M01 A2983 RMK AO2 SLP093 T01781011

2006/10/02 03:53
KMLU 020353Z 00000KT 5SM HZ CLR 22/19 A3011 RMK AO2 SLP195 T02220194

2006/10/02 03:53
KMMK 020353Z AUTO 00000KT 2 1/2SM BR FEW001 11/09 A3003 RMK AO2 VIS 1 1/4V5 SLP167 T01060094

2006/10/02 03:53
KMMV 020353Z AUTO 25003KT 10SM CLR 13/08 A2999 RMK AO2 SLP154 T01330083

2006/10/02 03:53
KMNN 020353Z AUTO 13003KT 10SM CLR 09/07 A3016 RMK AO2 SLP214 T00940072

2006/10/02 03:53
KMOD 020353Z AUTO 35003KT 6SM HZ OVC085 16/13 A2998 RMK AO2 SLP154 T01610133

2006/10/02 03:53
KMPO 020353Z AUTO VRB03KT 10SM FEW029 SCT090 08/07 A3009 RMK AO2 SLP192 T00830072

2006/10/02 03:53
KMRB 020353Z AUTO 00000KT 10SM CLR 10/07 A3016 RMK AO2 SLP213 T01000072 TSNO

2006/10/02 03:53
KMSL 020353Z AUTO 00000KT 10SM CLR 16/12 A3018 RMK AO2 SLP217 T01560117

2006/10/02 03:53
KMSO 020353Z 31006KT 10SM CLR 11/M01 A2992 RMK AO2 SLP135 T01061011

2006/10/02 03:53
KMSP 020353Z 15010G15KT 10SM FEW130 22/11 A2976 RMK AO2 SLP073 T02220106

2006/10/02 03:53
KMSS 020353Z AUTO 26003KT 1 1/2SM BR CLR 09/09 A3002 RMK AO2 SLP169 T00890089

2006/10/02 03:53
KMTH 020353Z AUTO 06013KT 10SM SCT027 29/22 A3005 RMK AO2 SLP175 T02890222

2006/10/02 03:53
KMTJ 020353Z AUTO 13006KT 10SM CLR 17/00 A3017 RMK AO2 SLP155 T01670000

2006/10/02 03:53
KMTO 020353Z AUTO 19007KT 10SM CLR 20/12 A3010 RMK AO2 SLP188 T02000117

2006/10/02 03:53
KMVY 020353Z 32006KT 10SM FEW008 SCT015 OVC021 15/13 A2994 RMK AO2 SLP140 T01500133

2006/10/02 03:53
KMWL 020353Z AUTO 17008KT 10SM CLR 26/14 A3003 RMK AO2 SLP154 T02610144

2006/10/02 03:53
KMYF 020353Z 32006KT 8SM CLR 19/16 A2993 RMK AO2 SLP133 T01940156

2006/10/02 03:53
KMYV 020353Z AUTO 12003KT 10SM BKN039 16/08 A3001 RMK AO2 SLP165 T01560083

2006/10/02 03:53
TISX 020353Z AUTO 05007KT 10SM CLR 27/23 A2997 RMK AO2 SLP148 T02720228 403220261 TSNO $

2006/10/02 03:53
TIST 020353Z 07009KT 10SM CLR 28/22 A2997 RMK AO2 SLP148 T02830222 403220278

2006/10/02 03:53
KTCL 020353Z AUTO 00000KT 6SM BR CLR 20/19 A3014 RMK AO2 SLP203 T02000194

2006/10/02 03:53
KTHV 020353Z AUTO 00000KT 10SM CLR 08/06 A3014 RMK AO2 SLP209 T00780061

2006/10/02 03:53
KTIW 020353Z AUTO 02006KT 10SM CLR 13/08 A2999 RMK AO2 SLP156 T01280078

2006/10/02 03:53
KTKI 020353Z AUTO 17010KT 10SM CLR 27/18 A3006 RMK AO2 SLP172 T02720178

2006/10/02 03:53
KTMB 020353Z AUTO 06008KT 10SM CLR 27/22 A3006 RMK AO2 SLP178 T02670217

2006/10/02 03:53
KTOI 020353Z AUTO 00000KT 9SM CLR 23/21 A3014 RMK AO2 SLP201 T02280206 TSNO

2006/10/02 03:53
KTOP 020353Z AUTO 17012G16KT 10SM CLR 27/18 A2991 RMK AO2 SLP120 T02670178

2006/10/02 03:53
KTOR 020353Z AUTO 00000KT 10SM CLR 19/M02 A2993 RMK AO2 SLP092 T01941017

2006/10/02 03:47
KTRK 020347Z AUTO 13004KT 10SM SCT048 OVC060 11/04 A3011 RMK AO1

2006/10/02 03:53
KTRL 020353Z AUTO 16005KT 10SM CLR 24/18 A3007 RMK AO2 SLP176 T02440178

2006/10/02 03:53
KTTD 020353Z 00000KT 10SM CLR 13/08 A2997 RMK AO2 SLP147 T01330083

2006/10/02 03:53
KTTN 020353Z AUTO 30004KT 10SM CLR 12/09 A3008 RMK AO2 SLP178 P0001 T01220094 $

2006/10/02 03:53
KTVC 020353Z VRB05KT 10SM BKN110 11/06 A3002 RMK AO2 SLP169 T01060061

2006/10/02 03:53
KTVL 020353Z AUTO 18003KT 10SM -RA OVC060 08/04 A3010 RMK AO2 SLP160 P0001 T00830044

2006/10/02 03:53
KTVR 020353Z AUTO 11004KT 8SM CLR 22/20 A3011 RMK AO2 SLP202 T02170200

2006/10/02 03:53
KTWF 020353Z AUTO 17005KT 10SM CLR 12/M02 A2993 RMK AO2 SLP094 T01221022

2006/10/02 03:53
KTXK 020353Z AUTO 16005KT 10SM CLR 24/17 A3009 RMK AO2 SLP182 T02440172

2006/10/02 03:53
KTYR 020353Z AUTO 17008KT 10SM CLR 26/18 A3010 RMK AO2 SLP184 T02560183 $

2006/10/02 03:53
KUAO 020353Z AUTO 00000KT 10SM CLR 13/09 A2998 RMK AO2 SLP153 T01280089

2006/10/02 03:53
KUNO 020353Z AUTO 16004KT 10SM CLR 20/12 A3013 RMK AO2 SLP193 T02000122 $

2006/10/02 03:53
KUTS 020353Z AUTO 16005KT 10SM CLR 25/21 A3012 RMK AO2 SLP192 T02500206

2006/10/02 03:53
KUUU 020353Z AUTO 32010KT 10SM OVC012 13/12 A2998 RMK AO2 SLP152 T01330117 $

2006/10/02 03:53
KVEL 020353Z AUTO 35004KT 10SM CLR 10/00 A3007 RMK AO2 SLP149 T01000000

2006/10/02 03:53
KVGT 020353Z AUTO 22007KT 10SM CLR 29/M01 A2987 RMK AO2 SLP082 T02941006

2006/10/02 03:53
KVIH 020353Z AUTO 18012KT 10SM CLR 22/12 A3008 RMK AO2 SLP176 T02170122

2006/10/02 03:53
KVLD 020353Z AUTO 00000KT 10SM CLR 19/17 A3011 RMK AO2 SLP203 T01940172

2006/10/02 03:53
KVPC 020353Z AUTO 00000KT 8SM CLR 14/13 A3018 RMK AO2 SLP211 T01440133

2006/10/02 03:53
KVPZ 020353Z AUTO 16004KT 10SM SCT120 14/11 A3010 RMK AO2 SLP192 T01440106 $

2006/10/02 03:53
KVRB 020353Z 06006KT 10SM SCT035 26/19 A3009 RMK AO2 SLP189 T02610194 $

2006/10/02 03:53
KVUO 020353Z AUTO 31004KT 10SM CLR 16/09 A2998 RMK AO2 SLP151 T01560089

2006/10/02 03:53
KWRL 020353Z AUTO 12003KT 10SM CLR 14/02 A2990 RMK AO2 SLP103 T01440022

2006/10/02 03:53
KWST 020353Z AUTO 33006KT 10SM OVC015 13/12 A3000 RMK AO2 SLP157 T01330122

2006/10/02 03:53
KWVI 020353Z AUTO 00000KT 10SM CLR 13/11 A3001 RMK AO2 SLP162 T01330106

2006/10/02 03:53
PAPB 020353Z AUTO 26012KT 4SM HZ OVC004 08/ A2945 RMK AO2 SLP961 T0078 TSNO $

2006/10/02 03:53
PASC 020353Z 00000KT 10SM BKN010 OVC043 01/01 A2971 RMK AO2 SLP061 T00110006

2006/10/02 03:53
PASI 020353Z 10005KT 10SM BKN048 07/04 A3011 RMK AO2 SLP196 T00720044

2006/10/02 03:53
PASN 020353Z AUTO 26010KT 9SM BKN003 OVC007 07/07 A2942 RMK AO2 RAE53 SLP963 P0000 T00720072 TSNO

2006/10/02 03:53
PASO 020353Z AUTO 00000KT 3SM -RA BR BKN014 BKN034 OVC050 09/08 A2966 RMK AO2 SLP043 P0001 T00890083 TSNO

2006/10/02 03:53
PATK 020353Z AUTO 36004KT 10SM OVC060 03/02 A2984 RMK AO2 RAE30 SLP111 P0001 T00330022 TSNO

2006/10/02 03:53
PATO 020353Z AUTO 13014G23KT 9SM -RA BKN023 BKN032 OVC050 07/03 A2989 RMK AO2 SLP122 P0001 T00670028 TSNO $

2006/10/02 03:53
PAVL 020353Z AUTO 34005KT 10SM CLR 03/00 A2973 RMK AO2 SLP068 T00280000 TSNO

2006/10/02 03:53
PAWD 020353Z AUTO 00000KT 10SM -RA BKN050 OVC075 06/05 A2981 RMK AO2 SLP095 P0002 T00610050 TSNO

2006/10/02 03:53
PAWI 020353Z AUTO 32010KT 10SM OVC005 M01/M01 A2968 RMK AO2 SLP051 T10061011 TSNO $

2006/10/02 03:53
PAYA 020353Z 00000KT 10SM CLR 06/04 A3005 RMK AO2 SLP175 BAY TWR WND CALM T00610044

2006/10/02 03:53
PHJR 020353Z 07005KT 10SM CLR 27/21 A2994 RMK AO2 SLP145 T02720211

2006/10/02 03:53
KPIL 020353Z AUTO 13009KT 10SM 28/22 A3008 RMK AO2 SLP186 T02830222 $

2006/10/02 03:53
KPTK 020353Z 00000KT 9SM FEW250 09/07 A3012 RMK AO2 SLP201 T00890072

2006/10/02 03:50
KRQO 020350Z AUTO 16011KT 10SM CLR 24/17 A2999 RMK AO2

2006/10/02 03:53
KTDZ 020353Z AUTO 19003KT 10SM CLR 10/08 A3014 RMK AO2 SLP206 T01000078

2006/10/02 03:51
KWDG 020351Z AUTO 17014KT 10SM CLR 26/16 A2994 RMK AO2

2006/10/02 03:53
KYIP 020353Z 00000KT 3SM BR CLR 08/07 A3013 RMK AO2 SLP201 T00830072

2006/10/02 03:53
KZZV 020353Z AUTO 00000KT 10SM CLR 10/08 A3017 RMK AO2 SLP217 T01000083

2006/10/02 03:53
KRXE 020353Z AUTO 18008KT 10SM BKN110 17/M03 A2997 RMK AO2 SLP126 T01671028

2006/10/02 03:53
KSAC 020353Z 00000KT 10SM CLR 15/08 A3000 RMK AO2 SLP160 T01500083

2006/10/02 03:53
KSAF 020353Z AUTO 35003KT 10SM CLR 16/M04 A3022 RMK AO2 SLP149 T01561039

2006/10/02 03:53
KSBA 020353Z 00000KT 8SM FEW120 17/15 A2993 RMK AO2 RAE00 SLP134 P0000 T01720150

2006/10/02 03:53
KSBM 020353Z AUTO 14006KT 10SM VCTS BKN100 16/11 A2998 RMK AO2 LTG DSNT NE AND E TSB11E46B53 SLP150 T01560111

2006/10/02 03:53
KSDL 020353Z AUTO 36003KT 10SM CLR 30/06 A2990 RMK AO2 SLP101 T03000056

2006/10/02 03:53
KSEA 020353Z 04008KT 10SM FEW200 13/08 A3001 RMK AO2 SLP167 T01330083

2006/10/02 03:53
KSEG 020353Z AUTO 00000KT 6SM BR CLR 08/07 A3013 RMK AO2 SLP204 T00830072

2006/10/02 03:53
KSFB 020353Z AUTO 00000KT 9SM CLR 23/19 A3011 RMK AO2 SLP196 T02280194 TSNO

2006/10/02 03:53
KSFD 020353Z AUTO 21005KT 5SM HZ CLR 19/10 A2980 RMK AO2 SLP079 T01890100 TSNO

2006/10/02 03:53
KSFF 020353Z 00000KT 10SM CLR 11/02 A2991 RMK AO2 SLP125 T01110022

2006/10/02 03:53
KSGR 020353Z AUTO 15003KT 10SM CLR 23/21 A3010 RMK AO2 SLP200 T02330206

2006/10/02 03:53
KSHN 020353Z AUTO 00000KT 10SM CLR 12/05 A2999 RMK AO2 SLP156 T01170050 TSNO

2006/10/02 03:53
KSHR 020353Z AUTO 00000KT 10SM CLR 12/05 A2989 RMK AO2 SLP099 T01170050

2006/10/02 03:53
KOGB 020353Z AUTO 00000KT 9SM CLR 18/15 A3015 RMK AO2 SLP207 T01830150 $

2006/10/02 03:53
KOGD 020353Z 17009KT 10SM CLR 17/00 A2995 RMK AO2 SLP105 T01720000

2006/10/02 03:53
KOJC 020353Z AUTO 18012KT 10SM CLR 25/19 A2997 RMK AO2 SLP137 T02500189 TSNO

2006/10/02 03:53
KOLF 020353Z AUTO 01008KT 10SM CLR 14/06 A2984 RMK AO2 SLP106 T01440061

2006/10/02 03:53
KOMK 020353Z AUTO 31009KT 10SM CLR 13/01 A2988 RMK AO2 SLP118 T01280011

2006/10/02 03:53
KONO 020353Z AUTO 33005KT 10SM CLR 12/M01 A2987 RMK AO2 SLP115 T01171006

2006/10/02 03:53
KONT 020353Z 26004KT 6SM HZ CLR 21/14 A2994 RMK AO2 SLP129 T02110139

2006/10/02 03:53
KOPF 020353Z AUTO 06008KT 10SM SCT031 28/22 A3006 RMK AO2 SLP181 T02780217 PNO

2006/10/02 03:53
KORL 020353Z 05004KT 10SM CLR 24/20 A3012 RMK AO2 SLP201 T02390200

2006/10/02 03:53
KOSH 020353Z 15007KT 10SM CLR 15/10 A2994 RMK AO2 LTG DSNT S-W SLP135 T01500100

2006/10/02 03:53
KOSU 020353Z AUTO 00000KT 10SM CLR 11/08 A3017 RMK AO2 SLP214 T01110083

2006/10/02 03:53
KOTM 020353Z AUTO 18015G20KT 10SM CLR 24/11 A2992 RMK AO2 SLP125 T02390111

2006/10/02 03:53
KOVE 020353Z AUTO 13004KT 10SM SCT045 17/08 A3003 RMK AO2 SLP172 T01670078

2006/10/02 03:53
KOVS 020353Z AUTO 23004KT 10SM CLR 17/12 A2988 RMK AO2 SLP118 T01670122

2006/10/02 03:53
KOWD 020353Z AUTO 01006KT 10SM OVC007 12/11 A2998 RMK AO2 CIG 005V010 SLP150 T01220111

2006/10/02 03:53
KOXB 020353Z AUTO 27006KT 10SM CLR 13/11 A3012 RMK AO2 SLP200 T01330111

2006/10/02 03:53
KPAE 020353Z 01004KT 10SM BKN060 12/08 A3001 RMK AO2 SLP191 T01220083

2006/10/02 03:53
KPAH 020353Z AUTO 00000KT 10SM CLR 15/12 A3015 RMK AO2 SLP207 T01500122

2006/10/02 03:53
KPBF 020353Z AUTO 00000KT 9SM CLR 23/21 A3010 RMK AO2 SLP189 T02280206

2006/10/02 03:53
KPBI 020353Z 07008KT 10SM FEW033 28/21 A3008 RMK AO2 SLP185 T02780211

2006/10/02 03:53
KPDK 020353Z AUTO 00000KT 10SM CLR 16/13 A3017 RMK AO2 SLP206 T01610128

2006/10/02 03:53
KPDT 020353Z AUTO 15004KT 10SM CLR 14/01 A2990 RMK AO2 SLP117 T01390006

2006/10/02 03:53
KPFN 020353Z AUTO 00000KT 7SM CLR 25/23 A3011 RMK AO2 SLP195 T02500228 $

2006/10/02 03:53
KPGD 020353Z AUTO 09005KT 10SM CLR 23/19 A3012 RMK AO2 SLP197 T02280189

2006/10/02 03:53
KPIE 020353Z 04010KT 10SM CLR 25/21 A3011 RMK AO2 SLP195 T02500206

2006/10/02 03:53
KPIH 020353Z 09006KT 10SM CLR 14/M01 A2996 RMK AO2 SLP120 T01391011

2006/10/02 03:53
KPIR 020353Z AUTO 01003KT 10SM CLR 16/11 A2978 RMK AO2 SLP077 T01560106

2006/10/02 03:53
KPKB 020353Z AUTO 00000KT 10SM CLR 09/08 A3021 RMK AO2 SLP230 T00940083

2006/10/02 03:53
KPKD 020353Z AUTO 15004KT 10SM CLR 13/10 A2972 RMK AO2 SLP065 T01280100

2006/10/02 03:53
CYQM 020353Z 05010KT 8SM -SHRA BKN018 BKN080 OVC250 12/ RMK SC6AC1CI1

2006/10/02 03:53
KSJC 020353Z 01003KT 10SM FEW025 SCT037 BKN090 16/11 A3001 RMK AO2 SLP161 T01610106

2006/10/02 03:53
KSLN 020353Z 18017G29KT 10SM CLR 28/15 A2986 RMK AO2 PK WND 19032/0257 SLP096 T02780150

2006/10/02 03:53
KSMF 020353Z 13003KT 10SM CLR 16/08 A3000 RMK AO2 SLP158 T01560083

2006/10/02 03:53
KSMQ 020353Z AUTO 00000KT 10SM CLR 10/08 A3006 RMK AO2 SLP179 T01000083

2006/10/02 03:53
KSNA 020353Z 23004KT 10SM BKN200 21/15 A2992 RMK AO2 SLP132 T02060150

2006/10/02 03:53
KSNS 020353Z AUTO 36003KT 10SM CLR 14/10 A3001 RMK AO2 SLP170 T01440100

2006/10/02 03:53
KSNY 020353Z AUTO 21006KT 10SM CLR 13/M02 A2998 RMK AO2 SLP107 T01331017

2006/10/02 03:53
KSPB 020353Z AUTO 01003KT 10SM OVC050 14/08 A2998 RMK AO2 SLP151 T01440083

2006/10/02 03:53
KSPG 020353Z AUTO 02011KT 10SM CLR 27/21 A3010 RMK AO2 SLP191 T02670206

2006/10/02 03:53
KSPW 020353Z AUTO 23004KT 10SM CLR 19/13 A2979 RMK AO2 SLP079 T01890133 $

2006/10/02 03:53
KSRQ 020353Z AUTO 03005KT 10SM CLR 24/19 A3009 RMK AO2 SLP188 T02390189

2006/10/02 03:53
KSSF 020353Z AUTO 13007KT 10SM CLR 26/21 A3009 RMK AO2 SLP177 T02560211

2006/10/02 03:53
KSSI 020353Z AUTO 14005KT 10SM BKN070 26/20 A3011 RMK AO2 SLP197 T02560200

2006/10/02 03:53
KSTJ 020353Z AUTO 19011KT 10SM CLR 27/18 A2990 RMK AO2 SLP117 T02670178

2006/10/02 03:53
KSTP 020353Z 13003KT 10SM CLR 19/12 A2977 RMK AO2 SLP077 T01890117

2006/10/02 03:53
KSTS 020353Z AUTO 13005KT 8SM CLR 12/08 A3001 RMK AO2 SLP157 T01170078

2006/10/02 03:53
KSWO 020353Z AUTO 16008KT 10SM CLR 26/16 A2997 RMK AO2 SLP135 T02610161

2006/10/02 03:53
KTCC 020353Z AUTO 24011KT 10SM CLR 19/M01 A3003 RMK AO2 SLP113 T01941006

2006/10/02 03:53
PAAQ 020353Z 11009KT 060V160 10SM FEW045 OVC090 09/M01 A2982 RMK AO2 SLP094 T00941006

2006/10/02 03:53
PABE 020353Z 01005KT 10SM SCT043 BKN060 10/07 A2948 RMK AO2 SLP983 T01000067

2006/10/02 03:53
PABI 020353Z 12008KT 10SM OVC110 03/M01 A2976 RMK AO2 SLP101 T00331011

2006/10/02 03:53
PABR 020353Z 34006KT 9SM SCT008 SCT011 BKN026 00/M01 A2966 RMK AO2 SNE48 CIG 009 NE SLP045 P0000 T00001011

2006/10/02 03:53
PABT 020353Z 32003KT 10SM FEW050 BKN065 OVC110 02/00 A2973 RMK AO2 SLP081 T00220000

2006/10/02 03:53
PACD 020353Z 26027G35KT 10SM -RA BKN011 BKN018 BKN140 08/07 A2954 RMK AO2 PK WND 25037/0304 SLP004 P0001 T00830072

2006/10/02 03:53
PACV 020353Z 09004KT 10SM -RA FEW015 BKN032 OVC040 06/04 A2997 RMK AO2 SLP150 P0000 T00610039

2006/10/02 03:53
PADE 020353Z AUTO 02007KT 10SM OVC025 04/01 A2969 RMK AO2 SLP053 T00390006 TSNO

2006/10/02 03:53
PADQ 020353Z 13014KT 5SM -RA BR FEW008 BKN015 OVC033 09/08 A2961 RMK AO2 SLP025 P0004 T00890078

2006/10/02 03:53
PAEG 020353Z AUTO 00000KT 10SM SCT100 03/M03 A2978 RMK AO2 SLP094 T00281028 TSNO

2006/10/02 03:53
PAEN 020353Z 03006KT 10SM SCT070 07/04 A2973 RMK AO2 SLP071 T00720039

2006/10/02 03:53
PAFA 020353Z 00000KT 10SM BKN080 OVC110 04/M01 A2976 RMK AO2 SLP087 T00391006

2006/10/02 03:53
PAGK 020353Z 16013G20KT 10SM FEW070 SCT100 BKN140 OVC160 04/M02 A2984 RMK AO2 SLP131 SHRA DSNT E T00441022 $

2006/10/02 03:53
PAGY 020353Z AUTO 21013KT 10SM OVC075 08/02 A3008 RMK AO2 SLP184 T00830022 TSNO

2006/10/02 03:53
PAHO 020353Z 03004KT 10SM -RA BKN065 08/07 A2968 RMK AO2 SLP051 P0002 T00780067

2006/10/02 03:53
PAIL 020353Z 08013KT 10SM SCT043 OVC050 09/04 A2960 RMK AO2 RAB0258E10B33E46 SLP024 P0000 T00890044

2006/10/02 03:53
PAJN 020353Z 07007KT 10SM OVC065 07/04 A3011 RMK AO2 SLP197 T00670044

2006/10/02 03:53
PAKT 020353Z 19011KT 10SM CLR 03/02 A3014 RMK AO2 SLP208 T00280022

2006/10/02 03:53
PAKV 020353Z AUTO 04004KT 10SM -RA OVC010 06/03 A2967 RMK AO2 SLP049 P0001 T00610033 TSNO

2006/10/02 03:53
PAKW 020353Z AUTO 00000KT 10SM BKN039 06/04 A3012 RMK AO2 SLP200 T00560044 TSNO

2006/10/02 03:53
PALH 020353Z 33006KT 10SM BKN080 OVC095 06/03 A2981 RMK AO2 SLP095 T00560033

2006/10/02 03:53
PAMC 020353Z 00000KT 10SM FEW005 SCT060 BKN085 06/03 A2964 RMK AO2 SLP043 T00560033

2006/10/02 03:53
PAMR 020353Z 35004KT 10SM SCT030 BKN060 OVC080 06/03 A2979 RMK AO2 SLP089 T00560033 $

2006/10/02 03:53
PANC 020353Z 34007KT 10SM FEW015 SCT055 BKN080 BKN130 04/03 A2980 RMK AO2 RAB24E33 SLP092 VIRGA NE-SE P0000 T00440028

2006/10/02 03:53
PANN 020353Z AUTO 07008KT 10SM OVC100 05/M01 A2972 RMK AO2 SLP073 T00501011 TSNO

2006/10/02 03:53
PANT 020353Z AUTO 00000KT 10SM CLR 06/03 A3015 RMK AO2 SLP209 T00560033 TSNO

2006/10/02 03:53
PAOM 020353Z 03013KT 10SM BKN030 OVC090 06/02 A2962 RMK AO2 SLP029 T00610017

2006/10/02 03:53
PAOR 020353Z 11005KT 10SM FEW065 SCT080 OVC100 01/M01 A2982 RMK AO2 SLP129 T00061011

2006/10/02 03:53
PAOT 020353Z 36007KT 10SM FEW035 SCT250 04/M01 A2971 RMK AO2 SLP060 T00441006

2006/10/02 03:50
K4O4 020350Z AUTO 17004KT 10SM CLR 23/17 A3008 RMK AO2

2006/10/02 03:53
KADG 020353Z AUTO 00000KT 10SM CLR 08/07 A3013 RMK AO2 SLP207 T00830072

2006/10/02 03:50
KAFK 020350Z AUTO 20013G16KT 10SM CLR 25/14 A2985 RMK AO2

2006/10/02 03:53
KAGC 020353Z AUTO 19005KT 10SM CLR 10/07 A3016 RMK AO2 SLP220 T01000072 TSNO

2006/10/02 03:53
KARB 020353Z AUTO 00000KT 1/2SM FG CLR 06/05 A3012 RMK AO2 SLP201 T00560050

2006/10/02 03:50
KATS 020350Z AUTO 24009KT 10SM CLR 22/01 A3006 RMK AO2

2006/10/02 03:50
KAUH 020350Z AUTO 18009KT 10SM CLR 22/12 A2980 RMK AO2

2006/10/02 03:50
KAUN 020350Z AUTO 00000KT 10SM BKN026 BKN120 12/10 A3002 RMK A01 P000

2006/10/02 03:50
KAXS 020350Z AUTO 15007KT 10SM CLR 23/15 A3000 RMK AO2

2006/10/02 03:50
KBIE 020350Z AUTO 18015G22KT 10SM CLR 26/12 A2984 RMK AO2

2006/10/02 03:53
KBJJ 020353Z AUTO 00000KT 10SM CLR 07/06 A3016 RMK AO2 SLP215 T00670056

2006/10/02 03:53
KBKL 020353Z 16005KT 9SM CLR 13/09 A3014 RMK AO2 SLP205 T01280089

2006/10/02 03:50
KBVN 020350Z AUTO 31003KT 10SM CLR 14/12 A2979 RMK AO2

2006/10/02 03:50
KBVS 020350Z AUTO 00000KT 10SM CLR 08/08 A3002 RMK A01 P000

2006/10/02 03:50
KCCU 020350Z AUTO 24010G21KT 10SM CLR 05/M09 A3051 RMK AO2

2006/10/02 03:51
KCHK 020351Z AUTO 18006KT 10SM SCT080 25/16 A3000 RMK AO2

2006/10/02 03:53
KCKB 020353Z 00000KT 4SM BR CLR 08/07 A3020 RMK AO2 SLP223 T00830072

2006/10/02 03:50
KCLK 020350Z AUTO 17007KT 10SM CLR 21/16 A2998 RMK AO2

2006/10/02 03:51
KCQB 020351Z AUTO 18007KT 10SM SCT070 SCT090 SCT110 25/17 A3000 RMK AO2

2006/10/02 03:50
KCUH 020350Z AUTO 19004KT 10SM CLR 23/17 A2999 RMK AO2

2006/10/02 03:53
KDET 020353Z 00000KT 10SM CLR 12/09 A3014 RMK AO2 SLP206 T01170089

2006/10/02 03:53
KDKK 020353Z AUTO 32005KT 10SM SCT055 13/07 A3015 RMK AO2 SLP209 T01330067

2006/10/02 03:53
KEYW 020353Z AUTO 06011KT 10SM CLR 28/22 A3005 RMK AO2 SLP175 T02830222

2006/10/02 03:53
KFDY 020353Z AUTO 17004KT 10SM CLR 09/07 A3013 RMK AO2 SLP201 T00940067

2006/10/02 03:50
KFET 020350Z AUTO 17011G18KT 10SM CLR 26/13 A2979 RMK AO2 TSNO

2006/10/02 03:53
KGIF 020353Z AUTO 08005KT 10SM CLR 23/20 A3013 RMK AO2 SLP200 T02280200

2006/10/02 03:53
KGKJ 020353Z AUTO 00000KT 10SM CLR 09/07 A3016 RMK AO2 SLP214 T00890072

2006/10/02 03:53
KGRI 020353Z AUTO 00000KT 10SM CLR 20/09 A2980 RMK AO2 SLP077 T02000094 $

2006/10/02 03:50
KHDE 020350Z AUTO 00000KT 10SM CLR 16/06 A2982 RMK AO2

2006/10/02 03:53
KHZY 020353Z AUTO 00000KT 4SM BR CLR 08/06 A3016 RMK AO2 SLP214 T00780061

2006/10/02 03:53
KIAG 020353Z AUTO 26006KT 10SM CLR 07/06 A3012 RMK AO2 SLP205 T00720056

2006/10/02 03:50
KIBM 020350Z AUTO 30004KT 10SM CLR 17/M03 A3000 RMK AO2

2006/10/02 03:50
KJYR 020350Z AUTO 19008KT 10SM CLR 23/12 A2980 RMK AO2 PWINO TSNO

2006/10/02 03:53
KLPR 020353Z AUTO 00000KT 9SM CLR 09/07 A3015 RMK AO2 SLP209 T00940072

2006/10/02 03:53
KMBS 020353Z 17004KT 10SM CLR 09/06 A3011 RMK AO2 SLP196 T00940061

2006/10/02 03:50
KNQA 020350Z AUTO 00000KT 10SM CLR 18/10 A3014 RMK

2006/10/02 03:53
KPEO 020353Z AUTO 22003KT 10SM CLR 11/08 A3011 RMK AO2 SLP196 T01060083 $

2006/10/02 03:53
KPHD 020353Z AUTO 00000KT 6SM BR CLR 08/07 A3017 RMK AO2 SLP218 T00780067

2006/10/02 03:53
KOAK 020353Z 31007KT 10SM FEW045 BKN200 16/09 A3002 RMK AO2 SLP165 T01560094

2006/10/02 03:53
KODO 020353Z AUTO 17015G19KT 10SM CLR 25/15 A3008 RMK AO2 SLP141 T02500150 $

2006/10/02 03:53
KODX 020353Z AUTO 00000KT 10SM CLR 13/11 A2979 RMK AO2 SLP083 T01280111

2006/10/02 03:50
KOGA 020350Z AUTO 00000KT 10SM CLR 16/06 A2989 RMK AO2

2006/10/02 03:53
KDTS 020353Z AUTO VRB03KT 10SM CLR 27/24 A3011 RMK AO2 SLP194 T02720244 $

2006/10/02 03:53
KDVT 020353Z VRB04KT 10SM CLR 31/04 A2988 RMK AO2 SLP093 T03060039

2006/10/02 03:53
KDWH 020353Z AUTO 00000KT 10SM CLR 25/21 A3009 RMK AO2 SLP188 T02500206

2006/10/02 03:53
KDXR 020353Z AUTO 00000KT 1SM BR CLR 09/09 A3005 RMK AO2 VIS 1/2V2 1/2 SLP175 T00940089

2006/10/02 03:53
KEEO 020353Z AUTO 11004KT 10SM CLR 10/M02 A3016 RMK AO2 SLP160 T01001017

2006/10/02 03:53
KEET 020353Z AUTO 00000KT 5SM BR CLR 19/19 A3016 RMK AO2 SLP206 T01940189

2006/10/02 03:53
KELD 020353Z AUTO 00000KT 10SM CLR 21/19 A3009 RMK AO2 SLP187 T02060194

2006/10/02 03:53
KELM 020353Z 28003KT 6SM BR FEW065 07/07 A3011 RMK AO2 SLP197 T00720067

2006/10/02 03:53
KELN 020353Z AUTO 31016KT 10SM CLR 13/04 A2991 RMK AO2 SLP126 T01280039 TSNO

2006/10/02 03:53
KEMP 020353Z AUTO 17012KT 10SM CLR 24/16 A2994 RMK AO2 SLP129 T02390161

2006/10/02 03:53
KENW 020353Z AUTO 04014KT 10SM OVC090 16/12 A3006 RMK AO2 LTG DSNT ALQDS TSB0257E37 SLP178 T01610122

2006/10/02 03:53
KEPH 020353Z AUTO 00000KT 10SM CLR 13/02 A2987 RMK AO2 SLP117 T01330022 $

2006/10/02 03:53
KEQY 020353Z AUTO 00000KT 10SM CLR 15/12 A3018 RMK AO2 SLP223 T01500122 TSNO

2006/10/02 03:53
KESF 020353Z AUTO 00000KT 7SM CLR 21/19 A3012 RMK AO2 SLP198 T02060189 $

2006/10/02 03:53
KEVW 020353Z AUTO 22010KT 10SM CLR 13/M05 A3015 RMK AO2 SLP130 T01281050

2006/10/02 03:53
KEWB 020353Z AUTO 30007KT 10SM BKN006 13/12 A2996 RMK AO2 RAE03 CIG 004V009 SLP144 P0000 T01330122

2006/10/02 03:53
KEYE 020353Z AUTO 00000KT 10SM CLR 15/11 A3013 RMK AO2 SLP200 T01500111 $

2006/10/02 03:53
KFAY 020353Z AUTO 05003KT 10SM CLR 17/13 A3015 RMK AO2 SLP204 T01670133 TSNO

2006/10/02 03:53
KFCM 020353Z VRB03KT 10SM CLR 19/11 A2975 RMK AO2 SLP071 T01890111

2006/10/02 03:53
KFDR 020353Z AUTO 17007KT 10SM CLR 24/14 A2997 RMK AO2 SLP130 T02440144 $

2006/10/02 03:53
KFFC 020353Z AUTO 00000KT 6SM BR CLR 16/15 A3017 RMK AO2 SLP214 T01610150 $

2006/10/02 03:53
KFFT 020353Z AUTO 00000KT 10SM CLR 12/11 A3018 RMK AO2 SLP219 T01220106 $

2006/10/02 03:53
KFHR 020353Z AUTO 00000KT 10SM CLR 06/04 A3002 RMK AO2 SLP166 T00610039

2006/10/02 03:53
KFLD 020353Z AUTO 19005KT 10SM CLR 17/11 A2996 RMK AO2 LTG DSNT S-W TSE0254 SLP144 T01670106

2006/10/02 03:53
KFLL 020353Z 07014G17KT 10SM FEW027 SCT036 28/22 A3005 RMK AO2 SLP175 T02830217

2006/10/02 03:53
KFLO 020353Z AUTO 05006KT 10SM CLR 18/14 A3015 RMK AO2 SLP207 T01830139

2006/10/02 03:53
KFMY 020353Z 07003KT 10SM CLR 24/20 A3009 RMK AO2 SLP190 T02440200

2006/10/02 03:53
KFNB 020353Z AUTO 16007KT 10SM CLR 24/15 A2987 RMK AO2 SLP106 T02440150

2006/10/02 03:53
KFOE 020353Z AUTO 17013KT 10SM CLR 26/17 A2992 RMK AO2 SLP121 T02560172 $

2006/10/02 03:53
KFOK 020353Z AUTO 34004KT 4SM BR CLR 10/08 A3002 RMK AO2 SLP166 T01000083 TSNO

2006/10/02 03:53
KFPR 020353Z AUTO 07007KT 10SM BKN036 BKN044 27/20 A3009 RMK AO2 SLP190 T02670200

2006/10/02 03:53
KFRG 020353Z AUTO 32007KT 10SM CLR 14/10 A3003 RMK AO2 SLP169 T01440100

2006/10/02 03:53
KFSM 020353Z 04003KT 10SM CLR 22/18 A3005 RMK AO2 SLP172 T02170183

2006/10/02 03:53
KFST 020353Z AUTO 16010KT 10SM CLR 24/13 A3009 RMK AO2 SLP139 T02440128

2006/10/02 03:53
KFTW 020353Z 17011KT 10SM CLR 28/17 A3004 RMK AO2 SLP162 T02780167

2006/10/02 03:53
KFTY 020353Z 00000KT 9SM CLR 15/13 A3017 RMK AO2 SLP209 T01500133

2006/10/02 03:53
KFUL 020353Z 24003KT 10SM CLR 21/14 A2992 RMK AO2 SLP129 T02060144

2006/10/02 03:53
KFVE 020353Z AUTO 09006KT 10SM OVC110 09/03 A3013 RMK AO2 SLP206 T00890033

2006/10/02 03:53
KFWN 020353Z AUTO 00000KT 1/4SM FG BKN001 BKN090 07/07 A3008 RMK AO2 SLP186 T00720067

2006/10/02 03:53
KFXE 020353Z 06009KT 10SM CLR 27/21 A3006 RMK AO2 SLP181 T02720206

2006/10/02 03:53
KFYV 020353Z AUTO 14004KT 10SM CLR 21/18 A3008 RMK AO2 SLP173 T02110178

2006/10/02 03:53
KGAG 020353Z AUTO 18016G22KT 10SM CLR 24/13 A2996 RMK AO2 SLP116 T02390133 $

2006/10/02 03:53
KGCC 020353Z AUTO 00000KT 10SM CLR 11/03 A2987 RMK AO2 SLP081 T01110033 $

2006/10/02 03:48
KEHA 020348Z AUTO 18006KT 18/M01

2006/10/02 03:47
DAAG 020347Z VRB03KT 0150 FG VV000 21/21 Q1017

2006/10/02 03:53
KBBW 020353Z AUTO 00000KT 10SM CLR 13/09 A2983 RMK AO2 SLPNO T01330094 $

2006/10/02 03:53
KBCE 020353Z AUTO 00000KT 10SM FEW110 12/M01 A3025 RMK AO2 SLP155 T01171006

2006/10/02 03:53
KBDE 020353Z AUTO 19003KT 10SM CLR 13/10 A2968 RMK AO2 SLP054 T01330100

2006/10/02 03:53
KBEH 020353Z AUTO 14007KT 10SM SCT090 OVC120 15/08 A3006 RMK AO2 SLP179 T01500083

2006/10/02 03:53
KBFD 020353Z AUTO 00000KT 3/4SM BR VV001 03/03 A3014 RMK AO2 SLP216 T00330028

2006/10/02 03:53
KBFI 020353Z 00000KT 10SM CLR 13/08 A3000 RMK AO2 SLP157 T01330078

2006/10/02 03:53
KBFM 020353Z AUTO 26004KT 10SM CLR 25/22 A3013 RMK AO2 SLP202 T02500222

2006/10/02 03:53
KBGM 020353Z 29006KT 10SM BKN080 10/08 A3010 RMK AO2 SLP193 T01000078

2006/10/02 03:53
KBGR 020353Z 01005KT 8SM -RA SCT031 BKN038 OVC055 10/08 A3004 RMK AO2 SLP171 P0003 T01000083

2006/10/02 03:53
KBHK 020353Z AUTO 14003KT 10SM CLR 13/04 A2988 RMK AO2 SLP107 T01330044

2006/10/02 03:53
KBHM 020353Z 00000KT 9SM CLR 20/17 A3018 RMK AO2 SLP213 T02000167

2006/10/02 03:53
KBIV 020353Z AUTO 16004KT 10SM -RA FEW070 BKN110 13/09 A3007 RMK AO2 RAB43 SLP183 P0000 T01280089

2006/10/02 03:53
KBKE 020353Z AUTO 20004KT 10SM CLR 08/M01 A2995 RMK AO2 SLP144 T00831006

2006/10/02 03:53
KBKV 020353Z AUTO 00000KT 5SM BR CLR 19/17 A3013 RMK AO2 SLP200 T01890172

2006/10/02 03:53
KBLH 020353Z AUTO 24004KT 10SM CLR 32/09 A2979 RMK AO2 SLP082 T03220094

2006/10/02 03:53
KBLI 020353Z 00000KT 10SM CLR 07/06 A3001 RMK AO2 SLP170 T00720061

2006/10/02 03:53
KBMG 020353Z AUTO 22004KT 10SM CLR 17/13 A3014 RMK AO2 SLP202 T01720128 $

2006/10/02 03:53
KBMQ 020353Z AUTO VRB06KT 10SM CLR 26/17 A3011 RMK AO2 SLP179 T02560172

2006/10/02 03:53
KBOI 020353Z 18005KT 10SM CLR 15/M04 A2987 RMK AO2 SLP099 T01501044

2006/10/02 03:56
KBOK 020356Z AUTO 00000KT 10SM BKN007 OVC011 10/10 A3003 RMK AO2 T01000100 CIG 003V010 SLP170

2006/10/02 03:53
KBPI 020353Z AUTO 31008KT 10SM CLR 09/M06 A3013 RMK AO2 SLP151 T00891056

2006/10/02 03:53
KBPK 020353Z AUTO 12005KT 10SM CLR 22/14 A3010 RMK AO2 SLP184 T02170144

2006/10/02 03:53
KBPT 020353Z AUTO 00000KT 8SM CLR 23/22 A3011 RMK AO2 SLP195 T02280217

2006/10/02 03:53
KBRD 020353Z AUTO 00000KT 10SM CLR 13/11 A2973 RMK AO2 SLP067 T01330111

2006/10/02 03:53
KBRL 020353Z AUTO 19013KT 10SM CLR 23/10 A2998 RMK AO2 SLP147 T02330100 $

2006/10/02 03:53
KBRO 020353Z 12007KT 10SM CLR 26/22 A3008 RMK AO2 SLP184 T02610222

2006/10/02 03:53
KBTL 020353Z AUTO 00000KT 10SM FEW120 12/08 A3011 RMK AO2 SLP194 T01170078

2006/10/02 03:53
KBTM 020353Z AUTO 12005KT 10SM CLR 09/M04 A2998 RMK AO2 SLP133 T00941039 $

2006/10/02 03:53
KBUR 020353Z 01003KT 10SM BKN085 21/14 A2993 RMK AO2 SLP124 T02060139

2006/10/02 03:53
KBVO 020353Z AUTO 17005KT 10SM BKN090 24/17 A2999 RMK AO2 SLP144 T02440172

2006/10/02 03:53
KBVY 020353Z AUTO 01008KT 10SM OVC008 11/10 A2999 RMK AO2 RAE03 CIG 005V012 SLP149 P0000 T01110100

2006/10/02 03:53
KBWG 020353Z AUTO 00000KT 10SM CLR 14/13 A3019 RMK AO2 SLP221 T01440128

2006/10/02 03:53
KHQM 020353Z AUTO 26003KT 10SM CLR 12/08 A3002 RMK AO2 SLP168 T01170083

2006/10/02 03:53
KHRI 020353Z AUTO 18007KT 10SM CLR 16/05 A2988 RMK AO2 SLP115 T01610050 TSNO

2006/10/02 03:53
KHRO 020353Z AUTO 13005KT 10SM CLR 21/17 A3011 RMK AO2 SLP184 T02060167

2006/10/02 03:53
KHUF 020353Z 19003KT 10SM CLR 15/11 A3013 RMK AO2 SLP200 T01500111 $

2006/10/02 03:53
KHUL 020353Z AUTO 05005KT 10SM BKN100 BKN120 11/06 A3006 RMK AO2 SLP182 T01060061

2006/10/02 03:53
KHVN 020353Z AUTO 32006KT 10SM FEW065 13/11 A3002 RMK AO2 SLP164 T01330111

2006/10/02 03:53
KHWO 020353Z AUTO 05008KT 10SM CLR A3008 RMK AO2 SLP187 FZRANO TSNO

2006/10/02 03:53
KHYR 020353Z AUTO 10SM CLR 18/10 A2981 RMK AO2 SLP094 T01780100 $

2006/10/02 03:53
KIAH 020353Z 17004KT 10SM FEW140 BKN250 25/21 A3010 RMK AO2 SLP192 T02500211

2006/10/02 03:53
KIDA 020353Z AUTO 20006KT 10SM CLR 13/01 A2998 RMK AO2 SLP134 T01280006

2006/10/02 03:53
KILM 020353Z AUTO 04006KT 10SM CLR 17/13 A3015 RMK AO2 SLP209 T01720133 $

2006/10/02 03:50
LTAC 020350Z 03007KT CAVOK 11/08 Q1020 NOSIG RMK RWY21L 03010KT

2006/10/02 03:50
LTAF 020350Z 03003KT 6000 SCT035 20/18 Q1010 NOSIG RMK RWY23 02003KT

2006/10/02 03:50
LTBJ 020350Z 02007KT 340V050 CAVOK 17/11 Q1015 NOSIG RMK RWY16 36014KT

2006/10/02 03:53
KRBD 020353Z 16009KT 10SM CLR 27/18 A3005 RMK AO2 SLP167 T02670183

2006/10/02 03:53
KRBG 020353Z AUTO 00000KT 10SM CLR 17/06 A2996 RMK AO2 SLP145 T01670061

2006/10/02 03:53
KRHI 020353Z AUTO 16005KT 10SM CLR 14/08 A2991 RMK AO2 SLP131 T01390078

2006/10/02 03:53
KRIL 020353Z AUTO 00000KT 10SM CLR 13/M03 A3012 RMK AO2 SLP158 T01281028

2006/10/02 03:53
KRKP 020353Z AUTO 14008KT 10SM CLR 28/23 A3007 RMK AO2 SLP185 T02780228 $

2006/10/02 03:53
KRNT 020353Z AUTO 35006KT 10SM CLR 14/09 A3000 RMK AO2 SLP162 T01390094

2006/10/02 03:53
KRSL 020353Z AUTO 18014KT 10SM CLR 26/12 A2985 RMK AO2 SLP087 T02560122

2006/10/02 03:53
KRSW 020353Z AUTO 08006KT 10SM CLR 24/21 A3009 RMK AO2 SLP186 T02390206

2006/10/02 03:53
KRUE 020353Z AUTO 00000KT 10SM CLR 24/20 A3009 RMK AO2 SLP181 T02390200

2006/10/02 03:53
KRVS 020353Z AUTO 18007KT 10SM CLR 26/17 A3000 RMK AO2 SLP161 T02560167

2006/10/02 03:53
KRWF 020353Z AUTO 00000KT 10SM CLR 19/12 A2973 RMK AO2 SLP064 T01940122

2006/10/02 03:53
KRWI 020353Z AUTO 00000KT 10SM CLR 12/12 A3015 RMK AO2 SLP211 T01170117

2006/10/02 03:53
KRWL 020353Z AUTO 25013KT 10SM CLR 14/M06 A3012 RMK AO2 SLP126 T01441056 $

2006/10/02 03:53
KMGW 020353Z AUTO 00000KT 10SM CLR 09/07 A3020 RMK AO2 SLP226 T00890072

2006/10/02 03:53
KMGY 020353Z AUTO 00000KT 10SM CLR 14/09 A3016 RMK AO2 SLP212 T01390089

2006/10/02 03:53
KMHE 020353Z AUTO 27003KT 10SM CLR 17/13 A2976 RMK AO2 SLP073 T01670128 $

2006/10/02 03:53
KMHT 020353Z AUTO 35007KT 10SM FEW007 OVC013 11/09 A3001 RMK AO2 SLP174 T01110094 TSNO

2006/10/02 03:53
KMIA 020353Z 05009KT 10SM FEW027 28/21 A3006 RMK AO2 SLP180 T02780211

2006/10/02 03:53
KMIC 020353Z AUTO 15003KT 10SM CLR 18/11 A2975 RMK AO2 SLP071 T01830111

2006/10/02 03:53
KMIE 020353Z AUTO 19004KT 10SM CLR 14/10 A3014 RMK AO2 SLP199 T01440100

2006/10/02 03:53
KMIW 020353Z AUTO 18014KT 10SM CLR 23/12 A2985 RMK AO2 SLP103 T02330117

2006/10/02 03:53
KMKL 020353Z AUTO 00000KT 10SM CLR 14/12 A3016 RMK AO2 SLP211 T01440117

2006/10/02 03:53
KMKO 020353Z AUTO 16006KT 10SM CLR 22/16 A3005 RMK AO2 SLP169 T02220156

2006/10/02 03:53
KMLB 020353Z AUTO 06009KT 10SM CLR 26/21 A3010 RMK AO2 SLP190 T02610211

2006/10/02 03:53
KMLC 020353Z AUTO 18007KT 10SM CLR 27/14 A3005 RMK AO2 SLP164 T02670139

2006/10/02 03:53
KMLP 020353Z AUTO 21006KT 10SM CLR 07/M01 A2999 RMK AO2 SLP094 T00721006 TSNO

2006/10/02 03:53
KMLS 020353Z AUTO 04004KT 10SM CLR 18/M01 A2983 RMK AO2 SLP093 T01781011

2006/10/02 03:53
KMMK 020353Z AUTO 00000KT 2 1/2SM BR FEW001 11/09 A3003 RMK AO2 VIS 1 1/4V5 SLP167 T01060094

2006/10/02 03:53
KMMV 020353Z AUTO 25003KT 10SM CLR 13/08 A2999 RMK AO2 SLP154 T01330083

2006/10/02 03:53
KMNN 020353Z AUTO 13003KT 10SM CLR 09/07 A3016 RMK AO2 SLP214 T00940072

2006/10/02 03:53
KMOD 020353Z AUTO 35003KT 6SM HZ OVC085 16/13 A2998 RMK AO2 SLP154 T01610133

2006/10/02 03:53
KMPO 020353Z AUTO VRB03KT 10SM FEW029 SCT090 08/07 A3009 RMK AO2 SLP192 T00830072

2006/10/02 03:53
KMRB 020353Z AUTO 00000KT 10SM CLR 10/07 A3016 RMK AO2 SLP213 T01000072 TSNO

2006/10/02 03:53
KMSL 020353Z AUTO 00000KT 10SM CLR 16/12 A3018 RMK AO2 SLP217 T01560117

2006/10/02 03:53
KMSO 020353Z 31006KT 10SM CLR 11/M01 A2992 RMK AO2 SLP135 T01061011

2006/10/02 03:53
KMSP 020353Z 15010G15KT 10SM FEW130 22/11 A2976 RMK AO2 SLP073 T02220106

2006/10/02 03:53
KMSS 020353Z AUTO 26003KT 1 1/2SM BR CLR 09/09 A3002 RMK AO2 SLP169 T00890089

2006/10/02 03:53
KMTH 020353Z AUTO 06013KT 10SM SCT027 29/22 A3005 RMK AO2 SLP175 T02890222

2006/10/02 03:53
KMTJ 020353Z AUTO 13006KT 10SM CLR 17/00 A3017 RMK AO2 SLP155 T01670000

2006/10/02 03:53
KMTO 020353Z AUTO 19007KT 10SM CLR 20/12 A3010 RMK AO2 SLP188 T02000117

2006/10/02 03:53
KMVY 020353Z 32006KT 10SM FEW008 SCT015 OVC021 15/13 A2994 RMK AO2 SLP140 T01500133

2006/10/02 03:53
KMWL 020353Z AUTO 17008KT 10SM CLR 26/14 A3003 RMK AO2 SLP154 T02610144

2006/10/02 03:53
KMYF 020353Z 32006KT 8SM CLR 19/16 A2993 RMK AO2 SLP133 T01940156

2006/10/02 03:53
KMYV 020353Z AUTO 12003KT 10SM BKN039 16/08 A3001 RMK AO2 SLP165 T01560083

2006/10/02 03:52
K2G4 020352Z AUTO 26005KT 10SM 10/05 A3020 RMK AO1

2006/10/02 03:53
KOAK 020353Z 31007KT 10SM FEW045 BKN200 16/09 A3002 RMK AO2 SLP165 T01560094

2006/10/02 03:53
KODO 020353Z AUTO 17015G19KT 10SM CLR 25/15 A3008 RMK AO2 SLP141 T02500150 $

2006/10/02 03:50
KOGA 020350Z AUTO 00000KT 10SM CLR 16/06 A2989 RMK AO2

2006/10/02 03:53
KOGB 020353Z AUTO 00000KT 9SM CLR 18/15 A3015 RMK AO2 SLP207 T01830150 $

2006/10/02 03:53
KOGD 020353Z 17009KT 10SM CLR 17/00 A2995 RMK AO2 SLP105 T01720000

2006/10/02 03:53
KOJC 020353Z AUTO 18012KT 10SM CLR 25/19 A2997 RMK AO2 SLP137 T02500189 TSNO

2006/10/02 03:53
KOLF 020353Z AUTO 01008KT 10SM CLR 14/06 A2984 RMK AO2 SLP106 T01440061

2006/10/02 03:53
KOMK 020353Z AUTO 31009KT 10SM CLR 13/01 A2988 RMK AO2 SLP118 T01280011

2006/10/02 03:53
KONO 020353Z AUTO 33005KT 10SM CLR 12/M01 A2987 RMK AO2 SLP115 T01171006

2006/10/02 03:53
KONT 020353Z 26004KT 6SM HZ CLR 21/14 A2994 RMK AO2 SLP129 T02110139

2006/10/02 03:53
KOPF 020353Z AUTO 06008KT 10SM SCT031 28/22 A3006 RMK AO2 SLP181 T02780217 PNO

2006/10/02 03:53
KORL 020353Z 05004KT 10SM CLR 24/20 A3012 RMK AO2 SLP201 T02390200

2006/10/02 03:53
KOSH 020353Z 15007KT 10SM CLR 15/10 A2994 RMK AO2 LTG DSNT S-W SLP135 T01500100

2006/10/02 03:53
KOSU 020353Z AUTO 00000KT 10SM CLR 11/08 A3017 RMK AO2 SLP214 T01110083

2006/10/02 03:53
KOTM 020353Z AUTO 18015G20KT 10SM CLR 24/11 A2992 RMK AO2 SLP125 T02390111

2006/10/02 03:53
KOVE 020353Z AUTO 13004KT 10SM SCT045 17/08 A3003 RMK AO2 SLP172 T01670078

2006/10/02 03:53
KOVS 020353Z AUTO 23004KT 10SM CLR 17/12 A2988 RMK AO2 SLP118 T01670122

2006/10/02 03:53
KOWD 020353Z AUTO 01006KT 10SM OVC007 12/11 A2998 RMK AO2 CIG 005V010 SLP150 T01220111

2006/10/02 03:53
KOXB 020353Z AUTO 27006KT 10SM CLR 13/11 A3012 RMK AO2 SLP200 T01330111

2006/10/02 03:53
KPAE 020353Z 01004KT 10SM BKN060 12/08 A3001 RMK AO2 SLP191 T01220083

2006/10/02 03:53
KPAH 020353Z AUTO 00000KT 10SM CLR 15/12 A3015 RMK AO2 SLP207 T01500122

2006/10/02 03:53
KPBF 020353Z AUTO 00000KT 9SM CLR 23/21 A3010 RMK AO2 SLP189 T02280206

2006/10/02 03:53
KPBI 020353Z 07008KT 10SM FEW033 28/21 A3008 RMK AO2 SLP185 T02780211

2006/10/02 03:53
KPDK 020353Z AUTO 00000KT 10SM CLR 16/13 A3017 RMK AO2 SLP206 T01610128

2006/10/02 03:53
KPDT 020353Z AUTO 15004KT 10SM CLR 14/01 A2990 RMK AO2 SLP117 T01390006

2006/10/02 03:53
KPFN 020353Z AUTO 00000KT 7SM CLR 25/23 A3011 RMK AO2 SLP195 T02500228 $

2006/10/02 03:53
KPGD 020353Z AUTO 09005KT 10SM CLR 23/19 A3012 RMK AO2 SLP197 T02280189

2006/10/02 03:53
KPIE 020353Z 04010KT 10SM CLR 25/21 A3011 RMK AO2 SLP195 T02500206

2006/10/02 03:53
KPIH 020353Z 09006KT 10SM CLR 14/M01 A2996 RMK AO2 SLP120 T01391011

2006/10/02 03:53
KPIR 020353Z AUTO 01003KT 10SM CLR 16/11 A2978 RMK AO2 SLP077 T01560106

2006/10/02 03:53
KPKB 020353Z AUTO 00000KT 10SM CLR 09/08 A3021 RMK AO2 SLP230 T00940083

2006/10/02 03:53
KPKD 020353Z AUTO 15004KT 10SM CLR 13/10 A2972 RMK AO2 SLP065 T01280100

2006/10/02 03:56
KLAS 020356Z VRB03KT 10SM BKN140 OVC250 29/M01 A2987 RMK AO2 SLP091 T02941011 $

2006/10/02 03:55
KLLJ 020355Z AUTO 25005KT 10SM FEW090 13/M08 A2996 RMK AO2 SLP114 T01331078 TSNO

2006/10/02 03:56
KSLC 020356Z 13008KT 10SM SCT130 BKN200 18/02 A2995 RMK AO2 SLP100 T01830022

2006/10/02 03:54
KLAF 020354Z AUTO 00000KT 10SM CLR 18/11 A3010 RMK AO2 SLP189 T01780111

2006/10/02 03:50
KLAM 020350Z AUTO 21007KT 10SM CLR 20/M05 A3028 RMK AO2

2006/10/02 03:55
KLBL 020355Z 19013KT 10SM CLR 23/14 A2997 RMK AO1

2006/10/02 03:54
KLBT 020354Z AUTO 00000KT 4SM BR CLR 16/15 A3016 RMK AO2 SLP213 T01560150 TSNO

2006/10/02 03:55
KLCI 020355Z AUTO 06006KT 10SM BKN036 OVC065 09/06 A3005 RMK AO1

2006/10/02 03:55
KLEW 020355Z AUTO 02007KT 7SM FEW001 SCT011 BKN026 09/08 A3006 RMK AO1 P0001

2006/10/02 03:55
KLGD 020355Z AUTO 31004KT 10SM CLR 13/00 A2995 RMK AO1

2006/10/02 03:55
KLKV 020355Z AUTO 14007KT 10SM CLR 12/M07 A3002 RMK AO1

2006/10/02 03:54
KLNK 020354Z 18013KT 10SM CLR 26/14 A2981 RMK AO2 SLP082 T02560139

2006/10/02 03:55
KLPC 020355Z AUTO 29005KT 10SM FEW020 SCT047 BKN120 14/12 A3000 RMK AO1

2006/10/02 03:53
KDTS 020353Z AUTO VRB03KT 10SM CLR 27/24 A3011 RMK AO2 SLP194 T02720244 $

2006/10/02 03:53
PABI 020353Z 12008KT 10SM OVC110 03/M01 A2976 RMK AO2 SLP101 T00331011

2006/10/02 03:54
KECG 020354Z AUTO 00000KT 10SM BKN080 14/13 A3013 RMK AO2 SLP203 T01390128 TSNO

2006/10/02 03:55
KBIX 020355Z 00000KT 7SM FEW250 25/23 A3011 RMK SLP198 LAST

2006/10/02 03:55
KFFO 020355Z 00000KT 10SM CLR 12/10 A3017 RMK AO2A SLP216 T01190098

2006/10/02 03:55
KHIF 020355Z 12006KT 7SM FEW080 SCT120 BKN200 17/02 A2998 RMK SLP096

2006/10/02 03:55
KIAB 020355Z 18012KT 7SM FEW250 26/15 A2994 RMK SLP128

2006/10/02 03:56
KNYL 020356Z 16005KT 7SM SCT050 SCT100 BKN180 BKN200 31/13 A2980 RMK SLP086

2006/10/02 03:55
KSSC 020355Z 00000KT 7SM SKC 18/15 A3015 RMK SLP210

2006/10/02 03:55
KSZL 020355Z 16008KT 7SM FEW250 23/16 A3001 RMK SLP157

2006/10/02 03:55
KTCM 020355Z 00000KT 7SM SKC 13/08 A2999 RMK SLP159

2006/10/02 03:59
PAEI 020359Z VRB01KT 10SM SCT120 SCT150 BKN200 02/00 A2974 RMK SLP079

2006/10/02 03:48
TJNR 020348Z AUTO 08008KT 10SM CLR 28/23 A2998 RMK AO2 SLP151 T02830228 403170261 TSNO $

2006/10/02 03:55
PATC 020355Z AUTO 02017KT 10SM CLR 02/M01 A2969 RMK AO1 T00221005

2006/10/02 03:54
KGED 020354Z AUTO 00000KT 10SM CLR 13/10 A3012 RMK AO2 SLP199 T01280100 $

2006/10/02 03:55
KGPZ 020355Z AUTO 16005KT 10SM CLR 16/09 A2974 RMK AO1

2006/10/02 03:55
KGTR 020355Z 04003KT 10SM CLR 22/17 A3014 RMK AO1

2006/10/02 03:55
KHEF 020355Z AUTO 00000KT 10SM CLR 09/07 A3018 RMK AO1

2006/10/02 03:55
KHEZ 020355Z AUTO 00000KT 10SM CLR 21/18 A3013 RMK AO1

2006/10/02 03:52
KHJH 020352Z AUTO 18012KT 10SM CLR 26/13 A2982 RMK AO2

2006/10/02 03:54
KHWD 020354Z 31003KT 10SM BKN037 16/09 A3001 RMK AO2 SLP171 T01560094

2006/10/02 03:55
KHYS 020355Z AUTO 19011KT 10SM CLR 24/12 A2985 RMK AO1

2006/10/02 03:54
KILN 020354Z AUTO 00000KT 10SM CLR 12/08 A3017 RMK AO2 SLP220 T01170083

2006/10/02 03:54
KIMT 020354Z AUTO 14004KT 10SM CLR 11/08 A2995 RMK AO2 SLP147 T01060078

2006/10/02 03:54
KINT 020354Z AUTO 32003KT 10SM CLR 16/11 A3020 RMK AO2 SLP224 T01560106

2006/10/02 03:54
KIPT 020354Z AUTO 27006KT 10SM CLR 11/09 A3012 RMK AO2 SLP200 T01060089 PNO $

2006/10/02 03:54
KISW 020354Z AUTO 04004KT 10SM CLR 17/09 A2995 RMK AO2 PRESRR SLP142 T01670094 TSNO

2006/10/02 03:54
KIZG 020354Z AUTO 00000KT 10SM BKN030 OVC036 09/08 A3005 RMK AO2 SLP177 T00890078

2006/10/02 03:55
KJHW 020355Z AUTO 29004KT 10SM CLR 09/06 A3015 RMK AO1

2006/10/02 03:54
KJST 020354Z AUTO 23004KT 10SM CLR 08/05 A3017 RMK AO2 SLP221 T00830050

2006/10/02 03:54
KJSV 020354Z AUTO 06003KT 10SM CLR 21/17 A3006 RMK AO2

2006/10/02 03:53
KJWG 020353Z AUTO 21012G16KT 10SM CLR 26/18 A3000 RMK AO2

2006/10/02 03:55
KKLS 020355Z AUTO 00000KT 10SM CLR 13/09 A2998 RMK AO1

2006/10/02 03:54
K04V 020354Z AUTO 36011KT 10SM CLR 12/M06 A3029 RMK AO2

2006/10/02 03:52
K4BM 020352Z AUTO 22007KT 10SM CLR 08/M08 A3048 RMK AO1

2006/10/02 03:54
KADH 020354Z AUTO 17010KT 10SM CLR 28/16 A3003 RMK AO2

2006/10/02 03:51
KBDL 020351Z 34005KT 10SM FEW023 11/10 A3002 RMK AO2 SLP164 T01110100

2006/10/02 03:51
KBVE 020351Z AUTO 00000KT 5SM BR CLR 23/22 A3014 RMK AO2 SLP206 T02330222 TSNO

2006/10/02 03:54
KCBG 020354Z AUTO 15005KT 10SM CLR 21/12 A2975 RMK AO2

2006/10/02 03:55
KCKN 020355Z AUTO 00000KT 10SM CLR 13/11 A2967 RMK AO2

2006/10/02 03:53
KDUC 020353Z AUTO 16010KT 10SM CLR 26/17 A3001 RMK AO2

2006/10/02 03:55
KGMJ 020355Z AUTO 16007KT 10SM CLR 24/18 A3004 RMK AO2

2006/10/02 03:54
KLRU 020354Z AUTO 23003KT 10SM SCT110 19/06 A3014 RMK AO2

2006/10/02 03:55
KMYP 020355Z AUTO 25018G23KT 10SM CLR 10/M03 A3062 RMK AO2

2006/10/02 03:55
KOUN 020355Z AUTO 18011G17KT 10SM SCT100 27/16 A3001 RMK AO2 TSNO

2006/10/02 03:52
KRKR 020352Z AUTO 00000KT 10SM CLR 21/19 A3006 RMK AO2

2006/10/02 03:53
KSNL 020353Z AUTO 17010KT 10SM CLR 26/16 A3002 RMK AO2

2006/10/02 03:52
KSVC 020352Z AUTO 35007KT 10SM CLR 15/04 A3019 RMK AO1

2006/10/02 03:53
KTQH 020353Z AUTO 16003KT 10SM CLR 24/18 A3005 RMK AO2

2006/10/02 03:55
KVTP 020355Z AUTO 30003KT 10SM CLR 11/M07 A3043 RMK AO2

2006/10/02 03:53
KALI 020353Z AUTO 11007KT 10SM CLR 26/23 A3007 RMK AO2 SLP180 T02560233

2006/10/02 03:53
KALW 020353Z AUTO 09005KT 10SM CLR 14/04 A2990 RMK AO2 SLP123 T01390039

2006/10/02 03:53
KAMA 020353Z 18015KT 10SM CLR 22/16 A3004 RMK AO2 SLP122 T02170156 $

2006/10/02 03:53
KAMG 020353Z AUTO 00000KT 9SM SCT070 19/17 A3011 RMK AO2 SLP193 T01890172

2006/10/02 03:53
KAMW 020353Z AUTO 18009KT 10SM FEW095 23/15 A2985 RMK AO2 SLP099 T02280150

2006/10/02 03:53
KANB 020353Z AUTO 00000KT 5SM BR CLR 18/16 A3017 RMK AO2 SLP211 T01830161

2006/10/02 03:51
KANW 020351Z AUTO 30003KT 10SM CLR 17/09 A2984 RMK AO2

2006/10/02 03:53
KAOH 020353Z AUTO 17007KT 10SM CLR 11/08 A3015 RMK AO2 SLP208 T01060078

2006/10/02 03:53
KAOO 020353Z AUTO 24003KT 10SM CLR 08/07 A3016 RMK AO2 SLP215 T00780067

2006/10/02 03:53
KAPA 020353Z 25003KT 10SM SCT120 BKN200 18/M05 A3009 RMK AO2 SLP123 T01831050

2006/10/02 03:53
KAPF 020353Z AUTO 05008KT 10SM CLR 25/22 A3008 RMK AO2 SLP184 T02500217

2006/10/02 03:51
KAQR 020351Z AUTO 16005KT 10SM CLR 26/17 A3004 RMK AO2

2006/10/02 03:53
KARA 020353Z 00000KT 7SM CLR 23/21 A3012 RMK AO2 SLP199 T02280211

2006/10/02 03:53
KASE 020353Z 16008KT 10SM CLR 11/M04 A3027 RMK AO2 SLP158 T01061039

2006/10/02 03:53
KASX 020353Z AUTO 00000KT 10SM CLR 12/09 A2979 RMK AO2 SLP090 T01170089

2006/10/02 03:53
KATY 020353Z AUTO 20003KT 10SM CLR 13/11 A2976 RMK AO2 SLP074 T01280106

2006/10/02 03:53
KAUG 020353Z AUTO 36005KT 6SM -RA BR SCT031 BKN043 OVC050 09/08 A3004 RMK AO2 SLP174 P0008 T00890083

2006/10/02 03:53
KAUS 020353Z 17009KT 10SM SCT120 25/19 A3008 RMK AO2 SLP177 T02500194 $

2006/10/02 03:53
KAWM 020353Z AUTO 00000KT 10SM CLR 20/13 A3011 RMK AO2 SLP194 T02000128 $

2006/10/02 03:53
KAXN 020353Z AUTO 16003KT 10SM CLR 15/11 A2975 RMK AO2 SLP073 T01500111

2006/10/02 03:53
KAZO 020353Z 00000KT 10SM BKN120 12/08 A3010 RMK AO2 SLP194 T01170078

2006/10/02 03:53
KBAF 020353Z 01003KT 10SM BKN017 BKN029 11/10 A3002 RMK AO2 SLP168 T01110100

2006/10/02 03:53
KDEW 020353Z AUTO 00000KT 10SM CLR 06/00 A2990 RMK AO2 SLP131 T00610000 $

2006/10/02 03:53
KDGW 020353Z AUTO 08007KT 10SM CLR 16/M03 A2996 RMK AO2 SLP101 T01611028

2006/10/02 03:53
KDHN 020353Z 00000KT 10SM SCT060 21/18 A3016 RMK AO2 SLP207 T02110183

2006/10/02 03:53
KDHT 020353Z AUTO 18011KT 10SM CLR 18/05 A3003 RMK AO2 SLP119 T01830050 $

2006/10/02 03:53
KDLN 020353Z AUTO 21003KT 10SM CLR 11/M03 A2992 RMK AO2 SLP104 T01111033

2006/10/02 03:53
KDLS 020353Z AUTO 28017G23KT 10SM CLR 18/07 A2990 RMK AO2 SLP125 T01780072 $

2006/10/02 03:53
KDMO 020353Z AUTO 17012KT 10SM CLR 24/14 A3002 RMK AO2 SLP158 T02390144

2006/10/02 03:53
KDNL 020353Z AUTO 07008KT 10SM CLR 23/15 A3014 RMK AO2 SLP202 T02330150

2006/10/02 03:53
KDRO 020353Z AUTO 35005KT 10SM CLR 13/M02 A3024 RMK AO2 SLP182 T01331022

2006/10/02 03:53
KDTN 020353Z AUTO 14003KT 10SM CLR 22/18 A3009 RMK AO2 SLP187 T02170183

2006/10/02 03:53
KDTO 020353Z 16011KT 10SM CLR 28/17 A3004 RMK AO2 SLP161 T02830167

2006/10/02 03:53
KDVT 020353Z VRB04KT 10SM CLR 31/04 A2988 RMK AO2 SLP093 T03060039

2006/10/02 03:53
KDWH 020353Z AUTO 00000KT 10SM CLR 25/21 A3009 RMK AO2 SLP188 T02500206

2006/10/02 03:53
KDXR 020353Z AUTO 00000KT 1SM BR CLR 09/09 A3005 RMK AO2 VIS 1/2V2 1/2 SLP175 T00940089

2006/10/02 03:53
KEEO 020353Z AUTO 11004KT 10SM CLR 10/M02 A3016 RMK AO2 SLP160 T01001017

2006/10/02 03:53
KEET 020353Z AUTO 00000KT 5SM BR CLR 19/19 A3016 RMK AO2 SLP206 T01940189

2006/10/02 03:53
KELD 020353Z AUTO 00000KT 10SM CLR 21/19 A3009 RMK AO2 SLP187 T02060194

2006/10/02 03:53
KELM 020353Z 28003KT 6SM BR FEW065 07/07 A3011 RMK AO2 SLP197 T00720067

2006/10/02 03:53
KELN 020353Z AUTO 31016KT 10SM CLR 13/04 A2991 RMK AO2 SLP126 T01280039 TSNO

2006/10/02 03:53
KENW 020353Z AUTO 04014KT 10SM OVC090 16/12 A3006 RMK AO2 LTG DSNT ALQDS TSB0257E37 SLP178 T01610122

2006/10/02 03:53
KEPH 020353Z AUTO 00000KT 10SM CLR 13/02 A2987 RMK AO2 SLP117 T01330022 $

2006/10/02 03:53
KEQY 020353Z AUTO 00000KT 10SM CLR 15/12 A3018 RMK AO2 SLP223 T01500122 TSNO

2006/10/02 03:54
KLAF 020354Z AUTO 00000KT 10SM CLR 18/11 A3010 RMK AO2 SLP189 T01780111

2006/10/02 03:50
KLAM 020350Z AUTO 21007KT 10SM CLR 20/M05 A3028 RMK AO2

2006/10/02 03:55
KLBL 020355Z 19013KT 10SM CLR 23/14 A2997 RMK AO1

2006/10/02 03:54
KLBT 020354Z AUTO 00000KT 4SM BR CLR 16/15 A3016 RMK AO2 SLP213 T01560150 TSNO

2006/10/02 03:55
KLCI 020355Z AUTO 06006KT 10SM BKN036 OVC065 09/06 A3005 RMK AO1

2006/10/02 03:55
KLEW 020355Z AUTO 02007KT 7SM FEW001 SCT011 BKN026 09/08 A3006 RMK AO1 P0001

2006/10/02 03:55
KLGD 020355Z AUTO 31004KT 10SM CLR 13/00 A2995 RMK AO1

2006/10/02 03:55
KLKV 020355Z AUTO 14007KT 10SM CLR 12/M07 A3002 RMK AO1

2006/10/02 03:54
KLNK 020354Z 18013KT 10SM CLR 26/14 A2981 RMK AO2 SLP082 T02560139

2006/10/02 03:55
KLPC 020355Z AUTO 29005KT 10SM FEW020 SCT047 BKN120 14/12 A3000 RMK AO1

2006/10/02 03:54
KLWM 020354Z AUTO 02006KT 10SM BKN008 OVC012 11/10 A3002 RMK AO2 RAB0258E46 CIG 004V010 SLP164 P0006 T01110100 TSNO

2006/10/02 03:54
KLWT 020354Z AUTO 13006KT 10SM CLR 09/M01 A2990 RMK AO2 SLP105 T00941011

2006/10/02 03:50
KLXN 020350Z AUTO 26003KT 10SM CLR 13/10 A2983 RMK AO2 TSNO

2006/10/02 03:54
KMFI 020354Z AUTO 14008KT 10SM VCTS SCT046 16/11 A2990 RMK AO2 LTG DSNT SE TSB45RAB25E51 SLP124 P0000 T01560106

2006/10/02 03:54
KMGJ 020354Z AUTO 09004KT 10SM CLR 08/07 A3005 RMK AO2 SLP177 T00830072

2006/10/02 03:54
KMIV 020354Z AUTO 29005KT 10SM CLR 12/10 A3009 RMK AO2 SLP190 T01220100

2006/10/02 03:54
KMKC 020354Z 19013KT 10SM CLR 27/18 A2994 RMK AO2 SLP130 T02670183

2006/10/02 03:55
KMKT 020355Z AUTO 17007KT 10SM CLR 22/13 A2976 RMK AO1

2006/10/02 03:50
KMLE 020350Z AUTO 17009G16KT 10SM CLR 27/13 A2981 RMK AO2 LTG DSNT NE

2006/10/02 03:55
KMML 020355Z AUTO 25003KT 10SM CLR 16/11 A2976 RMK AO1

2006/10/02 03:49
KMNH 020349Z AUTO 24007KT 10SM CLR 16/M06 A3018 RMK AO2

2006/10/02 03:54
KMOT 020354Z AUTO 28008KT 10SM CLR 14/07 A2979 RMK AO2 SLP086 T01390072

2006/10/02 03:55
KMRF 020355Z AUTO 14004KT 10SM CLR 17/09 A3024 RMK AO1

2006/10/02 03:54
KMRY 020354Z 00000KT 10SM CLR 14/09 A3001 RMK AO2 SLP174 T01390094

2006/10/02 03:55
KMSV 020355Z AUTO 29007KT 10SM CLR A3007 RMK AO1

2006/10/02 03:54
KMVL 020354Z AUTO 00000KT 6SM BR OVC021 09/09 A3005 RMK AO2 SLP179 T00940089

2006/10/02 03:55
KOAJ 020355Z AUTO 00000KT 10SM CLR 13/11 A3016 RMK AO1

2006/10/02 03:55
KOCF 020355Z AUTO 00000KT 10SM CLR 19/17 A3013 RMK AO1

2006/10/02 03:54
KOFP 020354Z AUTO 00000KT 5SM BR CLR 12/11 A3018 RMK AO2 SLP219 T01220111

2006/10/02 03:54
KOLM 020354Z AUTO 32003KT 10SM CLR 12/06 A3000 RMK AO2 SLP159 T01220061

2006/10/02 03:54
KOLS 020354Z AUTO 06004KT 10SM CLR 20/04 A3011 RMK AO2 SLP140 T02000044

2006/10/02 03:55
KOLU 020355Z AUTO 18013G18KT 10SM CLR 24/12 A2979 RMK AO1

2006/10/02 03:50
KONP 020350Z AUTO 03003KT 4SM BR CLR 10/08 A3004 RMK AO2

2006/10/02 03:54
KORH 020354Z AUTO 36009KT 7SM OVC001 10/09 A3000 RMK AO2 SLP164 T01000094 $

2006/10/02 03:50
KORS 020350Z AUTO 00000KT 10SM CLR 09/08 A3000 RMK AO2

2006/10/02 03:55
KOTG 020355Z AUTO 22008KT 10SM CLR 18/13 A2977 RMK AO1

2006/10/02 03:55
KOTH 020355Z 30005KT 9SM CLR 11/10 A3004 RMK AO1 SLP173

2006/10/02 03:46
K1F0 020346Z AUTO 16006KT 10SM CLR 28/19 A3003 RMK AO2

2006/10/02 03:54
KAAO 020354Z AUTO 17012KT 10SM CLR 25/16 A2994 RMK AO2 SLP123 T02500156

2006/10/02 03:55
KAIZ 020355Z AUTO 18006KT 10SM CLR 22/12 A3008 RMK AO1

2006/10/02 03:54
KAKH 020354Z AUTO 02003KT 10SM CLR 16/11 A3018 RMK AO2 SLP217 T01560106 TSNO

2006/10/02 03:54
KAKR 020354Z AUTO 00000KT 8SM CLR 08/07 A3015 RMK AO2 SLP211 T00830072

2006/10/02 03:54
KALO 020354Z 17011KT 10SM CLR 22/11 A2985 RMK AO2 SLP103 T02220106

2006/10/02 03:54
KAPC 020354Z AUTO 26007KT 10SM FEW036 14/07 A3002 RMK AO2 SLP155 T01390072 TSNO

2006/10/02 03:55
KARG 020355Z AUTO 13004KT 10SM CLR 20/13 A3011 RMK AO1

2006/10/02 03:55
KAUO 020355Z AUTO 03005KT 10SM CLR 20/18 A3014 RMK AO1

2006/10/02 03:54
KAUW 020354Z AUTO 11005KT 10SM CLR 13/08 A2991 RMK AO2 LTG DSNT SW SLP133 T01280083

2006/10/02 03:54
KAVL 020354Z AUTO 34006KT 10SM CLR 12/10 A3026 RMK AO2 SLP231 T01170100

2006/10/02 03:55
KAWO 020355Z AUTO 00000KT 10SM CLR 09/07 A3000 RMK AO1

2006/10/02 03:54
KBFL 020354Z 00000KT 5SM BR SCT070 16/14 A2999 RMK AO2 RAE0258 SLP154 P0000 T01610139

2006/10/02 03:53
KESF 020353Z AUTO 00000KT 7SM CLR 21/19 A3012 RMK AO2 SLP198 T02060189 $

2006/10/02 03:53
KEVW 020353Z AUTO 22010KT 10SM CLR 13/M05 A3015 RMK AO2 SLP130 T01281050

2006/10/02 03:53
KEWB 020353Z AUTO 30007KT 10SM BKN006 13/12 A2996 RMK AO2 RAE03 CIG 004V009 SLP144 P0000 T01330122

2006/10/02 03:53
KEYE 020353Z AUTO 00000KT 10SM CLR 15/11 A3013 RMK AO2 SLP200 T01500111 $

2006/10/02 03:53
KFAY 020353Z AUTO 05003KT 10SM CLR 17/13 A3015 RMK AO2 SLP204 T01670133 TSNO

2006/10/02 03:53
KFCM 020353Z VRB03KT 10SM CLR 19/11 A2975 RMK AO2 SLP071 T01890111

2006/10/02 03:53
KFDR 020353Z AUTO 17007KT 10SM CLR 24/14 A2997 RMK AO2 SLP130 T02440144 $

2006/10/02 03:53
KFFC 020353Z AUTO 00000KT 6SM BR CLR 16/15 A3017 RMK AO2 SLP214 T01610150 $

2006/10/02 03:53
KFFT 020353Z AUTO 00000KT 10SM CLR 12/11 A3018 RMK AO2 SLP219 T01220106 $

2006/10/02 03:53
KFHR 020353Z AUTO 00000KT 10SM CLR 06/04 A3002 RMK AO2 SLP166 T00610039

2006/10/02 03:53
KFLD 020353Z AUTO 19005KT 10SM CLR 17/11 A2996 RMK AO2 LTG DSNT S-W TSE0254 SLP144 T01670106

2006/10/02 03:53
KFLL 020353Z 07014G17KT 10SM FEW027 SCT036 28/22 A3005 RMK AO2 SLP175 T02830217

2006/10/02 03:53
KFLO 020353Z AUTO 05006KT 10SM CLR 18/14 A3015 RMK AO2 SLP207 T01830139

2006/10/02 03:53
KFMY 020353Z 07003KT 10SM CLR 24/20 A3009 RMK AO2 SLP190 T02440200

2006/10/02 03:53
KFOE 020353Z AUTO 17013KT 10SM CLR 26/17 A2992 RMK AO2 SLP121 T02560172 $

2006/10/02 03:53
KFOK 020353Z AUTO 34004KT 4SM BR CLR 10/08 A3002 RMK AO2 SLP166 T01000083 TSNO

2006/10/02 03:53
KFPR 020353Z AUTO 07007KT 10SM BKN036 BKN044 27/20 A3009 RMK AO2 SLP190 T02670200

2006/10/02 03:53
KFRG 020353Z AUTO 32007KT 10SM CLR 14/10 A3003 RMK AO2 SLP169 T01440100

2006/10/02 03:53
KFSM 020353Z 04003KT 10SM CLR 22/18 A3005 RMK AO2 SLP172 T02170183

2006/10/02 03:53
KFST 020353Z AUTO 16010KT 10SM CLR 24/13 A3009 RMK AO2 SLP139 T02440128

2006/10/02 03:53
KFTW 020353Z 17011KT 10SM CLR 28/17 A3004 RMK AO2 SLP162 T02780167

2006/10/02 03:53
KFTY 020353Z 00000KT 9SM CLR 15/13 A3017 RMK AO2 SLP209 T01500133

2006/10/02 03:53
KFUL 020353Z 24003KT 10SM CLR 21/14 A2992 RMK AO2 SLP129 T02060144

2006/10/02 03:53
KFVE 020353Z AUTO 09006KT 10SM OVC110 09/03 A3013 RMK AO2 SLP206 T00890033

2006/10/02 03:53
KFWN 020353Z AUTO 00000KT 1/4SM FG BKN001 BKN090 07/07 A3008 RMK AO2 SLP186 T00720067

2006/10/02 03:53
KFXE 020353Z 06009KT 10SM CLR 27/21 A3006 RMK AO2 SLP181 T02720206

2006/10/02 03:53
KFYV 020353Z AUTO 14004KT 10SM CLR 21/18 A3008 RMK AO2 SLP173 T02110178

2006/10/02 03:53
KGAG 020353Z AUTO 18016G22KT 10SM CLR 24/13 A2996 RMK AO2 SLP116 T02390133 $

2006/10/02 03:53
KGEY 020353Z AUTO 32006KT 10SM BKN110 19/00 A2987 RMK AO2 SLP092 T01940000

2006/10/02 03:53
KGEZ 020353Z AUTO 18005KT 10SM CLR 15/11 A3013 RMK AO2 SLP201 T01500106

2006/10/02 03:53
KGFK 020353Z 27004KT 10SM CLR 12/06 A2968 RMK AO2 SLP052 T01170056

2006/10/02 03:53
KGFL 020353Z AUTO 00000KT 3/4SM BR OVC001 10/10 A3003 RMK AO2 CIG 001V004 SLP171 T01000100

2006/10/02 03:53
KGGG 020353Z AUTO 17003KT 10SM CLR 23/19 A3009 RMK AO2 SLP184 T02330189

2006/10/02 03:53
KGGW 020353Z AUTO 02007KT 10SM CLR 11/06 A2985 RMK AO2 SLP110 T01060061

2006/10/02 03:53
KGJT 020353Z AUTO 10011KT 10SM CLR 19/M01 A3007 RMK AO2 SLP134 T01891011

2006/10/02 03:53
KGKY 020353Z AUTO 16008KT 10SM CLR 27/17 A3005 RMK AO2 SLP166 T02670172

2006/10/02 03:53
KGLD 020353Z AUTO 21005KT 9SM CLR 20/01 A2993 RMK AO2 SLP096 T02000006 $

2006/10/02 03:53
KGLH 020353Z AUTO 14007KT 10SM FEW060 24/19 A3010 RMK AO2 SLP196 T02440189

2006/10/02 03:53
KGLR 020353Z AUTO 14003KT 10SM CLR 07/04 A3007 RMK AO2 SLP190 T00670044

2006/10/02 03:53
KGMU 020353Z AUTO 06004KT 10SM CLR 17/10 A3020 RMK AO2 SLP219 T01720100

2006/10/02 03:53
KGNV 020353Z AUTO 00000KT 9SM CLR 21/18 A3013 RMK AO2 SLP198 T02110178

2006/10/02 03:53
KGOK 020353Z AUTO 16011KT 10SM CLR 26/16 A2997 RMK AO2 SLP137 T02610161

2006/10/02 03:53
KGPT 020353Z AUTO 00000KT 6SM BR CLR 22/21 A3011 RMK AO2 SLP196 T02220206

2006/10/02 03:53
KGRB 020353Z 16007KT 10SM CLR 14/10 A2997 RMK AO2 SLP151 T01390100

2006/10/02 03:50
LTAJ 020350Z 36002KT 9999 SCT040 12/03 Q1013 NOSIG

2006/10/02 03:50
LTCG 020350Z 17004KT 9999 SCT035 BKN100 18/13 Q1018 NOSIG RMK RWY29 VRB02KT

2006/10/02 03:50
LTCI 020350Z 16013KT 9999 SCT035 18/05 Q1019 NOSIG RMK RWY21 18010KT

2006/10/02 03:50
LTFE 020350Z VRB02KT CAVOK 19/12 Q1013 NOSIG RMK RWY11 05003KT

2006/10/02 03:53
KDEQ 020353Z AUTO 00000KT 10SM CLR 26/17 A3006 RMK AO2 SLP174 T02560167

2006/10/02 03:53
KLFK 020353Z AUTO 15004KT 10SM CLR 23/19 A3011 RMK AO2 SLP192 T02330194

2006/10/02 03:53
KLFT 020353Z AUTO 00000KT 8SM CLR 24/22 A3012 RMK AO2 SLP197 T02390217 $

2006/10/02 03:53
KLGB 020353Z 30006KT 10SM CLR 19/12 A2992 RMK AO2 SLP131 T01890122

2006/10/02 03:53
KLHQ 020353Z AUTO 00000KT 10SM CLR 09/07 A3018 RMK AO2 SLP219 T00890067

2006/10/02 03:53
KLHX 020353Z AUTO 21007KT 10SM CLR 18/01 A2999 RMK AO2 SLP103 T01780011

2006/10/02 03:53
KLLQ 020353Z AUTO 00000KT 10SM CLR 22/20 A3012 RMK AO2 SLP194 T02220200

2006/10/02 03:53
KLMT 020353Z 27008KT 7SM FEW250 14/06 A2997 RMK AO2 SLP129 T01390056 $

2006/10/02 03:53
KLNS 020353Z 29004KT 10SM CLR 11/09 A3013 RMK AO2 SLP201 T01060089

2006/10/02 03:53
KLOL 020353Z AUTO 33006KT 10SM CLR 22/M04 A2994 RMK AO2 SLP108 T02171039 TSNO

2006/10/02 03:53
KLOU 020353Z AUTO 00000KT 10SM CLR 16/13 A3016 RMK AO2 SLP212 T01560128

2006/10/02 03:53
KLOZ 020353Z AUTO 00000KT 7SM CLR 12/11 A3023 RMK AO2 SLP231 T01170106

2006/10/02 03:53
KLSE 020353Z AUTO 17007KT 10SM CLR 21/12 A2983 RMK AO2 SLP097 T02060117

2006/10/02 03:53
KLUK 020353Z AUTO 00000KT 9SM CLR 12/11 A3018 RMK AO2 SLP219 T01220111

2006/10/02 03:53
KLVJ 020353Z AUTO 00000KT 10SM CLR 24/21 A3012 RMK AO2 SLP198 T02440211

2006/10/02 03:53
KLVK 020353Z 26003KT 10SM CLR 13/11 A3000 RMK AO2 SLP158 T01330106

2006/10/02 03:53
KLVM 020353Z AUTO 24003KT 10SM CLR 12/M02 A2989 RMK AO2 SLP101 T01171022

2006/10/02 03:53
KLVS 020353Z AUTO 28005KT 10SM CLR 17/M06 A3023 RMK AO2 SLP131 T01721061

2006/10/02 03:53
KLWV 020353Z AUTO 00000KT 10SM CLR 16/12 A3013 RMK AO2 SLP200 T01610117

2006/10/02 03:53
KLXT 020353Z AUTO 18012G18KT 10SM CLR 26/18 A2998 RMK AO2 SLP140 T02560178

2006/10/02 03:53
KMAE 020353Z AUTO 00000KT 4SM BR BKN060 14/14 A2999 RMK AO2 RAE11 SLP153 T01440139 PNO $

2006/10/02 03:53
KMAF 020353Z AUTO 17014KT 10SM CLR 24/14 A3007 RMK AO2 SLP140 T02440144 TSNO

2006/10/02 03:53
KMAI 020353Z AUTO 00000KT 9SM FEW055 23/19 A3011 RMK AO2 SLP193 T02280189

2006/10/02 03:53
KMCB 020353Z AUTO 00000KT 8SM CLR 21/19 A3013 RMK AO2 SLP198 T02110194

2006/10/02 03:53
KMCE 020353Z AUTO 00000KT 6SM HZ FEW090 15/12 A2998 RMK AO2 RAB13E31 SLP151 P0000 T01500122

2006/10/02 03:53
KMCI 020353Z 18015KT 10SM SCT100 27/18 A2995 RMK AO2 SLP128 T02720178

2006/10/02 03:53
KMCK 020353Z AUTO 00000KT 10SM CLR 16/08 A2986 RMK AO2 SLP096 T01560078 $

2006/10/02 03:53
KMCW 020353Z AUTO 18009KT 10SM CLR 20/12 A2982 RMK AO2 SLP088 T02000117

2006/10/02 03:53
KMEI 020353Z AUTO 20003KT 10SM CLR 23/21 A3013 RMK AO2 SLP200 T02330211 $

2006/10/02 03:53
KMEM 020353Z 12005KT 10SM BKN250 23/12 A3013 RMK AO2 SLP200 T02330122 $

2006/10/02 03:53
KMFE 020353Z 13008KT 10SM CLR 26/22 A3007 RMK AO2 SLP181 T02610222

2006/10/02 03:53
KMFR 020353Z 04005KT 10SM FEW090 16/05 A2993 RMK AO2 SLP132 T01560050

2006/10/02 03:54
KDTW 020354Z 00000KT 9SM SCT200 11/08 A3013 RMK AO2 SLP204 T01060078

2006/10/02 03:50
K0CO 020350Z AUTO 10SM 03/M11 A3053 RMK AO2

2006/10/02 03:51
K20V 020351Z AUTO 00000KT 10SM CLR 11/M05 A3025 RMK AO2

2006/10/02 03:50
K7BM 020350Z AUTO 23006KT 10SM CLR 12/M08 A3039 RMK AO2

2006/10/02 03:53
KABR 020353Z AUTO 00000KT 10SM CLR 12/09 A2975 RMK AO2 SLP074 T01220094

2006/10/02 03:53
KABY 020353Z 00000KT 6SM BR CLR 21/19 A3014 RMK AO2 SLP205 T02110189

2006/10/02 03:53
KACK 020353Z AUTO 29006KT 10SM CLR 14/13 A2992 RMK AO2 SLP132 T01390133 TSNO

2006/10/02 03:53
KACV 020353Z AUTO 08003KT 10SM CLR 10/08 A3002 RMK AO2 SLP172 T01000078

2006/10/02 03:45
KAEG 020345Z AUTO 26007KT CLR 14/M03 A3017 RMK A01 P000

2006/10/02 03:53
KAEX 020353Z 00000KT 10SM CLR 23/20 A3009 RMK AO2 SLP190 T02280200

2006/10/02 03:53
KAFW 020353Z 17010KT 10SM CLR 28/16 A3003 RMK AO2 SLP154 T02780161

2006/10/02 03:53
KAGS 020353Z 00000KT 10SM CLR 17/15 A3013 RMK AO2 SLP200 T01720150

2006/10/02 03:53
KAIA 020353Z AUTO 17003KT 10SM CLR 13/06 A2991 RMK AO2 SLP096 T01330056

2006/10/02 03:53
KAKO 020353Z AUTO 23007KT 10SM CLR 18/M02 A3001 RMK AO2 SLP111 T01831022

2006/10/02 03:55
KBID 020355Z AUTO 33009G15KT 10SM 14/12 A2999 RMK AO1

2006/10/02 03:55
KBJI 020355Z 13004KT 10SM CLR 15/10 A2972 RMK AO1

2006/10/02 03:55
KBKX 020355Z AUTO 00000KT 10SM CLR 14/13 A2981 RMK AO1

2006/10/02 03:55
KBLM 020355Z AUTO 30006KT 10SM CLR 12/06 A3008 RMK AO1

2006/10/02 03:54
KBOS 020354Z 01012KT 10SM BKN012 OVC021 12/11 A2999 RMK AO2 RAE05B07E17 SLP153 P0000 T01220106

2006/10/02 03:55
KBTP 020355Z AUTO 00000KT 10SM CLR 08/07 A3018 RMK AO1 52007

2006/10/02 03:54
KBUY 020354Z AUTO 00000KT 10SM CLR 12/11 A3018 RMK AO2 SLP215 T01220106

2006/10/02 03:55
KBVX 020355Z AUTO 12005KT 10SM CLR 23/11 A3010 RMK AO1

2006/10/02 03:54
KBWI 020354Z 00000KT 10SM CLR 12/09 A3014 RMK AO2 SLP207 T01170094 $

2006/10/02 03:54
KCEU 020354Z AUTO 02005KT 10SM CLR 19/13 A3019 RMK AO2 SLP213 T01890133

2006/10/02 03:55
KCGZ 020355Z AUTO 27005KT 10SM CLR 28/04 A2993 RMK AO1

2006/10/02 03:55
KCOE 020355Z AUTO 00000KT 10SM CLR 11/02 A2992 RMK AO1

2006/10/02 03:55
KCVN 020355Z AUTO 20008KT 10SM CLR 17/08 A3011 RMK AO1

2006/10/02 03:55
KCVO 020355Z AUTO 31009KT 10SM CLR 16/09 A2998 RMK AO1

2006/10/02 03:55
KCWI 020355Z AUTO 19009KT 10SM CLR 21/09 A2997 RMK AO1

2006/10/02 03:54
KDAG 020354Z AUTO 27010KT 10SM CLR 24/09 A2993 RMK AO2 SLP112 T02390089 $

2006/10/02 03:54
KDDH 020354Z AUTO 00000KT 10SM FEW007 BKN015 OVC037 11/10 A3003 RMK AO2 SLP171 T01060100

2006/10/02 03:54
KDEC 020354Z AUTO 21013KT 10SM CLR 21/11 A3009 RMK AO2 SLP182 T02110111

2006/10/02 03:54
KDSM 020354Z 18016G20KT 10SM CLR 25/16 A2986 RMK AO2 SLP104 T02500156

2006/10/02 03:54
KDSV 020354Z AUTO 14004KT 3SM BR FEW001 09/08 A3013 RMK AO2 SLP211 T00890078

2006/10/02 03:53
KDUA 020353Z AUTO 18006KT 10SM CLR 26/17 A3005 RMK AO2

2006/10/02 03:55
KDVL 020355Z AUTO 30008KT 10SM CLR 14/04 A2974 RMK AO1

2006/10/02 03:54
KDYL 020354Z AUTO 00000KT 10SM CLR 12/08 A3008 RMK AO2 SLP186 T01220083

2006/10/02 03:55
KDYR 020355Z AUTO 11003KT 10SM CLR 17/11 A3015 RMK AO1

2006/10/02 03:55
KEAR 020355Z AUTO 00000KT 10SM CLR 14/08 A2982 RMK AO1

2006/10/02 03:54
KTAD 020354Z AUTO 25010KT 10SM CLR 16/M05 A3012 RMK AO2 SLP122 T01561050

2006/10/02 03:50
KTEX 020350Z AUTO 14004KT 10SM BKN100 12/M06 A3041 RMK AO2

2006/10/02 03:52
KTIF 020352Z AUTO 27004KT 10SM CLR 16/04 A2986 RMK AO2

2006/10/02 03:54
KTQE 020354Z AUTO 15006KT 10SM CLR 23/14 A2977 RMK AO2 SLP069 T02280139

2006/10/02 03:55
KTVF 020355Z AUTO 00000KT 10SM CLR 14/11 A2969 RMK AO1

2006/10/02 03:56
KUCP 020356Z AUTO 00000KT 10SM CLR 08/08 A3017 RMK AO2 T00770077 SLP234

2006/10/02 03:55
KUDG 020355Z AUTO 00000KT 10SM CLR 16/14 A3018 RMK AO1

2006/10/02 03:54
KUIN 020354Z AUTO 18010G16KT 10SM CLR 22/11 A3002 RMK AO2 SLP158 T02220111

2006/10/02 03:54
KVAY 020354Z AUTO 00000KT 10SM CLR 11/09 A3009 RMK AO2 SLP187 T01110094 $

2006/10/02 03:55
KVBT 020355Z AUTO 16005KT 10SM CLR 21/18 A3008 RMK AO1

2006/10/02 03:55
KVIS 020355Z AUTO 31005KT 10SM BKN080 16/13 A2998 RMK AO1

2006/10/02 03:54
KVSF 020354Z AUTO 00000KT 10SM OVC013 11/09 A3005 RMK AO2 SLP177 T01060094

2006/10/02 03:54
KVTA 020354Z AUTO 00000KT 9SM CLR 08/07 A3017 RMK AO2 SLP217 T00830072

2006/10/02 03:54
KWLD 020354Z AUTO 17011KT 10SM CLR 25/16 A2996 RMK AO2 SLP133 T02500161 $

2006/10/02 03:55
KWVL 020355Z AUTO 01006KT 4SM FEW001 SCT027 BKN036 09/08 A3000 RMK AO1 P0009

2006/10/02 03:55
KWWD 020355Z AUTO 31006KT 10SM CLR 17/08 A3010 RMK AO1

2006/10/02 03:51
KWWR 020351Z AUTO 19017KT 10SM CLR 26/14 A2994 RMK AO2

2006/10/02 03:55
KYKN 020355Z AUTO 00000KT 10SM CLR 17/12 A2978 RMK AO1

2006/10/02 03:55
KOXC 020355Z 00000KT 10SM CLR 11/09 A3004 RMK AO1

2006/10/02 03:54
KPHF 020354Z 00000KT 9SM SCT070 17/14 A3014 RMK AO2 SLP206 T01720144

2006/10/02 03:54
KPHL 020354Z 31006KT 10SM CLR 15/08 A3011 RMK AO2 SLP195 T01500083

2006/10/02 03:55
KPIB 020355Z AUTO 00000KT 10SM CLR 20/18 A3014 RMK AO1

2006/10/02 03:54
KPLN 020354Z AUTO 12003KT 10SM CLR 08/06 A3006 RMK AO2 RAB23E34 SLP183 P0000 T00780061

2006/10/02 03:50
KPNA 020350Z AUTO 29004KT 10SM CLR 08/M01 A3013 RMK AO2

2006/10/02 03:54
KPNE 020354Z AUTO 30007KT 10SM CLR 14/09 A3009 RMK AO2 SLP190 T01390094 TSNO

2006/10/02 03:47
KPOC 020347Z 00000KT 3SM HZ SCT000 OVC150 A2995 RMK HZ SCT000 LAST

2006/10/02 03:55
KPQI 020355Z AUTO 06005KT 10SM SCT034 BKN046 OVC120 11/04 A3008 RMK AO1

2006/10/02 03:54
KPSF 020354Z AUTO 00000KT 10SM BKN009 10/09 A3003 RMK AO2 CIG 007V011 SLP159 T01000089

2006/10/02 03:50
KPTT 020350Z AUTO 18015G18KT 10SM CLR 26/11 A2993 RMK AO2

2006/10/02 03:55
KPTV 020355Z AUTO 30003KT 9SM BKN120 16/12 A2999 RMK AO1

2006/10/02 03:54
KPTW 020354Z AUTO 00000KT 10SM CLR 11/09 A3012 RMK AO2 SLP196 T01110089

2006/10/02 03:55
KPVU 020355Z 12005KT 10SM CLR 16/03 A3000 RMK AO1

2006/10/02 03:55
KPWT 020355Z AUTO 03007KT 10SM FEW060 12/07 A3000 RMK AO1

2006/10/02 03:54
KRBL 020354Z AUTO 19005KT 10SM CLR 16/08 A3003 RMK AO2 SLP165 T01560078

2006/10/02 03:54
KRDG 020354Z 32005KT 10SM CLR 11/07 A3010 RMK AO2 SLP199 T01060072

2006/10/02 03:55
KRKD 020355Z AUTO 02007KT 8SM FEW007 SCT028 BKN060 11/10 A2998 RMK AO1 P0006

2006/10/02 03:54
KRKS 020354Z AUTO 24007KT 10SM CLR 14/M05 A3012 RMK AO2 SLP142 T01391050

2006/10/02 03:55
KROG 020355Z AUTO 14006KT 10SM CLR 22/17 A3008 RMK AO1

2006/10/02 03:54
KRST 020354Z AUTO 19010KT 10SM CLR 22/10 A2984 RMK AO2 SLP099 T02170100

2006/10/02 03:55
KRUT 020355Z AUTO 11004KT 10SM BKN018 OVC028 11/09 A3004 RMK AO1

2006/10/02 03:54
KRZZ 020354Z AUTO 27006KT 10SM CLR 16/12 A3016 RMK AO2 SLP209 T01560122

2006/10/02 03:54
KSBY 020354Z 00000KT 10SM CLR 09/09 A3013 RMK AO2 SLP206 T00940089

2006/10/02 03:54
KSET 020354Z AUTO 14004KT 10SM CLR 17/12 A3006 RMK AO2 SLP175 T01670117 $

2006/10/02 03:55
KSFM 020355Z 36008KT 10SM SCT008 OVC027 09/08 A3004 RMK AO1

2006/10/02 03:55
KSFZ 020355Z AUTO 34009KT 10SM OVC003 11/09 A2998 RMK AO1

2006/10/02 03:55
KSGJ 020355Z AUTO 00000KT 10SM CLR 23/20 A3013 RMK AO1

2006/10/02 03:55
KSGT 020355Z AUTO 14003KT 10SM CLR A3008 RMK AO1

2006/10/02 03:55
KSGU 020355Z AUTO 08005KT 10SM CLR 26/02 A2994 RMK AO1

2006/10/02 03:54
KSJN 020354Z AUTO 23009KT 10SM CLR 19/M03 A3019 RMK AO2 SLP140 T01891033

2006/10/02 03:55
KSKX 020355Z AUTO 00000KT 10SM CLR 09/M07 A3027 RMK AO1

2006/10/02 03:55
KSLG 020355Z AUTO 17007KT 10SM CLR 22/14 A3007 RMK AO1

2006/10/02 03:55
KSMN 020355Z AUTO 30003KT 10SM CLR 11/M01 A2989 RMK AO1

2006/10/02 03:50
KSOW 020350Z AUTO 18009KT 10SM CLR 15/M01 A3026 RMK AO2

2006/10/02 03:50
KSRR 020350Z AUTO 22007KT 10SM 16/01 A3029 RMK AO2 TSNO

2006/10/02 03:54
KSUS 020354Z 00000KT 10SM CLR 21/12 A3006 RMK AO2 SLP172 T02110117

2006/10/02 03:46
KSZT 020346Z AUTO 00000KT 10SM CLR 09/M02 A2991 RMK AO1

2006/10/02 03:54
PAHN 020354Z AUTO 08009G15KT 10SM OVC070 08/03 A3008 RMK AO2 SLP188 T00830028 TSNO

2006/10/02 03:54
PAKN 020354Z 12003KT 10SM -RA OVC046 09/07 A2944 RMK AO2 SLP970 P0000 T00890072

2006/10/02 03:54
KECG 020354Z AUTO 00000KT 10SM BKN080 14/13 A3013 RMK AO2 SLP203 T01390128 TSNO

2006/10/02 03:55
KEEN 020355Z AUTO 05003KT 10SM OVC013 11/09 A3002 RMK AO1

2006/10/02 03:47
KEMT 020347Z 00000KT 10SM OVC150 A2994 RMK LAST

2006/10/02 03:55
KENV 020355Z 00000KT 10SM CLR 17/M04 A2990 RMK AO1

2006/10/02 03:54
KEUG 020354Z AUTO 27005KT 10SM CLR 12/06 A2997 RMK AO2 SLP150 T01220061 TSNO $

2006/10/02 03:55
KEUL 020355Z AUTO 00000KT 10SM CLR 12/02 A2987 RMK AO1

2006/10/02 03:54
KEVV 020354Z AUTO 00000KT 10SM CLR 15/13 A3016 RMK AO2 SLP211 T01500133 $

2006/10/02 03:55
KEWK 020355Z AUTO 18014G18KT 10SM CLR 26/14 A2997 RMK AO1

2006/10/02 03:54
KEWN 020354Z AUTO 00000KT 7SM CLR 14/13 A3016 RMK AO2 SLP214 T01440133

2006/10/02 03:55
KFAM 020355Z AUTO 17004KT 10SM CLR 19/11 A3013 RMK AO1

2006/10/02 03:54
KFIG 020354Z AUTO 00000KT M1/4SM FG VV001 07/07 A3016 RMK AO2 SLP217 T00720067

2006/10/02 03:55
KFKL 020355Z AUTO 24003KT 10SM CLR 08/07 A3018 RMK AO1 52007

2006/10/02 03:55
KFLP 020355Z AUTO 00000KT 10SM CLR 21/16 A3010 RMK AO1

2006/10/02 03:55
KFOD 020355Z AUTO 20012G19KT 10SM CLR 23/15 A2980 RMK AO1

2006/10/02 03:54
KFZY 020354Z AUTO 00000KT 8SM CLR 11/09 A3006 RMK AO2 SLP180 T01060094

2006/10/02 03:55
KGAD 020355Z AUTO 00000KT 10SM CLR 17/15 A3017 RMK AO1

2006/10/02 03:55
KGBD 020355Z 18015G19KT 10SM CLR 24/12 A2988 RMK AO1

2006/10/02 03:54
KGCK 020354Z AUTO 16007KT 10SM CLR 17/03 A2993 RMK AO2 SLP107 T01720033

2006/10/02 03:55
KGCM 020355Z AUTO 17008KT 10SM CLR 24/17 A3003 RMK AO2

2006/10/02 03:54
KGCN 020354Z AUTO 00000KT 10SM SCT120 11/M03 A3024 RMK AO2 SLP166 T01111033 TSNO

2006/10/02 03:53
PHNL 020353Z 04008KT 10SM FEW045 27/21 A2993 RMK AO2 SLP135 T02720211 $

2006/10/02 03:53
PHTO 020353Z 14005KT 6SM -RA BR FEW019 BKN028 25/23 A2997 RMK AO2 RAB41 SLP148 P0000 T02500228

2006/10/02 03:53
PHKO 020353Z 29005KT 10SM FEW034 28/22 A2991 RMK AO2 SLP129 T02780222

2006/10/02 03:53
PHLI 020353Z 06009KT 10SM OVC034 26/22 A2996 RMK AO2 SLP143 T02610217

2006/10/02 03:53
KSEA 020353Z 04008KT 10SM FEW200 13/08 A3001 RMK AO2 SLP167 T01330083

2006/10/02 03:53
PABE 020353Z 01005KT 10SM SCT043 BKN060 10/07 A2948 RMK AO2 SLP983 T01000067

2006/10/02 03:53
PABT 020353Z 32003KT 10SM FEW050 BKN065 OVC110 02/00 A2973 RMK AO2 SLP081 T00220000

2006/10/02 03:53
PACD 020353Z 26027G35KT 10SM -RA BKN011 BKN018 BKN140 08/07 A2954 RMK AO2 PK WND 25037/0304 SLP004 P0001 T00830072

2006/10/02 03:53
PADQ 020353Z 13014KT 5SM -RA BR FEW008 BKN015 OVC033 09/08 A2961 RMK AO2 SLP025 P0004 T00890078

2006/10/02 03:53
PAFA 020353Z 00000KT 10SM BKN080 OVC110 04/M01 A2976 RMK AO2 SLP087 T00391006

2006/10/02 03:53
PAHO 020353Z 03004KT 10SM -RA BKN065 08/07 A2968 RMK AO2 SLP051 P0002 T00780067

2006/10/02 03:53
PAJN 020353Z 07007KT 10SM OVC065 07/04 A3011 RMK AO2 SLP197 T00670044

2006/10/02 03:53
PAMC 020353Z 00000KT 10SM FEW005 SCT060 BKN085 06/03 A2964 RMK AO2 SLP043 T00560033

2006/10/02 03:53
PANC 020353Z 34007KT 10SM FEW015 SCT055 BKN080 BKN130 04/03 A2980 RMK AO2 RAB24E33 SLP092 VIRGA NE-SE P0000 T00440028

2006/10/02 03:53
PANN 020353Z AUTO 07008KT 10SM OVC100 05/M01 A2972 RMK AO2 SLP073 T00501011 TSNO

2006/10/02 03:53
PANT 020353Z AUTO 00000KT 10SM CLR 06/03 A3015 RMK AO2 SLP209 T00560033 TSNO

2006/10/02 03:53
PAOM 020353Z 03013KT 10SM BKN030 OVC090 06/02 A2962 RMK AO2 SLP029 T00610017

2006/10/02 03:53
PAOR 020353Z 11005KT 10SM FEW065 SCT080 OVC100 01/M01 A2982 RMK AO2 SLP129 T00061011

2006/10/02 03:53
PAOT 020353Z 36007KT 10SM FEW035 SCT250 04/M01 A2971 RMK AO2 SLP060 T00441006

2006/10/02 03:53
KODX 020353Z AUTO 00000KT 10SM CLR 13/11 A2979 RMK AO2 SLP083 T01280111

2006/10/02 03:53
KCHA 020353Z 00000KT 10SM CLR 17/14 A3019 RMK AO2 SLP219 T01670144

2006/10/02 03:54
KAKQ 020354Z AUTO 7SM CLR 14/13 A3015 RMK AO2 SLP211 T01440133 TSNO

2006/10/02 03:55
KTUS 020355Z 16007KT 10SM CLR 26/02 A3002 RMK AO2 SLP121 T02560022

2006/10/02 03:55
KMKG 020355Z 15009KT 10SM CLR 13/08 A3005 RMK AO2 SLP174 T01280083

2006/10/02 03:56
KMOB 020356Z 23003KT 10SM CLR 23/21 A3013 RMK AO2 SLP200 T02330211

2006/10/02 03:55
KSCK 020355Z 36004KT 8SM FEW023 14/12 A2999 RMK AO2 SLP155 T01440122

2006/10/02 03:55
KDBQ 020355Z AUTO 20014KT 10SM CLR 21/09 A2991 RMK AO2 SLP124 T02060094 TSNO

2006/10/02 03:55
KANJ 020355Z AUTO 17004KT 10SM OVC100 09/07 A3005 RMK AO2 RAE04 SLP176 P0000 T00890072

2006/10/02 03:56
KJAX 020356Z 00000KT 10SM CLR 20/18 A3011 RMK AO2 SLP197 T02000183

2006/10/02 03:55
KAAT 020355Z AUTO 23007KT 10SM CLR 14/M05 A3003 RMK AO2 SLP150 T01391050 TSNO

2006/10/02 03:55
KLAN 020355Z 00000KT 10SM CLR 08/07 A3011 RMK AO2 SLP199 T00780067 $

2006/10/02 03:55
KPHP 020355Z AUTO 00000KT 10SM CLR 16/09 A2980 RMK AO2 SLP079 T01560089 TSNO $

2006/10/02 03:55
KPOF 020355Z AUTO 00000KT 5SM BR CLR 16/14 A3012 RMK AO2 SLP197 T01610139 TSNO

2006/10/02 03:55
KLIC 020355Z AUTO 00000KT 10SM CLR 13/01 A3006 RMK AO2 SLP115 T01280006 TSNO

2006/10/02 03:55
KHON 020355Z AUTO 00000KT 10SM CLR 13/12 A2976 RMK AO2 SLP074 T01330117 TSNO

2006/10/02 03:55
KMBG 020355Z AUTO 36006KT 10SM CLR 15/07 A2978 RMK AO2 SLP082 T01500072 TSNO

2006/10/02 03:55
KAST 020355Z AUTO VRB03KT 10SM CLR 11/08 A3002 RMK AO2 SLP164 T01060083

2006/10/02 03:55
KINL 020355Z AUTO 15004KT 10SM CLR 12/09 A2970 RMK AO2 SLP062 T01220089

2006/10/02 03:53
KFMN 020353Z 02005KT 10SM CLR 16/M03 A3016 RMK AO2 SLP174 T01611033

2006/10/02 03:56
KABQ 020356Z 27003KT 10SM FEW120 BKN200 20/M03 A3016 RMK AO2 SLP144 T02001033

2006/10/02 03:55
KGPI 020355Z AUTO 00000KT 10SM CLR 09/01 A2989 RMK AO2 SLP126 T00890011

2006/10/02 03:56
KGEG 020356Z 22005KT 10SM SCT200 12/00 A2990 RMK AO2 SLP130 T01220000 $

2006/10/02 03:53
TISX 020353Z AUTO 05007KT 10SM CLR 27/23 A2997 RMK AO2 SLP148 T02720228 403220261 TSNO $

2006/10/02 03:53
TIST 020353Z 07009KT 10SM CLR 28/22 A2997 RMK AO2 SLP148 T02830222 403220278

2006/10/02 03:53
KTCL 020353Z AUTO 00000KT 6SM BR CLR 20/19 A3014 RMK AO2 SLP203 T02000194

2006/10/02 03:53
KTHV 020353Z AUTO 00000KT 10SM CLR 08/06 A3014 RMK AO2 SLP209 T00780061

2006/10/02 03:53
KTIW 020353Z AUTO 02006KT 10SM CLR 13/08 A2999 RMK AO2 SLP156 T01280078

2006/10/02 03:53
KTKI 020353Z AUTO 17010KT 10SM CLR 27/18 A3006 RMK AO2 SLP172 T02720178

2006/10/02 03:53
KTMB 020353Z AUTO 06008KT 10SM CLR 27/22 A3006 RMK AO2 SLP178 T02670217

2006/10/02 03:53
KTOI 020353Z AUTO 00000KT 9SM CLR 23/21 A3014 RMK AO2 SLP201 T02280206 TSNO

2006/10/02 03:53
KTOP 020353Z AUTO 17012G16KT 10SM CLR 27/18 A2991 RMK AO2 SLP120 T02670178

2006/10/02 03:53
KTOR 020353Z AUTO 00000KT 10SM CLR 19/M02 A2993 RMK AO2 SLP092 T01941017

2006/10/02 03:47
KTRK 020347Z AUTO 13004KT 10SM SCT048 OVC060 11/04 A3011 RMK AO1

2006/10/02 03:53
KTRL 020353Z AUTO 16005KT 10SM CLR 24/18 A3007 RMK AO2 SLP176 T02440178

2006/10/02 03:53
KTTD 020353Z 00000KT 10SM CLR 13/08 A2997 RMK AO2 SLP147 T01330083

2006/10/02 03:53
KTTN 020353Z AUTO 30004KT 10SM CLR 12/09 A3008 RMK AO2 SLP178 P0001 T01220094 $

2006/10/02 03:53
KTVC 020353Z VRB05KT 10SM BKN110 11/06 A3002 RMK AO2 SLP169 T01060061

2006/10/02 03:53
KTVL 020353Z AUTO 18003KT 10SM -RA OVC060 08/04 A3010 RMK AO2 SLP160 P0001 T00830044

2006/10/02 03:53
KTVR 020353Z AUTO 11004KT 8SM CLR 22/20 A3011 RMK AO2 SLP202 T02170200

2006/10/02 03:53
KTWF 020353Z AUTO 17005KT 10SM CLR 12/M02 A2993 RMK AO2 SLP094 T01221022

2006/10/02 03:53
KTXK 020353Z AUTO 16005KT 10SM CLR 24/17 A3009 RMK AO2 SLP182 T02440172

2006/10/02 03:53
KTYR 020353Z AUTO 17008KT 10SM CLR 26/18 A3010 RMK AO2 SLP184 T02560183 $

2006/10/02 03:53
KUAO 020353Z AUTO 00000KT 10SM CLR 13/09 A2998 RMK AO2 SLP153 T01280089

2006/10/02 03:53
KUNO 020353Z AUTO 16004KT 10SM CLR 20/12 A3013 RMK AO2 SLP193 T02000122 $

2006/10/02 03:53
KUTS 020353Z AUTO 16005KT 10SM CLR 25/21 A3012 RMK AO2 SLP192 T02500206

2006/10/02 03:53
KUUU 020353Z AUTO 32010KT 10SM OVC012 13/12 A2998 RMK AO2 SLP152 T01330117 $

2006/10/02 03:53
KVEL 020353Z AUTO 35004KT 10SM CLR 10/00 A3007 RMK AO2 SLP149 T01000000

2006/10/02 03:53
KVGT 020353Z AUTO 22007KT 10SM CLR 29/M01 A2987 RMK AO2 SLP082 T02941006

2006/10/02 03:53
KVIH 020353Z AUTO 18012KT 10SM CLR 22/12 A3008 RMK AO2 SLP176 T02170122

2006/10/02 03:53
KVLD 020353Z AUTO 00000KT 10SM CLR 19/17 A3011 RMK AO2 SLP203 T01940172

2006/10/02 03:53
KVPC 020353Z AUTO 00000KT 8SM CLR 14/13 A3018 RMK AO2 SLP211 T01440133

2006/10/02 03:53
KVPZ 020353Z AUTO 16004KT 10SM SCT120 14/11 A3010 RMK AO2 SLP192 T01440106 $

2006/10/02 03:53
KVRB 020353Z 06006KT 10SM SCT035 26/19 A3009 RMK AO2 SLP189 T02610194 $

2006/10/02 03:53
KVUO 020353Z AUTO 31004KT 10SM CLR 16/09 A2998 RMK AO2 SLP151 T01560089

2006/10/02 03:53
KWRL 020353Z AUTO 12003KT 10SM CLR 14/02 A2990 RMK AO2 SLP103 T01440022

2006/10/02 03:53
KWST 020353Z AUTO 33006KT 10SM OVC015 13/12 A3000 RMK AO2 SLP157 T01330122

2006/10/02 03:53
KWVI 020353Z AUTO 00000KT 10SM CLR 13/11 A3001 RMK AO2 SLP162 T01330106

2006/10/02 03:53
PAPB 020353Z AUTO 26012KT 4SM HZ OVC004 08/ A2945 RMK AO2 SLP961 T0078 TSNO $

2006/10/02 03:53
PASC 020353Z 00000KT 10SM BKN010 OVC043 01/01 A2971 RMK AO2 SLP061 T00110006

2006/10/02 03:53
PASI 020353Z 10005KT 10SM BKN048 07/04 A3011 RMK AO2 SLP196 T00720044

2006/10/02 03:53
PASO 020353Z AUTO 00000KT 3SM -RA BR BKN014 BKN034 OVC050 09/08 A2966 RMK AO2 SLP043 P0001 T00890083 TSNO

2006/10/02 03:53
PATO 020353Z AUTO 13014G23KT 9SM -RA BKN023 BKN032 OVC050 07/03 A2989 RMK AO2 SLP122 P0001 T00670028 TSNO $

2006/10/02 03:53
PAVL 020353Z AUTO 34005KT 10SM CLR 03/00 A2973 RMK AO2 SLP068 T00280000 TSNO

2006/10/02 03:53
PAWD 020353Z AUTO 00000KT 10SM -RA BKN050 OVC075 06/05 A2981 RMK AO2 SLP095 P0002 T00610050 TSNO

2006/10/02 03:53
PAWI 020353Z AUTO 32010KT 10SM OVC005 M01/M01 A2968 RMK AO2 SLP051 T10061011 TSNO $

2006/10/02 03:53
KIML 020353Z AUTO 27003KT 10SM CLR 16/04 A2989 RMK AO2 SLP102 T01610039

2006/10/02 03:53
KINK 020353Z AUTO 13011KT 10SM CLR 27/16 A3005 RMK AO2 SLP128 T02670156

2006/10/02 03:53
KIPL 020353Z AUTO 27009KT 10SM CLR 31/04 A2977 RMK AO2 SLP081 T03110044

2006/10/02 03:53
KITR 020353Z AUTO 22006KT 10SM CLR 16/02 A2998 RMK AO2 SLP106 T01560022 $

2006/10/02 03:53
KIWI 020353Z AUTO 00000KT 5SM -RA BR OVC035 10/09 A3003 RMK AO2 SLP170 P0007 T01000089

2006/10/02 03:53
KIXD 020353Z AUTO 18011KT 10SM CLR 25/18 A2997 RMK AO2 SLP136 T02500183

2006/10/02 03:53
KJEF 020353Z AUTO 13006KT 10SM CLR 22/12 A3004 RMK AO2 SLP160 T02170122

2006/10/02 03:53
KJER 020353Z AUTO 00000KT 10SM CLR 16/M09 A2993 RMK AO2 SLP111 T01561089 TSNO

2006/10/02 03:53
KJKL 020353Z AUTO 19003KT 10SM CLR 16/11 A3022 RMK AO2 SLP227 T01560106

2006/10/02 03:53
KLAA 020353Z AUTO 23003KT 10SM CLR 13/06 A2996 RMK AO2 SLP115 T01280061 $

2006/10/02 03:53
KLAR 020353Z AUTO 25007KT 10SM CLR 08/M06 A3016 RMK AO2 SLP129 T00781061

2006/10/02 03:53
KLAW 020353Z AUTO 16008KT 10SM CLR 26/15 A2999 RMK AO2 SLP143 T02560150 TSNO

2006/10/02 03:53
KLBF 020353Z AUTO 00000KT 10SM CLR 12/08 A2987 RMK AO2 SLP100 T01220083

2006/10/02 03:50
KLCG 020350Z AUTO 00000KT 10SM CLR 16/12 A2978 RMK AO2

2006/10/02 03:53
KLBX 020353Z AUTO 00000KT 10SM CLR 23/21 A3010 RMK AO2 SLP193 T02280206

2006/10/02 03:53
KLCH 020353Z AUTO 00000KT 8SM CLR 23/21 A3011 RMK AO2 SLP203 T02280211 TSNO $

2006/10/02 03:53
KLEB 020353Z 00000KT 7SM OVC022 10/09 A3003 RMK AO2 SLP169 T01000089

2006/10/02 03:53
KLEE 020353Z AUTO 00000KT 9SM CLR 23/20 A3013 RMK AO2 SLP202 T02280200

2006/10/02 03:53
KBYG 020353Z AUTO 30008KT 10SM CLR 14/M02 A2992 RMK AO2 SLP082 T01441022 $

2006/10/02 03:53
KBYI 020353Z AUTO 17005KT 10SM CLR 11/03 A2993 RMK AO2 SLP113 T01110033

2006/10/02 03:53
KCAG 020353Z AUTO 13005KT 10SM CLR 04/00 A3015 RMK AO2 SLP181 T00440000

2006/10/02 03:53
KCCR 020353Z 26006KT 10SM CLR 14/08 A3000 RMK AO2 SLP146 T01390083

2006/10/02 03:53
KCDC 020353Z AUTO 21004KT 10SM CLR 18/M01 A3010 RMK AO2 SLP124 T01831011

2006/10/02 03:53
KCDS 020353Z AUTO 16009KT 10SM CLR 22/16 A3001 RMK AO2 SLP138 T02220156 $

2006/10/02 03:53
KCDW 020353Z 00000KT 10SM CLR 11/10 A3006 RMK AO2 SLP185 T01110100

2006/10/02 03:53
KCEW 020353Z AUTO 00000KT 10SM CLR 22/20 A3013 RMK AO2 SLP200 T02170200 $

2006/10/02 03:53
KCEZ 020353Z AUTO 00000KT 10SM CLR 11/M01 A3019 RMK AO2 SLP173 T01061011

2006/10/02 03:53
KCGI 020353Z AUTO 18006KT 10SM CLR 16/12 A3014 RMK AO2 SLP205 T01560117

2006/10/02 03:53
KCHO 020353Z 00000KT 10SM CLR 11/09 A3018 RMK AO2 SLP218 T01110094

2006/10/02 03:53
KCLM 020353Z AUTO 00000KT 10SM OVC060 10/08 A3002 RMK AO2 SLP167 T01000078

2006/10/02 03:53
KCMI 020353Z 20008KT 10SM CLR 18/11 A3009 RMK AO2 SLP186 T01780111 $

2006/10/02 03:53
KCMX 020353Z AUTO 13008KT 10SM CLR 12/08 A2987 RMK AO2 SLP118 T01170078

2006/10/02 03:53
KCNM 020353Z AUTO 21008KT 10SM CLR 18/06 A3004 RMK AO2 SLP133 T01780056

2006/10/02 03:53
KCNO 020353Z AUTO 00000KT 6SM HZ CLR 19/14 A2995 RMK AO2 SLP137 T01940139

2006/10/02 03:53
KCOT 020353Z AUTO 12009KT 10SM OVC020 26/23 A3007 RMK AO2 SLP174 T02610228

2006/10/02 03:53
KCPR 020353Z AUTO 24010KT 10SM CLR 14/M04 A2998 RMK AO2 SLP101 T01391039

2006/10/02 03:53
KCRE 020353Z 00000KT 10SM CLR 19/17 A3015 RMK AO2 SLP208 T01890167

2006/10/02 03:53
KCRG 020353Z AUTO 00000KT 7SM CLR 21/18 A3012 RMK AO2 SLP199 T02110183

2006/10/02 03:53
KCRS 020353Z AUTO 16007KT 10SM CLR 26/19 A3007 RMK AO2 SLP175 T02560189

2006/10/02 03:53
KCSM 020353Z AUTO 20011KT 10SM CLR 24/14 A3001 RMK AO2 SLP137 T02440144

2006/10/02 03:53
KCSV 020353Z AUTO 00000KT 10SM CLR 12/10 A3025 RMK AO2 SLP233 T01170100

2006/10/02 03:53
KCXO 020353Z AUTO 00000KT 10SM CLR 21/19 A3010 RMK AO2 SLP190 T02110194

2006/10/02 03:53
KCYS 020353Z AUTO 27011KT 10SM CLR 14/M07 A3009 RMK AO2 SLP116 T01391067

2006/10/02 03:53
KDCU 020353Z AUTO 04004KT 10SM CLR 19/10 A3018 RMK AO2 SLP215 T01890100 $

2006/10/02 03:53
KDEN 020353Z 27007KT 10SM SCT120 BKN200 23/M06 A3006 RMK AO2 SLP098 T02281061

2006/10/02 03:53
PHJR 020353Z 07005KT 10SM CLR 27/21 A2994 RMK AO2 SLP145 T02720211

2006/10/02 03:53
PHJR 020353Z 07005KT 10SM CLR 27/21 A2994 RMK AO2 SLP145 T02720211

2006/10/02 03:53
KPIL 020353Z AUTO 13009KT 10SM 28/22 A3008 RMK AO2 SLP186 T02830222 $

2006/10/02 03:53
KPTK 020353Z 00000KT 9SM FEW250 09/07 A3012 RMK AO2 SLP201 T00890072

2006/10/02 03:50
KRQO 020350Z AUTO 16011KT 10SM CLR 24/17 A2999 RMK AO2

2006/10/02 03:53
KTDZ 020353Z AUTO 19003KT 10SM CLR 10/08 A3014 RMK AO2 SLP206 T01000078

2006/10/02 03:51
KWDG 020351Z AUTO 17014KT 10SM CLR 26/16 A2994 RMK AO2

2006/10/02 03:53
KYIP 020353Z 00000KT 3SM BR CLR 08/07 A3013 RMK AO2 SLP201 T00830072

2006/10/02 03:53
KZZV 020353Z AUTO 00000KT 10SM CLR 10/08 A3017 RMK AO2 SLP217 T01000083

2006/10/02 03:53
KRXE 020353Z AUTO 18008KT 10SM BKN110 17/M03 A2997 RMK AO2 SLP126 T01671028

2006/10/02 03:53
KSAC 020353Z 00000KT 10SM CLR 15/08 A3000 RMK AO2 SLP160 T01500083

2006/10/02 03:53
KSAF 020353Z AUTO 35003KT 10SM CLR 16/M04 A3022 RMK AO2 SLP149 T01561039

2006/10/02 03:53
KSBA 020353Z 00000KT 8SM FEW120 17/15 A2993 RMK AO2 RAE00 SLP134 P0000 T01720150

2006/10/02 03:53
KSBM 020353Z AUTO 14006KT 10SM VCTS BKN100 16/11 A2998 RMK AO2 LTG DSNT NE AND E TSB11E46B53 SLP150 T01560111

2006/10/02 03:53
KSDL 020353Z AUTO 36003KT 10SM CLR 30/06 A2990 RMK AO2 SLP101 T03000056

2006/10/02 03:53
KSEG 020353Z AUTO 00000KT 6SM BR CLR 08/07 A3013 RMK AO2 SLP204 T00830072

2006/10/02 03:53
KSFB 020353Z AUTO 00000KT 9SM CLR 23/19 A3011 RMK AO2 SLP196 T02280194 TSNO

2006/10/02 03:53
KSFD 020353Z AUTO 21005KT 5SM HZ CLR 19/10 A2980 RMK AO2 SLP079 T01890100 TSNO

2006/10/02 03:53
KSFF 020353Z 00000KT 10SM CLR 11/02 A2991 RMK AO2 SLP125 T01110022

2006/10/02 03:53
KSGR 020353Z AUTO 15003KT 10SM CLR 23/21 A3010 RMK AO2 SLP200 T02330206

2006/10/02 03:53
KSHN 020353Z AUTO 00000KT 10SM CLR 12/05 A2999 RMK AO2 SLP156 T01170050 TSNO

2006/10/02 03:53
KSHR 020353Z AUTO 00000KT 10SM CLR 12/05 A2989 RMK AO2 SLP099 T01170050

2006/10/02 03:53
KSJC 020353Z 01003KT 10SM FEW025 SCT037 BKN090 16/11 A3001 RMK AO2 SLP161 T01610106

2006/10/02 03:53
KSLN 020353Z 18017G29KT 10SM CLR 28/15 A2986 RMK AO2 PK WND 19032/0257 SLP096 T02780150

2006/10/02 03:53
KSMF 020353Z 13003KT 10SM CLR 16/08 A3000 RMK AO2 SLP158 T01560083

2006/10/02 03:53
KSMQ 020353Z AUTO 00000KT 10SM CLR 10/08 A3006 RMK AO2 SLP179 T01000083

2006/10/02 03:53
KSNA 020353Z 23004KT 10SM BKN200 21/15 A2992 RMK AO2 SLP132 T02060150

2006/10/02 03:53
KSNS 020353Z AUTO 36003KT 10SM CLR 14/10 A3001 RMK AO2 SLP170 T01440100

2006/10/02 03:53
KSNY 020353Z AUTO 21006KT 10SM CLR 13/M02 A2998 RMK AO2 SLP107 T01331017

2006/10/02 03:53
KSPB 020353Z AUTO 01003KT 10SM OVC050 14/08 A2998 RMK AO2 SLP151 T01440083

2006/10/02 03:53
KSPG 020353Z AUTO 02011KT 10SM CLR 27/21 A3010 RMK AO2 SLP191 T02670206

2006/10/02 03:53
KSPW 020353Z AUTO 23004KT 10SM CLR 19/13 A2979 RMK AO2 SLP079 T01890133 $

2006/10/02 03:53
KSRQ 020353Z AUTO 03005KT 10SM CLR 24/19 A3009 RMK AO2 SLP188 T02390189

2006/10/02 03:53
KSSF 020353Z AUTO 13007KT 10SM CLR 26/21 A3009 RMK AO2 SLP177 T02560211

2006/10/02 03:53
KSSI 020353Z AUTO 14005KT 10SM BKN070 26/20 A3011 RMK AO2 SLP197 T02560200

2006/10/02 03:53
KSTJ 020353Z AUTO 19011KT 10SM CLR 27/18 A2990 RMK AO2 SLP117 T02670178

2006/10/02 03:53
KSTP 020353Z 13003KT 10SM CLR 19/12 A2977 RMK AO2 SLP077 T01890117

2006/10/02 03:53
KSTS 020353Z AUTO 13005KT 8SM CLR 12/08 A3001 RMK AO2 SLP157 T01170078

2006/10/02 03:53
KSWO 020353Z AUTO 16008KT 10SM CLR 26/16 A2997 RMK AO2 SLP135 T02610161

2006/10/02 03:53
KTCC 020353Z AUTO 24011KT 10SM CLR 19/M01 A3003 RMK AO2 SLP113 T01941006

2006/10/02 03:53
PAAQ 020353Z 11009KT 060V160 10SM FEW045 OVC090 09/M01 A2982 RMK AO2 SLP094 T00941006

2006/10/02 03:53
PABR 020353Z 34006KT 9SM SCT008 SCT011 BKN026 00/M01 A2966 RMK AO2 SNE48 CIG 009 NE SLP045 P0000 T00001011

2006/10/02 03:53
PACV 020353Z 09004KT 10SM -RA FEW015 BKN032 OVC040 06/04 A2997 RMK AO2 SLP150 P0000 T00610039

2006/10/02 03:53
PADE 020353Z AUTO 02007KT 10SM OVC025 04/01 A2969 RMK AO2 SLP053 T00390006 TSNO

2006/10/02 03:53
KGSH 020353Z AUTO 15004KT 10SM CLR 13/08 A3013 RMK AO2 SLP201 T01280083

2006/10/02 03:53
KGSP 020353Z AUTO 03003KT 10SM CLR 18/09 A3018 RMK AO2 SLP212 T01780094

2006/10/02 03:53
KGTF 020353Z 00000KT 10SM CLR 11/02 A2988 RMK AO2 SLP106 T01110017

2006/10/02 03:53
KGUP 020353Z AUTO 06005KT 10SM CLR 11/M08 A3024 RMK AO2 SLP151 T01061083

2006/10/02 03:53
KGUY 020353Z AUTO 19008KT 10SM CLR 19/08 A2996 RMK AO2 SLP101 T01940078

2006/10/02 03:53
KGVL 020353Z AUTO 35003KT 10SM CLR 18/12 A3019 RMK AO2 SLP212 T01830117

2006/10/02 03:53
KGWO 020353Z AUTO 00000KT 8SM OVC100 24/21 A3011 RMK AO2 SLP196 T02390206

2006/10/02 03:53
KGZH 020353Z AUTO 00000KT 10SM CLR 22/19 A3012 RMK AO2 SLP197 T02220194 $

2006/10/02 03:53
KHAO 020353Z AUTO 00000KT 10SM CLR 11/09 A3017 RMK AO2 SLP216 T01060089

2006/10/02 03:53
KHBG 020353Z AUTO 00000KT 10SM CLR 23/20 A3012 RMK AO2 SLP197 T02280200

2006/10/02 03:53
KHBR 020353Z AUTO 17011KT 10SM CLR 23/13 A3000 RMK AO2 SLP140 T02330133 $

2006/10/02 03:53
KHEI 020353Z AUTO 00000KT 10SM CLR 10/04 A2987 RMK AO2 SLP109 T01000044

2006/10/02 03:53
KHFD 020353Z AUTO 32005KT 10SM BKN023 12/11 A3002 RMK AO2 SLP165 T01220106

2006/10/02 03:53
KHGR 020353Z AUTO 00000KT 10SM CLR 11/08 A3015 RMK AO2 SLP220 T01110078

2006/10/02 03:53
KHHR 020353Z AUTO 28005KT 10SM CLR 19/14 A2992 RMK AO2 SLP130 T01940139

2006/10/02 03:53
KHIB 020353Z AUTO 00000KT 10SM CLR 08/07 A2976 RMK AO2 SLP084 T00780072

2006/10/02 03:53
KHIO 020353Z AUTO 35006KT 10SM CLR 12/08 A2998 RMK AO2 SLP153 T01220083 TSNO

2006/10/02 03:53
KHJO 020353Z AUTO 00000KT 10SM OVC100 16/12 A2999 RMK AO2 SLP156 T01560122 $

2006/10/02 03:53
KHKA 020353Z AUTO 11006KT 10SM CLR 19/12 A3013 RMK AO2 SLP202 T01940122

2006/10/02 03:53
KHKS 020353Z AUTO 00000KT 7SM CLR 23/20 A3013 RMK AO2 SLP194 T02330200

2006/10/02 03:53
KHKY 020353Z AUTO 35004KT 10SM CLR 15/10 A3020 RMK AO2 SLP209 T01500100

2006/10/02 03:53
KHLG 020353Z AUTO 18006KT 10SM CLR 11/08 A3017 RMK AO2 SLP220 T01110078

2006/10/02 03:53
KHLN 020353Z 23004KT 10SM CLR 16/M02 A2991 RMK AO2 SLP127 T01561017

2006/10/02 03:53
KHOT 020353Z AUTO 06004KT 10SM CLR 23/19 A3010 RMK AO2 SLP185 T02280189

2006/10/02 03:53
KHOU 020353Z 00000KT 10SM FEW150 BKN250 24/21 A3010 RMK AO2 SLP198 T02390211 $

2006/10/02 03:53
KXNA 020353Z AUTO 17005KT 10SM FEW090 19/18 A3008 RMK AO2 SLP173 T01890178

2006/10/02 03:53
KPLB 020353Z AUTO 00000KT 8SM SCT048 BKN055 OVC085 11/11 A3001 RMK AO2 RAB09E27 SLP164 P0001 T01110106

2006/10/02 03:53
KPMD 020353Z 00000KT 10SM CLR 20/11 A2998 RMK AO2 SLP131 T02000106

2006/10/02 03:53
KPMP 020353Z AUTO 06011KT 10SM FEW030 27/22 A3006 RMK AO2 SLP181 T02720222 PNO

2006/10/02 03:53
KPNC 020353Z AUTO 15011G18KT 10SM CLR 28/16 A2995 RMK AO2 SLP126 T02780161 $

2006/10/02 03:53
KPNS 020353Z AUTO 26005KT 10SM CLR 26/22 A3011 RMK AO2 SLP198 T02560217

2006/10/02 03:53
KPOU 020353Z AUTO 00000KT 1/4SM FG BKN085 09/09 A3004 RMK AO2 SLP170 T00940094

2006/10/02 03:53
KPQL 020353Z AUTO 00000KT 2 1/2SM BR CLR 21/19 A3012 RMK AO2 SLP200 T02060194

2006/10/02 03:53
KPRB 020353Z AUTO 28008KT 10SM CLR 14/09 A3000 RMK AO2 SLP158 T01440089

2006/10/02 03:53
KPRC 020353Z 17004KT 10SM CLR 22/01 A3016 RMK AO2 SLP129 T02170011

2006/10/02 03:53
KPSC 020353Z 00000KT 10SM CLR 12/08 A2988 RMK AO2 SLP117 T01220083

2006/10/02 03:53
KPSP 020353Z 31009KT 10SM CLR 30/08 A2980 RMK AO2 SLP088 T03000078

2006/10/02 03:53
KPSX 020353Z AUTO 15006KT 8SM CLR 25/22 A3010 RMK AO2 SLP191 T02500222

2006/10/02 03:53
KPUB 020353Z AUTO 27006KT 10SM CLR 16/02 A3004 RMK AO2 SLP120 T01610017

2006/10/02 03:53
KPUC 020353Z AUTO 02008KT 10SM CLR 15/M06 A3010 RMK AO2 SLP146 T01501056 $

2006/10/02 03:53
KPUW 020353Z AUTO 00000KT 10SM CLR 10/01 A2995 RMK AO2 SLP143 T01000006

2006/10/02 03:53
KPWA 020353Z 17013KT 10SM CLR 26/16 A3000 RMK AO2 SLP143 T02560161 $

2006/10/02 03:53
KRAC 020353Z AUTO 09015G19KT 10SM -TSRA OVC110 17/11 A3009 RMK AO2 LTG DSNT ALQDS TSB0257RAB05E22B50 SLP186 P0005 T01670111

2006/10/02 03:53
KRAL 020353Z AUTO 21003KT 8SM CLR 22/14 A2994 RMK AO2 SLP124 T02170139

2006/10/02 03:54
KLWM 020354Z AUTO 02006KT 10SM BKN008 OVC012 11/10 A3002 RMK AO2 RAB0258E46 CIG 004V010 SLP164 P0006 T01110100 TSNO

2006/10/02 03:54
KLWT 020354Z AUTO 13006KT 10SM CLR 09/M01 A2990 RMK AO2 SLP105 T00941011

2006/10/02 03:50
KLXN 020350Z AUTO 26003KT 10SM CLR 13/10 A2983 RMK AO2 TSNO

2006/10/02 03:54
KMFI 020354Z AUTO 14008KT 10SM VCTS SCT046 16/11 A2990 RMK AO2 LTG DSNT SE TSB45RAB25E51 SLP124 P0000 T01560106

2006/10/02 03:54
KMGJ 020354Z AUTO 09004KT 10SM CLR 08/07 A3005 RMK AO2 SLP177 T00830072

2006/10/02 03:54
KMIV 020354Z AUTO 29005KT 10SM CLR 12/10 A3009 RMK AO2 SLP190 T01220100

2006/10/02 03:54
KMKC 020354Z 19013KT 10SM CLR 27/18 A2994 RMK AO2 SLP130 T02670183

2006/10/02 03:55
KMKT 020355Z AUTO 17007KT 10SM CLR 22/13 A2976 RMK AO1

2006/10/02 03:50
KMLE 020350Z AUTO 17009G16KT 10SM CLR 27/13 A2981 RMK AO2 LTG DSNT NE

2006/10/02 03:55
KMML 020355Z AUTO 25003KT 10SM CLR 16/11 A2976 RMK AO1

2006/10/02 03:49
KMNH 020349Z AUTO 24007KT 10SM CLR 16/M06 A3018 RMK AO2

2006/10/02 03:54
KMOT 020354Z AUTO 28008KT 10SM CLR 14/07 A2979 RMK AO2 SLP086 T01390072

2006/10/02 03:55
KMRF 020355Z AUTO 14004KT 10SM CLR 17/09 A3024 RMK AO1

2006/10/02 03:54
KMRY 020354Z 00000KT 10SM CLR 14/09 A3001 RMK AO2 SLP174 T01390094

2006/10/02 03:55
KMSV 020355Z AUTO 29007KT 10SM CLR A3007 RMK AO1

2006/10/02 03:54
KMVL 020354Z AUTO 00000KT 6SM BR OVC021 09/09 A3005 RMK AO2 SLP179 T00940089

2006/10/02 03:55
KOAJ 020355Z AUTO 00000KT 10SM CLR 13/11 A3016 RMK AO1

2006/10/02 03:55
KOCF 020355Z AUTO 00000KT 10SM CLR 19/17 A3013 RMK AO1

2006/10/02 03:54
KOFP 020354Z AUTO 00000KT 5SM BR CLR 12/11 A3018 RMK AO2 SLP219 T01220111

2006/10/02 03:54
KOLM 020354Z AUTO 32003KT 10SM CLR 12/06 A3000 RMK AO2 SLP159 T01220061

2006/10/02 03:54
KOLS 020354Z AUTO 06004KT 10SM CLR 20/04 A3011 RMK AO2 SLP140 T02000044

2006/10/02 03:55
KOLU 020355Z AUTO 18013G18KT 10SM CLR 24/12 A2979 RMK AO1

2006/10/02 03:50
KONP 020350Z AUTO 03003KT 4SM BR CLR 10/08 A3004 RMK AO2

2006/10/02 03:50
KORS 020350Z AUTO 00000KT 10SM CLR 09/08 A3000 RMK AO2

2006/10/02 03:55
KOTG 020355Z AUTO 22008KT 10SM CLR 18/13 A2977 RMK AO1

2006/10/02 03:55
KOTH 020355Z 30005KT 9SM CLR 11/10 A3004 RMK AO1 SLP173

2006/10/02 03:46
K1F0 020346Z AUTO 16006KT 10SM CLR 28/19 A3003 RMK AO2

2006/10/02 03:54
KAAO 020354Z AUTO 17012KT 10SM CLR 25/16 A2994 RMK AO2 SLP123 T02500156

2006/10/02 03:55
KAIZ 020355Z AUTO 18006KT 10SM CLR 22/12 A3008 RMK AO1

2006/10/02 03:54
KAKH 020354Z AUTO 02003KT 10SM CLR 16/11 A3018 RMK AO2 SLP217 T01560106 TSNO

2006/10/02 03:54
KAKR 020354Z AUTO 00000KT 8SM CLR 08/07 A3015 RMK AO2 SLP211 T00830072

2006/10/02 03:54
KALO 020354Z 17011KT 10SM CLR 22/11 A2985 RMK AO2 SLP103 T02220106

2006/10/02 03:54
KAPC 020354Z AUTO 26007KT 10SM FEW036 14/07 A3002 RMK AO2 SLP155 T01390072 TSNO

2006/10/02 03:55
KARG 020355Z AUTO 13004KT 10SM CLR 20/13 A3011 RMK AO1

2006/10/02 03:55
KAUO 020355Z AUTO 03005KT 10SM CLR 20/18 A3014 RMK AO1

2006/10/02 03:54
KAUW 020354Z AUTO 11005KT 10SM CLR 13/08 A2991 RMK AO2 LTG DSNT SW SLP133 T01280083

2006/10/02 03:54
KAVL 020354Z AUTO 34006KT 10SM CLR 12/10 A3026 RMK AO2 SLP231 T01170100

2006/10/02 03:55
KAWO 020355Z AUTO 00000KT 10SM CLR 09/07 A3000 RMK AO1

2006/10/02 03:54
KBFL 020354Z 00000KT 5SM BR SCT070 16/14 A2999 RMK AO2 RAE0258 SLP154 P0000 T01610139

2006/10/02 03:55
KBID 020355Z AUTO 33009G15KT 10SM 14/12 A2999 RMK AO1

2006/10/02 03:55
KBJI 020355Z 13004KT 10SM CLR 15/10 A2972 RMK AO1

2006/10/02 03:55
KBKX 020355Z AUTO 00000KT 10SM CLR 14/13 A2981 RMK AO1

2006/10/02 03:55
KBLM 020355Z AUTO 30006KT 10SM CLR 12/06 A3008 RMK AO1

2006/10/02 03:54
KBOS 020354Z 01012KT 10SM BKN012 OVC021 12/11 A2999 RMK AO2 RAE05B07E17 SLP153 P0000 T01220106

2006/10/02 03:55
KBTP 020355Z AUTO 00000KT 10SM CLR 08/07 A3018 RMK AO1 52007

2006/10/02 03:54
KBUY 020354Z AUTO 00000KT 10SM CLR 12/11 A3018 RMK AO2 SLP215 T01220106

2006/10/02 03:55
KBVX 020355Z AUTO 12005KT 10SM CLR 23/11 A3010 RMK AO1

2006/10/02 03:54
KBWI 020354Z 00000KT 10SM CLR 12/09 A3014 RMK AO2 SLP207 T01170094 $

2006/10/02 03:54
KCEU 020354Z AUTO 02005KT 10SM CLR 19/13 A3019 RMK AO2 SLP213 T01890133

2006/10/02 03:55
KCGZ 020355Z AUTO 27005KT 10SM CLR 28/04 A2993 RMK AO1

2006/10/02 03:55
KCOE 020355Z AUTO 00000KT 10SM CLR 11/02 A2992 RMK AO1

2006/10/02 03:53
PAEG 020353Z AUTO 00000KT 10SM SCT100 03/M03 A2978 RMK AO2 SLP094 T00281028 TSNO

2006/10/02 03:53
PAEN 020353Z 03006KT 10SM SCT070 07/04 A2973 RMK AO2 SLP071 T00720039

2006/10/02 03:53
PAGK 020353Z 16013G20KT 10SM FEW070 SCT100 BKN140 OVC160 04/M02 A2984 RMK AO2 SLP131 SHRA DSNT E T00441022 $

2006/10/02 03:53
PAGY 020353Z AUTO 21013KT 10SM OVC075 08/02 A3008 RMK AO2 SLP184 T00830022 TSNO

2006/10/02 03:53
PAIL 020353Z 08013KT 10SM SCT043 OVC050 09/04 A2960 RMK AO2 RAB0258E10B33E46 SLP024 P0000 T00890044

2006/10/02 03:53
PAKT 020353Z 19011KT 10SM CLR 03/02 A3014 RMK AO2 SLP208 T00280022

2006/10/02 03:53
PAKV 020353Z AUTO 04004KT 10SM -RA OVC010 06/03 A2967 RMK AO2 SLP049 P0001 T00610033 TSNO

2006/10/02 03:53
PAKW 020353Z AUTO 00000KT 10SM BKN039 06/04 A3012 RMK AO2 SLP200 T00560044 TSNO

2006/10/02 03:53
PALH 020353Z 33006KT 10SM BKN080 OVC095 06/03 A2981 RMK AO2 SLP095 T00560033

2006/10/02 03:53
PAMR 020353Z 35004KT 10SM SCT030 BKN060 OVC080 06/03 A2979 RMK AO2 SLP089 T00560033 $

2006/10/02 03:50
K4O4 020350Z AUTO 17004KT 10SM CLR 23/17 A3008 RMK AO2

2006/10/02 03:53
KADG 020353Z AUTO 00000KT 10SM CLR 08/07 A3013 RMK AO2 SLP207 T00830072

2006/10/02 03:50
KAFK 020350Z AUTO 20013G16KT 10SM CLR 25/14 A2985 RMK AO2

2006/10/02 03:53
KAGC 020353Z AUTO 19005KT 10SM CLR 10/07 A3016 RMK AO2 SLP220 T01000072 TSNO

2006/10/02 03:53
KARB 020353Z AUTO 00000KT 1/2SM FG CLR 06/05 A3012 RMK AO2 SLP201 T00560050

2006/10/02 03:50
KATS 020350Z AUTO 24009KT 10SM CLR 22/01 A3006 RMK AO2

2006/10/02 03:50
KAUH 020350Z AUTO 18009KT 10SM CLR 22/12 A2980 RMK AO2

2006/10/02 03:50
KAUN 020350Z AUTO 00000KT 10SM BKN026 BKN120 12/10 A3002 RMK A01 P000

2006/10/02 03:50
KAXS 020350Z AUTO 15007KT 10SM CLR 23/15 A3000 RMK AO2

2006/10/02 03:50
KBIE 020350Z AUTO 18015G22KT 10SM CLR 26/12 A2984 RMK AO2

2006/10/02 03:53
KBJJ 020353Z AUTO 00000KT 10SM CLR 07/06 A3016 RMK AO2 SLP215 T00670056

2006/10/02 03:53
KBKL 020353Z 16005KT 9SM CLR 13/09 A3014 RMK AO2 SLP205 T01280089

2006/10/02 03:50
KBVN 020350Z AUTO 31003KT 10SM CLR 14/12 A2979 RMK AO2

2006/10/02 03:50
KBVS 020350Z AUTO 00000KT 10SM CLR 08/08 A3002 RMK A01 P000

2006/10/02 03:50
KCCU 020350Z AUTO 24010G21KT 10SM CLR 05/M09 A3051 RMK AO2

2006/10/02 03:51
KCHK 020351Z AUTO 18006KT 10SM SCT080 25/16 A3000 RMK AO2

2006/10/02 03:53
KCKB 020353Z 00000KT 4SM BR CLR 08/07 A3020 RMK AO2 SLP223 T00830072

2006/10/02 03:50
KCLK 020350Z AUTO 17007KT 10SM CLR 21/16 A2998 RMK AO2

2006/10/02 03:51
KCQB 020351Z AUTO 18007KT 10SM SCT070 SCT090 SCT110 25/17 A3000 RMK AO2

2006/10/02 03:50
KCUH 020350Z AUTO 19004KT 10SM CLR 23/17 A2999 RMK AO2

2006/10/02 03:53
KDET 020353Z 00000KT 10SM CLR 12/09 A3014 RMK AO2 SLP206 T01170089

2006/10/02 03:53
KDKK 020353Z AUTO 32005KT 10SM SCT055 13/07 A3015 RMK AO2 SLP209 T01330067

2006/10/02 03:53
KEYW 020353Z AUTO 06011KT 10SM CLR 28/22 A3005 RMK AO2 SLP175 T02830222

2006/10/02 03:53
KFDY 020353Z AUTO 17004KT 10SM CLR 09/07 A3013 RMK AO2 SLP201 T00940067

2006/10/02 03:50
KFET 020350Z AUTO 17011G18KT 10SM CLR 26/13 A2979 RMK AO2 TSNO

2006/10/02 03:53
KGIF 020353Z AUTO 08005KT 10SM CLR 23/20 A3013 RMK AO2 SLP200 T02280200

2006/10/02 03:53
KGKJ 020353Z AUTO 00000KT 10SM CLR 09/07 A3016 RMK AO2 SLP214 T00890072

2006/10/02 03:53
KGRI 020353Z AUTO 00000KT 10SM CLR 20/09 A2980 RMK AO2 SLP077 T02000094 $

2006/10/02 03:50
KHDE 020350Z AUTO 00000KT 10SM CLR 16/06 A2982 RMK AO2

2006/10/02 03:53
KHZY 020353Z AUTO 00000KT 4SM BR CLR 08/06 A3016 RMK AO2 SLP214 T00780061

2006/10/02 03:53
KIAG 020353Z AUTO 26006KT 10SM CLR 07/06 A3012 RMK AO2 SLP205 T00720056

2006/10/02 03:50
KIBM 020350Z AUTO 30004KT 10SM CLR 17/M03 A3000 RMK AO2

2006/10/02 03:50
KJYR 020350Z AUTO 19008KT 10SM CLR 23/12 A2980 RMK AO2 PWINO TSNO

2006/10/02 03:53
KLPR 020353Z AUTO 00000KT 9SM CLR 09/07 A3015 RMK AO2 SLP209 T00940072

2006/10/02 03:53
KMBS 020353Z 17004KT 10SM CLR 09/06 A3011 RMK AO2 SLP196 T00940061

2006/10/02 03:50
KNQA 020350Z AUTO 00000KT 10SM CLR 18/10 A3014 RMK

2006/10/02 03:53
KPEO 020353Z AUTO 22003KT 10SM CLR 11/08 A3011 RMK AO2 SLP196 T01060083 $

2006/10/02 03:53
KPHD 020353Z AUTO 00000KT 6SM BR CLR 08/07 A3017 RMK AO2 SLP218 T00780067

2006/10/02 03:54
KPIA 020354Z 19010KT 10SM CLR 20/10 A3003 RMK AO2 SLP165 T02000100

2006/10/02 03:53
KHSI 020353Z AUTO 19008KT 10SM CLR 23/11 A2981 RMK AO2 SLP079 T02280106

2006/10/02 03:53
KJBR 020353Z AUTO 00000KT 10SM CLR 19/14 A3012 RMK AO2 SLP197 T01890139 $

2006/10/02 03:53
KJLN 020353Z 18011KT 10SM CLR 24/18 A3002 RMK AO2 SLP155 T02440183

2006/10/02 03:53
KLBB 020353Z 17012KT 10SM CLR 23/16 A3008 RMK AO2 SLP137 T02330156 $

2006/10/02 03:53
KCDR 020353Z AUTO 00000KT 10SM CLR 14/06 A2986 RMK AO2 SLP097 T01390061

2006/10/02 03:53
KCLL 020353Z AUTO 17006KT 10SM CLR 26/21 A3009 RMK AO2 SLP185 T02560211

2006/10/02 03:53
KCNY 020353Z AUTO 22010KT 10SM CLR 20/M04 A3002 RMK AO2 SLP123 T02001039

2006/10/02 03:53
KCRQ 020353Z 31004KT 7SM FEW010 19/16 A2993 RMK AO2 SLP132 T01890161

2006/10/02 03:53
KDAL 020353Z 16010KT 10SM FEW130 BKN300 28/18 A3005 RMK AO2 SLP168 T02780183

2006/10/02 03:53
KLIT 020353Z 00000KT 7SM BKN250 24/19 A3010 RMK AO2 SLP191 T02390194 $

2006/10/02 03:53
KLWD 020353Z AUTO 18009KT 10SM CLR 23/16 A2991 RMK AO2 SLP122 T02330161 $

2006/10/02 03:54
KAPN 020354Z AUTO 00000KT 10SM CLR 04/02 A3009 RMK AO2 SLP194 T00390022

2006/10/02 03:53
KRNM 020353Z AUTO 20003KT 10SM CLR 18/13 A2995 RMK AO2 SLP130 T01830128 TSNO

2006/10/02 03:53
KDMN 020353Z AUTO 32004KT 10SM FEW080 18/03 A3012 RMK AO2 SLP142 T01780028

2006/10/02 03:53
KDRT 020353Z AUTO 13006KT 10SM CLR 27/17 A3004 RMK AO2 SLP157 T02670172

2006/10/02 03:53
KEMP 020353Z AUTO 17012KT 10SM CLR 24/16 A2994 RMK AO2 SLP129 T02390161

2006/10/02 03:53
KFNB 020353Z AUTO 16007KT 10SM CLR 24/15 A2987 RMK AO2 SLP106 T02440150

2006/10/02 03:53
KGCC 020353Z AUTO 00000KT 10SM CLR 11/03 A2987 RMK AO2 SLP081 T01110033 $

2006/10/02 03:53
KHLC 020353Z AUTO 00000KT 10SM CLR 17/04 A2984 RMK AO2 SLP086 T01670044

2006/10/02 03:54
KSBN 020354Z 16003KT 10SM FEW110 15/08 A3011 RMK AO2 SLP194 T01500078

2006/10/02 03:54
KROA 020354Z 00000KT 10SM CLR 13/09 A3023 RMK AO2 SLP230 T01280089

2006/10/02 03:54
KLEX 020354Z 17005KT 10SM CLR 14/10 A3020 RMK AO2 SLP221 T01440100

2006/10/02 03:54
KMTP 020354Z AUTO 35010KT 14/12 A3000 RMK AO2 SLP160 T01440122 PWINO TSNO

2006/10/02 03:54
K12N 020354Z AUTO 00000KT 09/08 A3008 RMK AO2 SLP187 T00890083 PWINO TSNO

2006/10/02 03:54
KRIC 020354Z 36003KT 10SM FEW070 15/13 A3016 RMK AO2 SLP217 T01500128 $

2006/10/02 03:54
K1V4 020354Z AUTO 09/08 A3003 RMK AO2 SLP169 T00940083 PWINO TSNO

2006/10/02 03:54
KNAK 020354Z AUTO 32006KT 10SM CLR 17/11 A3014 RMK AO2 SLP208 T01670106 TSNO

2006/10/02 03:54
KCAR 020354Z AUTO 04006KT 10SM SCT039 BKN047 BKN120 09/04 A3010 RMK AO2 SLP199 T00940044

2006/10/02 03:54
KSYR 020354Z 24007KT 10SM FEW060 12/10 A3008 RMK AO2 SLP181 T01170100 $

2006/10/02 03:54
KBDR 020354Z AUTO 34005KT 10SM CLR 13/11 A3002 RMK AO2 SLP166 T01280106 TSNO

2006/10/02 03:54
KWAL 020354Z AUTO 28003KT 10SM FEW085 13/12 A3013 RMK AO2 SLP200 T01330117 TSNO

2006/10/02 03:54
KMQE 020354Z AUTO 34012G17KT 11/11 A2997 RMK AO1 SLP158 T01110106

2006/10/02 03:54
KBUF 020354Z 29006KT 10SM FEW050 11/07 A3012 RMK AO2 SLP202 T01060067

2006/10/02 03:54
KROC 020354Z 26006KT 10SM SCT065 SCT090 11/09 A3011 RMK AO2 SLP195 T01110094

2006/10/02 03:54
KLYH 020354Z AUTO 00000KT 10SM CLR 11/10 A3021 RMK AO2 SLP225 T01110100 TSNO

2006/10/02 03:54
KBTV 020354Z 00000KT 10SM BKN026 BKN032 OVC050 11/09 A3002 RMK AO2 SLP167 T01110094

2006/10/02 03:54
KCRW 020354Z 00000KT 10SM CLR 12/11 A3021 RMK AO2 SLP225 VLY FG T01170106

2006/10/02 03:53
KRIW 020353Z AUTO 29008KT 10SM CLR 13/M04 A3000 RMK AO2 SLP112 T01331039

2006/10/02 03:53
KMLU 020353Z 00000KT 5SM HZ CLR 22/19 A3011 RMK AO2 SLP195 T02220194

2006/10/02 03:53
PASN 020353Z AUTO 26010KT 9SM BKN003 OVC007 07/07 A2942 RMK AO2 RAE53 SLP963 P0000 T00720072 TSNO

2006/10/02 03:53
PATK 020353Z AUTO 36004KT 10SM OVC060 03/02 A2984 RMK AO2 RAE30 SLP111 P0001 T00330022 TSNO

2006/10/02 03:53
PAYA 020353Z 00000KT 10SM CLR 06/04 A3005 RMK AO2 SLP175 BAY TWR WND CALM T00610044

2006/10/02 03:57
KESN 020357Z AUTO 00000KT 10SM CLR 13/10 A3014 RMK AO2

2006/10/02 03:55
KCVN 020355Z AUTO 20008KT 10SM CLR 17/08 A3011 RMK AO1

2006/10/02 03:55
KCVO 020355Z AUTO 31009KT 10SM CLR 16/09 A2998 RMK AO1

2006/10/02 03:55
KCWI 020355Z AUTO 19009KT 10SM CLR 21/09 A2997 RMK AO1

2006/10/02 03:54
KDAG 020354Z AUTO 27010KT 10SM CLR 24/09 A2993 RMK AO2 SLP112 T02390089 $

2006/10/02 03:54
KDDH 020354Z AUTO 00000KT 10SM FEW007 BKN015 OVC037 11/10 A3003 RMK AO2 SLP171 T01060100

2006/10/02 03:54
KDEC 020354Z AUTO 21013KT 10SM CLR 21/11 A3009 RMK AO2 SLP182 T02110111

2006/10/02 03:54
KDSV 020354Z AUTO 14004KT 3SM BR FEW001 09/08 A3013 RMK AO2 SLP211 T00890078

2006/10/02 03:53
KDUA 020353Z AUTO 18006KT 10SM CLR 26/17 A3005 RMK AO2

2006/10/02 03:54
KDYL 020354Z AUTO 00000KT 10SM CLR 12/08 A3008 RMK AO2 SLP186 T01220083

2006/10/02 03:55
KDYR 020355Z AUTO 11003KT 10SM CLR 17/11 A3015 RMK AO1

2006/10/02 03:54
KTAD 020354Z AUTO 25010KT 10SM CLR 16/M05 A3012 RMK AO2 SLP122 T01561050

2006/10/02 03:50
KTEX 020350Z AUTO 14004KT 10SM BKN100 12/M06 A3041 RMK AO2

2006/10/02 03:52
KTIF 020352Z AUTO 27004KT 10SM CLR 16/04 A2986 RMK AO2

2006/10/02 03:54
KTQE 020354Z AUTO 15006KT 10SM CLR 23/14 A2977 RMK AO2 SLP069 T02280139

2006/10/02 03:55
KTVF 020355Z AUTO 00000KT 10SM CLR 14/11 A2969 RMK AO1

2006/10/02 03:55
KUDG 020355Z AUTO 00000KT 10SM CLR 16/14 A3018 RMK AO1

2006/10/02 03:54
KUIN 020354Z AUTO 18010G16KT 10SM CLR 22/11 A3002 RMK AO2 SLP158 T02220111

2006/10/02 03:54
KVAY 020354Z AUTO 00000KT 10SM CLR 11/09 A3009 RMK AO2 SLP187 T01110094 $

2006/10/02 03:55
KVBT 020355Z AUTO 16005KT 10SM CLR 21/18 A3008 RMK AO1

2006/10/02 03:55
KVIS 020355Z AUTO 31005KT 10SM BKN080 16/13 A2998 RMK AO1

2006/10/02 03:54
KVSF 020354Z AUTO 00000KT 10SM OVC013 11/09 A3005 RMK AO2 SLP177 T01060094

2006/10/02 03:54
KVTA 020354Z AUTO 00000KT 9SM CLR 08/07 A3017 RMK AO2 SLP217 T00830072

2006/10/02 03:54
KWLD 020354Z AUTO 17011KT 10SM CLR 25/16 A2996 RMK AO2 SLP133 T02500161 $

2006/10/02 03:55
KWVL 020355Z AUTO 01006KT 4SM FEW001 SCT027 BKN036 09/08 A3000 RMK AO1 P0009

2006/10/02 03:55
KWWD 020355Z AUTO 31006KT 10SM CLR 17/08 A3010 RMK AO1

2006/10/02 03:51
KWWR 020351Z AUTO 19017KT 10SM CLR 26/14 A2994 RMK AO2

2006/10/02 03:55
KYKN 020355Z AUTO 00000KT 10SM CLR 17/12 A2978 RMK AO1

2006/10/02 03:55
KOXC 020355Z 00000KT 10SM CLR 11/09 A3004 RMK AO1

2006/10/02 03:54
KPHF 020354Z 00000KT 9SM SCT070 17/14 A3014 RMK AO2 SLP206 T01720144

2006/10/02 03:54
KPHL 020354Z 31006KT 10SM CLR 15/08 A3011 RMK AO2 SLP195 T01500083

2006/10/02 03:55
KPIB 020355Z AUTO 00000KT 10SM CLR 20/18 A3014 RMK AO1

2006/10/02 03:54
KPLN 020354Z AUTO 12003KT 10SM CLR 08/06 A3006 RMK AO2 RAB23E34 SLP183 P0000 T00780061

2006/10/02 03:50
KPNA 020350Z AUTO 29004KT 10SM CLR 08/M01 A3013 RMK AO2

2006/10/02 03:54
KPNE 020354Z AUTO 30007KT 10SM CLR 14/09 A3009 RMK AO2 SLP190 T01390094 TSNO

2006/10/02 03:47
KPOC 020347Z 00000KT 3SM HZ SCT000 OVC150 A2995 RMK HZ SCT000 LAST

2006/10/02 03:55
KPQI 020355Z AUTO 06005KT 10SM SCT034 BKN046 OVC120 11/04 A3008 RMK AO1

2006/10/02 03:54
KPSF 020354Z AUTO 00000KT 10SM BKN009 10/09 A3003 RMK AO2 CIG 007V011 SLP159 T01000089

2006/10/02 03:50
KPTT 020350Z AUTO 18015G18KT 10SM CLR 26/11 A2993 RMK AO2

2006/10/02 03:55
KPTV 020355Z AUTO 30003KT 9SM BKN120 16/12 A2999 RMK AO1

2006/10/02 03:54
KPTW 020354Z AUTO 00000KT 10SM CLR 11/09 A3012 RMK AO2 SLP196 T01110089

2006/10/02 03:55
KPVU 020355Z 12005KT 10SM CLR 16/03 A3000 RMK AO1

2006/10/02 03:55
KPWT 020355Z AUTO 03007KT 10SM FEW060 12/07 A3000 RMK AO1

2006/10/02 03:54
KRBL 020354Z AUTO 19005KT 10SM CLR 16/08 A3003 RMK AO2 SLP165 T01560078

2006/10/02 03:54
KRDG 020354Z 32005KT 10SM CLR 11/07 A3010 RMK AO2 SLP199 T01060072

2006/10/02 03:55
KRKD 020355Z AUTO 02007KT 8SM FEW007 SCT028 BKN060 11/10 A2998 RMK AO1 P0006

2006/10/02 03:54
KRKS 020354Z AUTO 24007KT 10SM CLR 14/M05 A3012 RMK AO2 SLP142 T01391050

2006/10/02 03:55
KROG 020355Z AUTO 14006KT 10SM CLR 22/17 A3008 RMK AO1

2006/10/02 03:54
KRST 020354Z AUTO 19010KT 10SM CLR 22/10 A2984 RMK AO2 SLP099 T02170100

2006/10/02 03:55
KRUT 020355Z AUTO 11004KT 10SM BKN018 OVC028 11/09 A3004 RMK AO1

2006/10/02 03:54
KRZZ 020354Z AUTO 27006KT 10SM CLR 16/12 A3016 RMK AO2 SLP209 T01560122

2006/10/02 03:54
KSBY 020354Z 00000KT 10SM CLR 09/09 A3013 RMK AO2 SLP206 T00940089

2006/10/02 03:54
K04V 020354Z AUTO 36011KT 10SM CLR 12/M06 A3029 RMK AO2

2006/10/02 03:54
KADH 020354Z AUTO 17010KT 10SM CLR 28/16 A3003 RMK AO2

2006/10/02 03:54
KCBG 020354Z AUTO 15005KT 10SM CLR 21/12 A2975 RMK AO2

2006/10/02 03:55
KCKN 020355Z AUTO 00000KT 10SM CLR 13/11 A2967 RMK AO2

2006/10/02 03:53
KDUC 020353Z AUTO 16010KT 10SM CLR 26/17 A3001 RMK AO2

2006/10/02 03:55
KGMJ 020355Z AUTO 16007KT 10SM CLR 24/18 A3004 RMK AO2

2006/10/02 03:54
KLRU 020354Z AUTO 23003KT 10SM SCT110 19/06 A3014 RMK AO2

2006/10/02 03:55
KMYP 020355Z AUTO 25018G23KT 10SM CLR 10/M03 A3062 RMK AO2

2006/10/02 03:55
KOUN 020355Z AUTO 18011G17KT 10SM SCT100 27/16 A3001 RMK AO2 TSNO

2006/10/02 03:52
KRKR 020352Z AUTO 00000KT 10SM CLR 21/19 A3006 RMK AO2

2006/10/02 03:53
KSNL 020353Z AUTO 17010KT 10SM CLR 26/16 A3002 RMK AO2

2006/10/02 03:52
KSVC 020352Z AUTO 35007KT 10SM CLR 15/04 A3019 RMK AO1

2006/10/02 03:53
KTQH 020353Z AUTO 16003KT 10SM CLR 24/18 A3005 RMK AO2

2006/10/02 03:55
KVTP 020355Z AUTO 30003KT 10SM CLR 11/M07 A3043 RMK AO2

2006/10/02 03:50
PTRO 020350Z 27013G22KT 15SM SCT016TCU BKN120 BKN300 30/25 A2963 RMK TCU VC ALQDS

2006/10/02 03:54
PGSN 020354Z 23018G23KT 10SM SCT019 28/24 A2953 RMK AO2 PK WND 23031/0316 SLP996 T02830244

2006/10/02 03:55
KPDX 020355Z 30006KT 10SM FEW200 16/09 A2999 RMK AO2 SLP153 T01610089

2006/10/02 03:55
KHVR 020355Z AUTO 06013KT 10SM CLR 11/06 A2988 RMK AO2 SLP116 T01060056 $

2006/10/02 03:56
KGRR 020356Z 00000KT 10SM OVC110 11/08 A3008 RMK AO2 SLP189 T01060083

2006/10/02 03:55
KDLH 020355Z 13006KT 10SM CLR 11/08 A2978 RMK AO2 SLP089 T01060083

2006/10/02 03:54
KORH 020354Z AUTO 36009KT 7SM OVC001 10/09 A3000 RMK AO2 SLP164 T01000094 $

2006/10/02 03:54
KDSM 020354Z 18016G20KT 10SM CLR 25/16 A2986 RMK AO2 SLP104 T02500156

2006/10/02 03:55
KDVL 020355Z AUTO 30008KT 10SM CLR 14/04 A2974 RMK AO1

2006/10/02 03:55
KEAR 020355Z AUTO 00000KT 10SM CLR 14/08 A2982 RMK AO1

2006/10/02 03:50
KSOW 020350Z AUTO 18009KT 10SM CLR 15/M01 A3026 RMK AO2

2006/10/02 03:54
KSUS 020354Z 00000KT 10SM CLR 21/12 A3006 RMK AO2 SLP172 T02110117

2006/10/02 03:54
PHOG 020354Z 23004KT 10SM SCT055 29/21 A2992 RMK AO2 SLP135 T02890211

2006/10/02 03:55
KGPZ 020355Z AUTO 16005KT 10SM CLR 16/09 A2974 RMK AO1

2006/10/02 03:56
KCHS 020356Z 00000KT 9SM CLR 20/17 A3013 RMK AO2 SLP203 T02000172

2006/10/02 03:56
KSHV 020356Z 17003KT 10SM BKN260 23/18 A3009 RMK AO2 SLP185 BKN260 THIN T02330178

2006/10/02 03:52
K4BM 020352Z AUTO 22007KT 10SM CLR 08/M08 A3048 RMK AO1

2006/10/02 03:51
KBDL 020351Z 34005KT 10SM FEW023 11/10 A3002 RMK AO2 SLP164 T01110100

2006/10/02 03:51
KBVE 020351Z AUTO 00000KT 5SM BR CLR 23/22 A3014 RMK AO2 SLP206 T02330222 TSNO

2006/10/02 03:51
KSAN 020351Z 31006KT 8SM FEW010 SCT170 20/16 A2994 RMK AO2 SLP139 T02000161

2006/10/02 03:54
KDMH 020354Z AUTO 16/08 A3014 RMK AO2 SLP206 T01560078 PWINO TSNO

2006/10/02 03:56
KBIL 020356Z 36005KT 10SM CLR 17/00 A2985 RMK AO2 SLP090 T01670000

2006/10/02 03:56
KSFO 020356Z 30007KT 10SM SCT035 SCT040 16/09 A3001 RMK AO2 SLP163 T01560094 $

2006/10/02 03:56
KMEH 020356Z AUTO 00000KT 10SM CLR 04/M01 A2997 RMK AO2 SLP162 T00441011 TSNO

2006/10/02 03:54
KSET 020354Z AUTO 14004KT 10SM CLR 17/12 A3006 RMK AO2 SLP175 T01670117 $

2006/10/02 03:55
KSFM 020355Z 36008KT 10SM SCT008 OVC027 09/08 A3004 RMK AO1

2006/10/02 03:55
KSFZ 020355Z AUTO 34009KT 10SM OVC003 11/09 A2998 RMK AO1

2006/10/02 03:55
KSGJ 020355Z AUTO 00000KT 10SM CLR 23/20 A3013 RMK AO1

2006/10/02 03:55
KSGT 020355Z AUTO 14003KT 10SM CLR A3008 RMK AO1

2006/10/02 03:55
KSGU 020355Z AUTO 08005KT 10SM CLR 26/02 A2994 RMK AO1

2006/10/02 03:54
KSJN 020354Z AUTO 23009KT 10SM CLR 19/M03 A3019 RMK AO2 SLP140 T01891033

2006/10/02 03:55
KSKX 020355Z AUTO 00000KT 10SM CLR 09/M07 A3027 RMK AO1

2006/10/02 03:55
KSLG 020355Z AUTO 17007KT 10SM CLR 22/14 A3007 RMK AO1

2006/10/02 03:55
KSMN 020355Z AUTO 30003KT 10SM CLR 11/M01 A2989 RMK AO1

2006/10/02 03:50
KSRR 020350Z AUTO 22007KT 10SM 16/01 A3029 RMK AO2 TSNO

2006/10/02 03:46
KSZT 020346Z AUTO 00000KT 10SM CLR 09/M02 A2991 RMK AO1

2006/10/02 03:54
PAHN 020354Z AUTO 08009G15KT 10SM OVC070 08/03 A3008 RMK AO2 SLP188 T00830028 TSNO

2006/10/02 03:54
PAKN 020354Z 12003KT 10SM -RA OVC046 09/07 A2944 RMK AO2 SLP970 P0000 T00890072

2006/10/02 03:54
PHMK 020354Z 06011G16KT 10SM SCT024 27/22 A2995 RMK AO2 SLP143 T02720220 $

2006/10/02 03:55
KEEN 020355Z AUTO 05003KT 10SM OVC013 11/09 A3002 RMK AO1

2006/10/02 03:47
KEMT 020347Z 00000KT 10SM OVC150 A2994 RMK LAST

2006/10/02 03:55
KENV 020355Z 00000KT 10SM CLR 17/M04 A2990 RMK AO1

2006/10/02 03:54
KEUG 020354Z AUTO 27005KT 10SM CLR 12/06 A2997 RMK AO2 SLP150 T01220061 TSNO $

2006/10/02 03:55
KEUL 020355Z AUTO 00000KT 10SM CLR 12/02 A2987 RMK AO1

2006/10/02 03:54
KEVV 020354Z AUTO 00000KT 10SM CLR 15/13 A3016 RMK AO2 SLP211 T01500133 $

2006/10/02 03:55
KEWK 020355Z AUTO 18014G18KT 10SM CLR 26/14 A2997 RMK AO1

2006/10/02 03:54
KEWN 020354Z AUTO 00000KT 7SM CLR 14/13 A3016 RMK AO2 SLP214 T01440133

2006/10/02 03:55
KFAM 020355Z AUTO 17004KT 10SM CLR 19/11 A3013 RMK AO1

2006/10/02 03:54
KFIG 020354Z AUTO 00000KT M1/4SM FG VV001 07/07 A3016 RMK AO2 SLP217 T00720067

2006/10/02 03:55
KFKL 020355Z AUTO 24003KT 10SM CLR 08/07 A3018 RMK AO1 52007

2006/10/02 03:55
KFLP 020355Z AUTO 00000KT 10SM CLR 21/16 A3010 RMK AO1

2006/10/02 03:55
KFOD 020355Z AUTO 20012G19KT 10SM CLR 23/15 A2980 RMK AO1

2006/10/02 03:54
KFZY 020354Z AUTO 00000KT 8SM CLR 11/09 A3006 RMK AO2 SLP180 T01060094

2006/10/02 03:55
KGAD 020355Z AUTO 00000KT 10SM CLR 17/15 A3017 RMK AO1

2006/10/02 03:55
KGBD 020355Z 18015G19KT 10SM CLR 24/12 A2988 RMK AO1

2006/10/02 03:54
KGCK 020354Z AUTO 16007KT 10SM CLR 17/03 A2993 RMK AO2 SLP107 T01720033

2006/10/02 03:55
KGCM 020355Z AUTO 17008KT 10SM CLR 24/17 A3003 RMK AO2

2006/10/02 03:54
KGCN 020354Z AUTO 00000KT 10SM SCT120 11/M03 A3024 RMK AO2 SLP166 T01111033 TSNO

2006/10/02 03:54
KGED 020354Z AUTO 00000KT 10SM CLR 13/10 A3012 RMK AO2 SLP199 T01280100 $

2006/10/02 03:55
KGTR 020355Z 04003KT 10SM CLR 22/17 A3014 RMK AO1

2006/10/02 03:55
KHEF 020355Z AUTO 00000KT 10SM CLR 09/07 A3018 RMK AO1

2006/10/02 03:55
KHEZ 020355Z AUTO 00000KT 10SM CLR 21/18 A3013 RMK AO1

2006/10/02 03:52
KHJH 020352Z AUTO 18012KT 10SM CLR 26/13 A2982 RMK AO2

2006/10/02 03:54
KHWD 020354Z 31003KT 10SM BKN037 16/09 A3001 RMK AO2 SLP171 T01560094

2006/10/02 03:55
KHYS 020355Z AUTO 19011KT 10SM CLR 24/12 A2985 RMK AO1

2006/10/02 03:54
KILN 020354Z AUTO 00000KT 10SM CLR 12/08 A3017 RMK AO2 SLP220 T01170083

2006/10/02 03:54
KIMT 020354Z AUTO 14004KT 10SM CLR 11/08 A2995 RMK AO2 SLP147 T01060078

2006/10/02 03:54
KINT 020354Z AUTO 32003KT 10SM CLR 16/11 A3020 RMK AO2 SLP224 T01560106

2006/10/02 03:54
KIPT 020354Z AUTO 27006KT 10SM CLR 11/09 A3012 RMK AO2 SLP200 T01060089 PNO $

2006/10/02 03:54
KISW 020354Z AUTO 04004KT 10SM CLR 17/09 A2995 RMK AO2 PRESRR SLP142 T01670094 TSNO

2006/10/02 03:54
KIZG 020354Z AUTO 00000KT 10SM BKN030 OVC036 09/08 A3005 RMK AO2 SLP177 T00890078

2006/10/02 03:55
KJHW 020355Z AUTO 29004KT 10SM CLR 09/06 A3015 RMK AO1

2006/10/02 03:54
KJST 020354Z AUTO 23004KT 10SM CLR 08/05 A3017 RMK AO2 SLP221 T00830050

2006/10/02 03:54
KJSV 020354Z AUTO 06003KT 10SM CLR 21/17 A3006 RMK AO2

2006/10/02 03:53
KJWG 020353Z AUTO 21012G16KT 10SM CLR 26/18 A3000 RMK AO2

2006/10/02 03:55
KKLS 020355Z AUTO 00000KT 10SM CLR 13/09 A2998 RMK AO1

2006/10/02 03:56
KSDF 020356Z 13003KT 10SM CLR 16/14 A3016 RMK AO2 SLP212 T01610139

2006/10/02 03:55
KYIP 020355Z 00000KT 1 3/4SM BR CLR 08/07 A3013 RMK AO2

2006/10/02 03:56
CYZY 020356Z AUTO 13003KT 9SM BKN015 01/00 A3002

2006/10/02 03:55
K1A6 020355Z AUTO 00000KT 10SM CLR 15/13 A3027 RMK AO2

2006/10/02 03:45
KATW 020345Z 15008KT 10SM SCT100 14/10 A2994 RMK LTG DSNT S-W

2006/10/02 03:55
KBDH 020355Z AUTO 00000KT 10SM CLR 17/12 A2975 RMK AO2

2006/10/02 03:56
KBMI 020356Z AUTO 20012KT 10SM CLR 19/13 A3006 RMK AO2 T01940127 SLP170 $

2006/10/02 03:54
KCAD 020354Z AUTO 00000KT 10SM BKN110 06/05 A3007 RMK AO2

2006/10/02 03:55
KCFS 020355Z AUTO 00000KT 10SM CLR 06/05 A3011 RMK AO2

2006/10/02 03:55
KCMA 020355Z AUTO 17003KT 10SM SCT120 17/14 A2994 RMK AO2 SLP146 T01720144

2006/10/02 03:55
KCNK 020355Z AUTO 18018G25KT 10SM CLR 26/14 A2985 RMK AO2 SLP091 T02610139

2006/10/02 03:56
KDRM 020356Z AUTO 00000KT 10SM BKN110 06/06 A3008 RMK AO2

2006/10/02 03:54
KDUH 020354Z AUTO 00000KT 1 3/4SM BR CLR 08/08 A3013 RMK AO2

2006/10/02 03:55
KEAT 020355Z AUTO 32009KT 10SM CLR 16/01 A2988 RMK AO2 SLP115 T01610006 $

2006/10/02 03:56
KEFT 020356Z AUTO 19009G15KT 10SM CLR 19/12 A2995 RMK AO2

2006/10/02 03:55
KFBL 020355Z AUTO 16006KT 10SM CLR 21/12 A2978 RMK AO2

2006/10/02 03:55
KFPK 020355Z AUTO 00000KT 7SM CLR 07/07 A3010 RMK AO2

2006/10/02 03:52
KGLW 020352Z AUTO 00000KT 10SM CLR 13/06 A3026 RMK AO1

2006/10/02 03:55
KGOV 020355Z AUTO 00000KT 10SM CLR 03/03 A3007 RMK AO2

2006/10/02 03:54
KHAI 020354Z AUTO 00000KT 10SM BKN120 10/08 A3010 RMK AO2

2006/10/02 03:56
KHYX 020356Z AUTO 15003KT 10SM CLR 09/07 A3010 RMK AO2

2006/10/02 03:55
KIRK 020355Z AUTO 19010G17KT 10SM CLR 22/12 A2997 RMK AO2 SLP145 T02220122

2006/10/02 03:55
KLWA 020355Z AUTO 11003KT 10SM OVC120 13/09 A3008 RMK AO2

2006/10/02 03:55
KMGN 020355Z AUTO 08005KT 10SM BKN110 10/07 A3003 RMK AO2

2006/10/02 03:54
KMRJ 020354Z AUTO 16005KT 10SM CLR 17/14 A2993 RMK AO2

2006/10/02 03:54
KSRE 020354Z AUTO 15008KT 10SM 26/16 A3003 RMK AO2 TSNO

2006/10/02 03:56
PAAK 020356Z AUTO 06004KT 7SM OVC020 08/07 A2961 RMK AO1

2006/10/02 03:56
PAWG 020356Z 16006KT 10SM SCT037 BKN050 06/02 A3013 RMK AO1 WEA

2006/10/02 03:56
PAWN 020356Z AUTO 33005KT 10SM CLR 03/M02 A2967 RMK AO1

2006/10/02 03:56
PAZK 020356Z AUTO 00000KT 10SM CLR M01/M03 A2979 RMK AO1

2006/10/02 03:56
PFYU 020356Z 03003KT 10SM OVC070 01/M01 A2974 RMK AO1 CI ABV 120 .... LAST

2006/10/02 03:55
KACQ 020355Z AUTO 17007KT 10SM CLR 23/13 A2979 RMK AO2

2006/10/02 03:55
KADC 020355Z AUTO 00000KT 10SM CLR 12/11 A2972 RMK AO2

2006/10/02 03:55
KAEL 020355Z AUTO 17004KT 10SM CLR 21/12 A2980 RMK AO2

2006/10/02 03:55
KAIG 020355Z AUTO 14007KT 10SM CLR 11/09 A2993 RMK AO2

2006/10/02 03:55
KAIT 020355Z AUTO 16004KT 10SM CLR 15/13 A2973 RMK AO2

2006/10/02 03:55
KAQP 020355Z AUTO 00000KT 10SM CLR 13/13 A2971 RMK AO2

2006/10/02 03:55
KAUM 020355Z AUTO 17006KT 10SM CLR 21/12 A2981 RMK AO2 LTG DSNT E

2006/10/02 03:55
KHCO 020355Z AUTO 02008KT 10SM CLR 14/08 A2968 RMK AO2

2006/10/02 03:56
KISQ 020356Z AUTO 15006KT 10SM SCT110 12/09 A3003 RMK AO2

2006/10/02 03:55
KJKJ 020355Z AUTO 23005KT 10SM CLR 17/12 A2969 RMK AO2

2006/10/02 03:55
KJMR 020355Z AUTO 00000KT 10SM CLR 13/10 A2976 RMK AO2

2006/10/02 03:55
KJYG 020355Z AUTO 16006KT 10SM CLR 20/13 A2975 RMK AO2

2006/10/02 03:56
KLCK 020356Z AUTO 00000KT 10SM 13/09 A3017 RMK AO2

2006/10/02 03:56
KLNR 020356Z AUTO 00000KT 10SM CLR 21/10 A2989 RMK AO2 SLP115 T02110100

2006/10/02 03:55
KMOP 020355Z AUTO 00000KT 1 3/4SM BR VV007 07/06 A3009 RMK AO2

2006/10/02 03:56
KMZH 020356Z AUTO 00000KT 10SM SCT095 11/10 A2975 RMK AO2

2006/10/02 03:55
KONL 020355Z AUTO 25003KT 10SM CLR 18/13 A2980 RMK AO2

2006/10/02 03:55
KOZW 020355Z AUTO 00000KT 10SM CLR 09/08 A3011 RMK AO2

2006/10/02 03:55
KPZQ 020355Z AUTO 00000KT 10SM CLR 05/04 A3011 RMK AO2

2006/10/02 03:56
PAAK 020356Z AUTO 06004KT 7SM OVC020 08/07 A2961 RMK AO1

2006/10/02 03:56
PABV 020356Z AUTO 20004KT 10SM FEW075 06/03 A2979 RMK AO1

2006/10/02 03:56
PADK 020356Z AUTO 33003KT 4SM FEW027 SCT048 09/07 A2958 RMK AO1

2006/10/02 03:56
PADU 020356Z 22018G26KT 10SM BKN031 BKN047 09/04 A2967 RMK AO1 0350 WEA

2006/10/02 03:56
PAEM 020356Z AUTO 05008KT 10SM BKN011 OVC023 07/06 A2953 RMK AO1

2006/10/02 03:56
PAFE 020356Z AUTO 07005KT 10SM OVC050 06/03 A3014 RMK AO1

2006/10/02 03:56
PAFM 020356Z AUTO 03004KT 10SM BKN018 OVC024 02/01 A2973 RMK AO1

2006/10/02 03:56
PAGL 020356Z AUTO 10SM OVC036 06/02 A2964 RMK AO1

2006/10/02 03:56
PAGS 020356Z AUTO 00000KT 10SM OVC027 08/03 A3013 RMK AO1

2006/10/02 03:56
PAHL 020356Z AUTO 07003KT 10SM BKN014 OVC030 03/01 A2964 RMK AO1 P0002

2006/10/02 03:56
PAHP 020356Z AUTO 06008KT 9SM FEW006 SCT016 BKN020 09/08 A2949 RMK AO1 TSNO

2006/10/02 03:56
PAHY 020356Z AUTO 00000KT 10SM CLR 07/05 A3013 RMK AO1

2006/10/02 03:56
PAII 020356Z AUTO 13017G22KT 9SM OVC005 09/07 A2942 RMK AO1 P0002

2006/10/02 03:56
PAIN 020356Z AUTO 17004KT 10SM SCT050 BKN065 OVC090 03/M02 A2977 RMK AO1

2006/10/02 03:56
PAKK 020356Z AUTO 01010KT 10SM BKN024 BKN037 04/01 A2962 RMK AO1

2006/10/02 03:56
PAKP 020356Z AUTO 19005KT 10SM BKN040 OVC046 M01/M02 A2965 RMK AO1

2006/10/02 03:56
PAMD 020356Z AUTO 13017G21KT 6SM FEW006 SCT015 BKN045 09/08 A2988 RMK AO1

2006/10/02 03:56
PAMH 020356Z AUTO 13005KT 10SM BKN070 03/01 A2971 RMK AO1

2006/10/02 03:56
PAMM 020356Z AUTO 00000KT 10SM CLR 08/04 A3015 RMK AO1

2006/10/02 03:56
PANI 020356Z AUTO 11009KT 10SM BKN034 OVC047 09/04 A2952 RMK AO1

2006/10/02 03:56
PANV 020356Z 02004KT 10SM OVC001 06/06 A2956 RMK AO1

2006/10/02 03:56
PAPG 020356Z 00000KT 10SM BKN050 06/04 A3015 RMK AO1 WEA

2006/10/02 03:56
PAPH 020356Z AUTO 23014KT 2 1/2SM BKN009 BKN020 OVC027 10/08 A2946 RMK AO1

2006/10/02 03:56
PAPN 020356Z AUTO 16006KT 10SM FEW042 SCT049 OVC080 09/08 A2944 RMK AO2 TSNO T00880077 RAE17 P0000 SLP975 $

2006/10/02 03:56
PAPO 020356Z AUTO 35018G22KT 10SM BKN018 OVC024 03/01 A2975 RMK AO1

2006/10/02 03:56
PARC 020356Z AUTO 23007KT 10SM FEW037 SCT050 BKN055 M01/M04 A2965 RMK AO1

2006/10/02 03:56
PASA 020356Z AUTO 05016G24KT 3SM OVC006 04/02 A2963 RMK AO1

2006/10/02 03:56
PASD 020356Z 24015G21KT 10SM SCT024 BKN030 OVC036 11/06 A2953 RMK AO1 WEA

2006/10/02 03:56
PASH 020356Z AUTO 03013KT OVC023 04/01 A2975 RMK AO1

2006/10/02 03:56
PASK 020356Z AUTO 04007KT 3SM BKN003 BKN009 OVC014 04/02 A2970 RMK AO1

2006/10/02 03:56
PASL 020356Z AUTO 00000KT 10SM OVC048 07/06 A2962 RMK AO1 TSNO

2006/10/02 03:56
PASM 020356Z AUTO 07007KT 10SM BKN037 OVC043 07/05 A2953 RMK AO1

2006/10/02 03:56
PASX 020356Z AUTO 08009KT 10SM FEW070 SCT090 09/02 A2973 RMK AO1

2006/10/02 03:56
PATG 020356Z AUTO 05007KT 2 1/2SM FEW001 BKN015 OVC020 09/07 A2940 RMK AO1 P0003

2006/10/02 03:56
PAUN 020356Z AUTO 07011KT 3SM FEW021 BKN026 OVC032 06/03 A2962 RMK AO1

2006/10/02 03:56
PAVD 020356Z 00000KT 10SM FEW030 OVC050 05/03 A2997 RMK AO1 0347Z WEA

2006/10/02 03:56
KELZ 020356Z AUTO 28006KT 10SM BKN044 08/06 A3014 RMK AO2 SLP213 T00780056

2006/10/02 03:56
KGON 020356Z AUTO 35005KT 10SM FEW019 12/12 A2999 RMK AO2 SLP155 T01220117

2006/10/02 03:56
KGRD 020356Z AUTO 35004KT 10SM CLR 17/16 A3018 RMK AO2 SLP215 T01720156

2006/10/02 03:56
KHPN 020356Z 31008KT 10SM SCT070 12/10 A3003 RMK AO2 SLP169 T01220100

2006/10/02 03:56
KHWV 020356Z AUTO 32004KT 6SM BR FEW100 12/11 A3002 RMK AO2 SLP166 T01220111

2006/10/02 03:56
KHYA 020356Z AUTO 27006KT 6SM BR SCT017 BKN025 BKN032 11/11 A2992 RMK AO2 SLP133 T01110111

2006/10/02 03:56
KIGX 020356Z AUTO VRB03KT 10SM CLR 13/12 A3018 RMK AO2 SLP216 T01330117 TSNO

2006/10/02 03:56
KISP 020356Z 31005KT 10SM CLR 13/11 A3001 RMK AO2 SLP163 T01280111

2006/10/02 03:56
KITH 020356Z AUTO 29007KT 10SM OVC047 11/08 A3011 RMK AO2 T01050083 401660088 OVC V BKN SLP197

2006/10/02 03:56
KJMS 020356Z AUTO 25006KT 10SM CLR 14/04 A2976 RMK AO2 SLP077 T01390044

2006/10/02 03:56
KJXN 020356Z 00000KT 10SM CLR 08/07 A3012 RMK AO2 SLP201 T00830067

2006/10/02 03:55
KLJF 020355Z AUTO 00000KT 10SM CLR 18/13 A2974 RMK AO2

2006/10/02 03:56
PAFS 020356Z AUTO 08008KT 10SM FEW065 SCT100 07/M02 A2965 RMK AO2 TSNO T00721016 SLP049 $

2006/10/02 03:56
PAGN 020356Z AUTO 00000KT 10SM BKN060 06/04 A3012 RMK AO2 TSNO T00550044 SLP203

2006/10/02 03:56
PAHC 020356Z AUTO 09005KT 10SM SCT047 OVC070 10/04 A2955 RMK AO2 PWINO TSNO T01000038 SLP009 $

2006/10/02 03:56
PAIG 020356Z AUTO 10012KT 10SM SCT045 09/06 A2951 RMK AO2 TSNO T00940055 RAE0258 P0000 SLP998 $

2006/10/02 03:56
PAMK 020356Z AUTO 09009KT 10SM -RA BKN027 OVC036 06/04 A2957 RMK AO2 TSNO T00610044 BKN V OVC RAB41 P0000 SLP016 $

2006/10/02 03:56
PANW 020356Z AUTO 07009KT BKN039 OVC048 07/06 RMK AO2 PWINO TSNO T00720061 SLPNO $

2006/10/02 03:56
PAOU 020356Z AUTO 24019KT 1SM -RA BR BKN008 OVC011 09/08 A2948 RMK AO2 TSNO T00880077 CIG 004V010 P0000 SLP987 $

2006/10/02 03:56
PAPM 020356Z AUTO 05010KT 7SM FEW022 BKN029 OVC045 09/08 A2941 RMK AO2 TSNO T00940077 RAB05E42 P0000 SLP960 $

2006/10/02 03:56
PARS 020356Z AUTO 04004KT 10SM OVC040 10/06 A2951 RMK AO2 TSNO T01000055 SLP999 $

2006/10/02 03:56
PATQ 020356Z AUTO 29006KT 1 1/4SM BR OVC006 M01/M02 A2968 RMK AO2 TSNO T10111016 UPB30E43 P0000 SLP054 $

2006/10/02 03:54
PATW 020354Z 34004KT 4SM -SN FEW009 OVC020 00/M01 A2982 RMK PASSESTD CLSD NOSPECI

2006/10/02 03:56
PAVC 020356Z AUTO 00000KT 4SM -RA BR OVC017 08/07 A2956 RMK AO2 TSNO T00830066 OVC V BKN RAB39 P0000 SLP010

2006/10/02 03:57
K5SM 020357Z AUTO 00000KT 10SM SCT120 07/M04 A3044 RMK AO2

2006/10/02 03:52
KABI 020352Z 17012KT 10SM CLR 26/14 A3006 RMK AO2 SLP153 T02610139

2006/10/02 03:57
KAMN 020357Z AUTO 00000KT 10SM CLR 06/06 A3009 RMK AO2

2006/10/02 03:53
KASD 020353Z AUTO 00000KT 6SM BR CLR 22/19 A3012 RMK AO2 SLP198 T02170194 TSNO

2006/10/02 03:58
KAVK 020358Z AUTO 19013KT 10SM CLR 26/14 A2992 RMK AO2

2006/10/02 03:54
KBUU 020354Z AUTO 08008KT 10SM CLR 15/11 A3002 RMK AO2

2006/10/02 03:55
KCDD 020355Z AUTO 17004KT 10SM CLR 13/09 A2975 RMK AO2

2006/10/02 03:47
KCHD 020347Z 00000KT 15SM SCT150 29/04 A2987 RMK LAST

2006/10/02 03:55
KCKC 020355Z AUTO 00000KT 10SM CLR 08/06 A2982 RMK AO2

2006/10/02 03:55
KCOQ 020355Z AUTO 13003KT 10SM CLR 09/09 A2976 RMK AO2 LTG DSNT SE

2006/10/02 03:55
KCQM 020355Z AUTO 00000KT 10SM CLR 11/09 A2975 RMK AO2

2006/10/02 03:57
KCWA 020357Z AUTO 14006KT 10SM CLR 13/09 A2992 RMK AO2

2006/10/02 03:55
KDLL 020355Z AUTO 12006KT 10SM CLR 17/12 A2992 RMK AO2

2006/10/02 03:55
KEGV 020355Z AUTO 16003KT 10SM CLR 12/09 A2989 RMK AO2

2006/10/02 03:54
KFWA 020354Z 16003KT 10SM CLR 11/08 A3014 RMK AO2 SLP207 T01110078

2006/10/02 03:54
KIND 020354Z 17005KT 10SM CLR 17/12 A3012 RMK AO2 SLP197 T01670117

2006/10/02 03:53
KLND 020353Z AUTO 23011KT 10SM CLR 18/M05 A3000 RMK AO2 SLP108 T01781050

2006/10/02 03:56
KLRD 020356Z AUTO 13010KT 10SM CLR 28/23 A3006 RMK AO2 T02770233 SLP170

2006/10/02 03:53
KMCO 020353Z 08005KT 10SM CLR 23/19 A3011 RMK AO2 SLP194 T02280194

2006/10/02 03:55
KMJQ 020355Z AUTO 19006KT 10SM CLR 21/15 A2977 RMK AO2

2006/10/02 03:55
KMOX 020355Z AUTO 00000KT 10SM CLR 17/13 A2971 RMK AO2

2006/10/02 03:57
KPQL 020357Z AUTO 00000KT 3/4SM BR FEW025 21/19 A3012 RMK AO2

2006/10/02 03:58
YBCS 020358Z 13016G26KT 9999 FEW035 27/14 Q1015

2006/10/02 03:50
LTAD 020350Z 02001KT CAVOK 11/09 Q1019 NOSIG RMK RWY29 15001KT

2006/10/02 03:50
LTAH 020350Z 35005KT CAVOK 11/08 Q1018

2006/10/02 03:50
LTAN 020350Z 33012KT CAVOK 13/09 Q1017 MOSIG RMK RWY19 /////KT

2006/10/02 03:50
LTAP 020350Z 34006KT 9999 SCT040 11/07 Q1019 NOSIG

2006/10/02 03:50
LTAT 020350Z 24004KT 9999 SCT040 13/11 Q1015 NOSIG RMK RWY03 24003KT

2006/10/02 03:50
LTAU 020350Z 07006KT 9999 FEW040 SCT100 10/07 Q1018 NOSIG RMK RWY07 36005KT

2006/10/02 03:50
LTBF 020350Z 00000KT CAVOK 14/12 Q1018 NOSIG RMK RWY18 35005KT

2006/10/02 03:50
LTBG 020350Z 03007KT 9999 FEW035 18/13 Q1018 TEMPO 3000 BR NSC

2006/10/02 03:50
LTBI 020350Z 27002KT 6000 SKC 10/09 Q1020 BECMG FM0400 3000 BR

2006/10/02 03:50
LTBL 020350Z 36009KT 340V050 CAVOK 17/11 Q1015 NOSIG RMK RWY17 36010KT

2006/10/02 03:50
LTBQ 020350Z 09002KT 1200 R27/1200D BR SCT010 12/12 Q1019 BECMG 4000

2006/10/02 03:50
LTCA 020350Z 27004KT 9999 SCT035 14/05 Q1015 NOSIG

2006/10/02 03:50
LTCC 020350Z VRB02KT CAVOK 15/06 Q1013 NOSIG RMK RWY16 27003KT

2006/10/02 03:50
LTCE 020350Z 08003KT 9999 BKN025 08/07 Q1020 NOSIG RMK RWY08L 10003KT RWY26L 07004KT RWY08R 08003KT

2006/10/02 03:50
TJPS 020350Z 05004KT 8SM FEW025 26/22 A2998

2006/10/02 03:55
KLVN 020355Z AUTO 00000KT 10SM CLR 19/13 A2976 RMK AO2

2006/10/02 03:54
KLXL 020354Z AUTO 00000KT 10SM CLR 12/11 A2974 RMK AO2

2006/10/02 03:55
KLYV 020355Z AUTO 00000KT 10SM CLR 13/11 A2977 RMK AO2

2006/10/02 03:56
KM19 020356Z AUTO 13006KT 10SM CLR 19/13 A3011 RMK AO2 T01940133 RAB34E43 P0000 SLP194

2006/10/02 03:56
KMDT 020356Z 32007KT 10SM CLR 13/08 A3012 RMK AO2 SLP200 T01330083

2006/10/02 03:54
KMGG 020354Z AUTO 15004KT 10SM CLR 18/11 A2974 RMK AO2

2006/10/02 03:56
KMQY 020356Z AUTO 00000KT 10SM CLR 13/12 A3021 RMK AO2 T01270116 SLP222 $

2006/10/02 03:56
KMRH 020356Z AUTO 00000KT 8SM CLR 16/14 A3016 RMK AO2 SLP213 T01560139

2006/10/02 03:56
KOFK 020356Z AUTO 00000KT 10SM CLR 18/12 A2977 RMK AO2 SLP071 T01780122 $

2006/10/02 03:56
KOWB 020356Z AUTO 18003KT 10SM CLR 15/14 A3016 RMK AO2 T01500138 SLP213

2006/10/02 03:56
KRDM 020356Z AUTO 34007KT 10SM CLR 13/03 A2995 RMK AO2 SLP135 T01330033

2006/10/02 03:55
KRNP 020355Z AUTO 00000KT 3SM BR CLR 06/06 A3010 RMK AO2

2006/10/02 03:55
KRQB 020355Z AUTO 00000KT 10SM BKN110 08/07 A3008 RMK AO2

2006/10/02 03:56
KSBP 020356Z AUTO 35007KT 10SM FEW120 15/10 A3001 RMK AO2 SLP163 T01500100 TSNO

2006/10/02 03:56
KSJX 020356Z AUTO 00000KT 10SM BKN110 09/07 A3004 RMK AO2

2006/10/02 03:56
KSLE 020356Z AUTO 00000KT 10SM CLR 13/07 A2997 RMK AO2 SLP147 T01330067

2006/10/02 03:56
KSLH 020356Z AUTO 18004KT 10SM BKN100 07/06 A3005 RMK AO2

2006/10/02 03:56
KSME 020356Z AUTO 00000KT 10SM CLR 12/12 A3025 RMK AO2

2006/10/02 03:56
KTPH 020356Z AUTO 15023G33KT 10SM BKN085 OVC100 18/02 A3003 RMK AO2 PK WND 15033/0354 SLP115 T01830022

2006/10/02 03:56
KUCA 020356Z AUTO 00000KT 10SM SCT019 BKN031 OVC090 10/09 A3007 RMK AO2 SLP183 T01000089 PNO $

2006/10/02 03:56
KUKI 020356Z AUTO 36005KT 10SM OVC041 14/07 A3001 RMK AO2 SLP157 T01440072

2006/10/02 03:56
KWJF 020356Z AUTO 27004KT 10SM CLR 18/13 A2997 RMK AO2 SLP136 T01780128

2006/10/02 03:56
PAGN 020356Z AUTO 00000KT 10SM BKN060 06/04 A3012 RMK AO2 TSNO T00550044 SLP203

2006/10/02 03:56
PATQ 020356Z AUTO 29006KT 1 1/4SM BR OVC006 M01/M02 A2968 RMK AO2 TSNO T10111016 UPB30E43 P0000 SLP054 $

2006/10/02 03:56
KAJO 020356Z AUTO 25004KT 10SM CLR 20/14 A2993 RMK AO2 T02000144 SLP249 $

2006/10/02 03:56
KAND 020356Z AUTO 06007KT 10SM CLR 19/11 A3017 RMK AO2 SLP209 T01890111

2006/10/02 03:56
KART 020356Z AUTO 00000KT 6SM BR BKN065 BKN080 11/10 A3004 RMK AO2 SLP170 T01110100 TSNO

2006/10/02 03:54
KARV 020354Z AUTO 16006KT 10SM CLR 15/08 A2989 RMK AO2

2006/10/02 03:55
KBBB 020355Z AUTO 00000KT 10SM CLR 14/12 A2972 RMK AO2

2006/10/02 03:56
KBED 020356Z 02007KT 10SM -RA OVC011 12/11 A2999 RMK AO2 SLP167 P0000 T01170106

2006/10/02 03:55
KBFW 020355Z AUTO 00000KT 10SM CLR 08/07 A2977 RMK AO2

2006/10/02 03:56
KBZN 020356Z 00000KT 10SM CLR 10/02 A2990 RMK AO2 SLP110 T01000017

2006/10/02 03:55
KCBG 020355Z AUTO 15005KT 10SM CLR 21/12 A2975 RMK AO2

2006/10/02 03:56
KCEC 020356Z AUTO 15007KT 10SM OVC016 12/09 A3003 RMK AO2 SLP170 T01170089

2006/10/02 03:55
KCFE 020355Z AUTO 14003KT 10SM CLR 20/12 A2974 RMK AO2 T02010118

2006/10/02 03:55
KCLI 020355Z AUTO 07003KT 7SM CLR 11/09 A2995 RMK AO2

2006/10/02 03:55
KCMY 020355Z AUTO 12003KT 10SM VCTS CLR 16/11 A2987 RMK AO2 LTG DSNT E

2006/10/02 03:55
KCNB 020355Z AUTO 25003KT 10SM CLR 13/12 A2974 RMK AO2

2006/10/02 03:56
KCTB 020356Z AUTO 00000KT 10SM CLR 08/04 A2990 RMK AO2 SLP124 T00830044

2006/10/02 03:56
KCXY 020356Z AUTO 26008KT 10SM CLR 12/08 A3013 RMK AO2 SLP204 T01220083

2006/10/02 03:56
KDAN 020356Z AUTO 34004KT 10SM CLR 16/11 A3018 RMK AO2 SLP212 T01560106 $

2006/10/02 03:56
KDIK 020356Z AUTO 18007KT 10SM CLR 09/03 A2985 RMK AO2 SLP101 T00890028

2006/10/02 03:56
KDUG 020356Z AUTO 02003KT 10SM CLR 18/06 A3012 RMK AO2 SLP143 T01830056

2006/10/02 03:56
KDUJ 020356Z AUTO 00000KT 10SM CLR 08/06 A3015 RMK AO2 SLP214 T00780061

2006/10/02 03:56
KEAU 020356Z AUTO 14006KT 10SM CLR 18/11 A2982 RMK AO2 SLP097 T01830111

2006/10/02 03:56
KEED 020356Z AUTO 21011KT 10SM CLR 34/07 A2981 RMK AO2 SLP058 T03440072 TSNO

2006/10/02 03:56
KEKO 020356Z AUTO 24009KT 10SM FEW110 19/00 A2997 RMK AO2 SLP112 T01890000

2006/10/02 03:55
KMVE 020355Z AUTO 28004KT 10SM CLR 19/12 A2972 RMK AO2

2006/10/02 03:55
KMWM 020355Z AUTO 18004KT 10SM CLR 18/14 A2975 RMK AO2

2006/10/02 03:53
KMWT 020353Z AUTO 00000KT 10SM CLR 22/17 A3008 RMK AO2 SLP175 T02170172 TSNO

2006/10/02 03:53
KNEW 020353Z AUTO 21003KT 10SM CLR 26/22 A3011 RMK AO2 SLP195 T02610217 TSNO

2006/10/02 03:56
KOEB 020356Z AUTO 00000KT 10SM CLR 07/07 A3011 RMK AO2

2006/10/02 03:55
KORB 020355Z AUTO 00000KT 10SM CLR 12/10 A2972 RMK AO2

2006/10/02 03:53
KSIY 020353Z AUTO 16008KT 10SM CLR 16/M01 A2996 RMK AO2 SLP147 T01611011 TSNO

2006/10/02 03:45
KSUN 020345Z 36005KT 10SM SKC 13/M07 A3000

2006/10/02 03:45
KSWF 020345Z 27005KT 5SM BR SKC 11/10 A3007

2006/10/02 03:53
KTPA 020353Z 04006KT 8SM CLR 24/19 A3011 RMK AO2 SLP197 T02440189 $

2006/10/02 03:53
KUVA 020353Z AUTO 14009KT 10SM CLR 26/21 A3008 RMK AO2

2006/10/02 03:52
KVTN 020352Z AUTO 29004KT 10SM CLR 12/09 A2984 RMK AO2 SLP095 T01170089

2006/10/02 04:00
OYAA 020400Z 28005KT 9999 SCT018 28/24 Q1011

2006/10/02 03:56
KDAY 020356Z 00000KT 10SM CLR 13/08 A3018 RMK AO2 SLP219 T01330083

2006/10/02 03:56
KICT 020356Z 17014KT 10SM SCT200 26/15 A2993 RMK AO2 SLP120 T02560150

2006/10/02 03:55
K1A6 020355Z AUTO 00000KT 10SM CLR 15/13 A3027 RMK AO2

2006/10/02 03:45
KATW 020345Z 15008KT 10SM SCT100 14/10 A2994 RMK LTG DSNT S-W

2006/10/02 03:56
KBMI 020356Z AUTO 20012KT 10SM CLR 19/13 A3006 RMK AO2 T01940127 SLP170 $

2006/10/02 03:54
KCAD 020354Z AUTO 00000KT 10SM BKN110 06/05 A3007 RMK AO2

2006/10/02 03:55
KCFS 020355Z AUTO 00000KT 10SM CLR 06/05 A3011 RMK AO2

2006/10/02 03:55
KCMA 020355Z AUTO 17003KT 10SM SCT120 17/14 A2994 RMK AO2 SLP146 T01720144

2006/10/02 03:56
KDRM 020356Z AUTO 00000KT 10SM BKN110 06/06 A3008 RMK AO2

2006/10/02 03:54
KDUH 020354Z AUTO 00000KT 1 3/4SM BR CLR 08/08 A3013 RMK AO2

2006/10/02 03:55
KEAT 020355Z AUTO 32009KT 10SM CLR 16/01 A2988 RMK AO2 SLP115 T01610006 $

2006/10/02 03:56
KEFT 020356Z AUTO 19009G15KT 10SM CLR 19/12 A2995 RMK AO2

2006/10/02 03:55
KFBL 020355Z AUTO 16006KT 10SM CLR 21/12 A2978 RMK AO2

2006/10/02 03:55
KFPK 020355Z AUTO 00000KT 7SM CLR 07/07 A3010 RMK AO2

2006/10/02 03:52
KGLW 020352Z AUTO 00000KT 10SM CLR 13/06 A3026 RMK AO1

2006/10/02 03:55
KGOV 020355Z AUTO 00000KT 10SM CLR 03/03 A3007 RMK AO2

2006/10/02 03:54
KHAI 020354Z AUTO 00000KT 10SM BKN120 10/08 A3010 RMK AO2

2006/10/02 03:56
KHYX 020356Z AUTO 15003KT 10SM CLR 09/07 A3010 RMK AO2

2006/10/02 03:55
KLWA 020355Z AUTO 11003KT 10SM OVC120 13/09 A3008 RMK AO2

2006/10/02 03:55
KMGN 020355Z AUTO 08005KT 10SM BKN110 10/07 A3003 RMK AO2

2006/10/02 03:54
KMRJ 020354Z AUTO 16005KT 10SM CLR 17/14 A2993 RMK AO2

2006/10/02 03:54
KSRE 020354Z AUTO 15008KT 10SM 26/16 A3003 RMK AO2 TSNO

2006/10/02 03:56
PAAK 020356Z AUTO 06004KT 7SM OVC020 08/07 A2961 RMK AO1

2006/10/02 03:53
KBAF 020353Z 01003KT 10SM BKN017 BKN029 11/10 A3002 RMK AO2 SLP168 T01110100

2006/10/02 03:53
KBUR 020353Z 01003KT 10SM BKN085 21/14 A2993 RMK AO2 SLP124 T02060139

2006/10/02 03:56
KYUM 020356Z 16005KT 7SM SCT050 SCT100 BKN180 BKN200 31/13 A2980 RMK SLP086

2006/10/02 03:53
PASC 020353Z 00000KT 10SM BKN010 OVC043 01/01 A2971 RMK AO2 SLP061 T00110006

2006/10/02 03:53
PHJR 020353Z 07005KT 10SM CLR 27/21 A2994 RMK AO2 SLP145 T02720211

2006/10/02 03:56
PAWG 020356Z 16006KT 10SM SCT037 BKN050 06/02 A3013 RMK AO1 WEA

2006/10/02 03:56
PAWN 020356Z AUTO 33005KT 10SM CLR 03/M02 A2967 RMK AO1

2006/10/02 03:56
PAZK 020356Z AUTO 00000KT 10SM CLR M01/M03 A2979 RMK AO1

2006/10/02 03:56
PFYU 020356Z 03003KT 10SM OVC070 01/M01 A2974 RMK AO1 CI ABV 120 .... LAST

2006/10/02 03:55
KACQ 020355Z AUTO 17007KT 10SM CLR 23/13 A2979 RMK AO2

2006/10/02 03:55
KADC 020355Z AUTO 00000KT 10SM CLR 12/11 A2972 RMK AO2

2006/10/02 03:55
KAEL 020355Z AUTO 17004KT 10SM CLR 21/12 A2980 RMK AO2

2006/10/02 03:55
KAIG 020355Z AUTO 14007KT 10SM CLR 11/09 A2993 RMK AO2

2006/10/02 03:55
KAIT 020355Z AUTO 16004KT 10SM CLR 15/13 A2973 RMK AO2

2006/10/02 03:55
KAQP 020355Z AUTO 00000KT 10SM CLR 13/13 A2971 RMK AO2

2006/10/02 03:55
KAUM 020355Z AUTO 17006KT 10SM CLR 21/12 A2981 RMK AO2 LTG DSNT E

2006/10/02 03:55
KHCO 020355Z AUTO 02008KT 10SM CLR 14/08 A2968 RMK AO2

2006/10/02 03:56
KISQ 020356Z AUTO 15006KT 10SM SCT110 12/09 A3003 RMK AO2

2006/10/02 03:55
KJKJ 020355Z AUTO 23005KT 10SM CLR 17/12 A2969 RMK AO2

2006/10/02 03:55
KJMR 020355Z AUTO 00000KT 10SM CLR 13/10 A2976 RMK AO2

2006/10/02 03:55
KJYG 020355Z AUTO 16006KT 10SM CLR 20/13 A2975 RMK AO2

2006/10/02 03:56
KLCK 020356Z AUTO 00000KT 10SM 13/09 A3017 RMK AO2

2006/10/02 03:56
KLNR 020356Z AUTO 00000KT 10SM CLR 21/10 A2989 RMK AO2 SLP115 T02110100

2006/10/02 03:55
KMOP 020355Z AUTO 00000KT 1 3/4SM BR VV007 07/06 A3009 RMK AO2

2006/10/02 03:56
KMZH 020356Z AUTO 00000KT 10SM SCT095 11/10 A2975 RMK AO2

2006/10/02 03:55
KONL 020355Z AUTO 25003KT 10SM CLR 18/13 A2980 RMK AO2

2006/10/02 03:55
KOZW 020355Z AUTO 00000KT 10SM CLR 09/08 A3011 RMK AO2

2006/10/02 03:56
PAAK 020356Z AUTO 06004KT 7SM OVC020 08/07 A2961 RMK AO1

2006/10/02 03:56
PABV 020356Z AUTO 20004KT 10SM FEW075 06/03 A2979 RMK AO1

2006/10/02 03:56
PADU 020356Z 22018G26KT 10SM BKN031 BKN047 09/04 A2967 RMK AO1 0350 WEA

2006/10/02 03:56
PAEM 020356Z AUTO 05008KT 10SM BKN011 OVC023 07/06 A2953 RMK AO1

2006/10/02 03:56
PAFE 020356Z AUTO 07005KT 10SM OVC050 06/03 A3014 RMK AO1

2006/10/02 03:50
LXGB 020350Z 00000KT 9999 FEW015 SCT250 19/16 Q1015

2006/10/02 03:55
EHKD 020355Z AUTO 20020KT 9999NDV FEW016/// BKN021/// BKN024/// 15/13 Q0999 RETSRA WHT

2006/10/02 03:50
LGAL 020350Z 00000KT 9999 FEW025 13/12 Q1019

2006/10/02 03:50
LGEL 020350Z 35010KT CAVOK 19/13 Q1018

2006/10/02 03:50
LGKV 020350Z 00000KT 9999 FEW025 15/13 Q1019

2006/10/02 03:50
LGMT 020350Z 02012KT CAVOK 19/14 Q1017

2006/10/02 03:55
KQAE 020355Z COR VRB06KT 9000 FU FEW001 FEW180 SCT250 24/09 A2982 RMK VIS LWR NE-E FU FEW001 SLP094 WND DATA ESTMD ALSTG/SLP ESTMD COR 0356

2006/10/02 03:55
KQTO 020355Z 34005KT 9000 HZ SCT180 BKN250 21/10 A2983 RMK SLP102 Q1010MB PA+249 DA+1165

2006/10/02 03:55
KQVO 020355Z 00000KT 9000 HZ FEW150 SCT250 18/09 A2980 RMK SLP091 T01840089

2006/10/02 03:50
LGZA 020350Z VRB02KT CAVOK 17/15 Q1018

2006/10/02 04:00
LQSA 020400Z 00000KT 0600 R12/0300N FG BKN001 10/09 Q1021

2006/10/02 03:50
LCEN 020350Z 27006KT 8000 FEW025TCU 19/17 Q1010 NOSIG RMK RWY11 26005KT

2006/10/02 03:50
LCRA 020350Z 34001KT 9999 FEW030TCU 20/16 Q1010 NOSIG

2006/10/02 03:56
KCAE 020356Z 17003KT 10SM CLR 17/16 A3015 RMK AO2 SLP207 T01720156

2006/10/02 03:56
KYKM 020356Z 21004KT 10SM CLR 12/06 A2990 RMK AO2 SLP125 T01220056

2006/10/02 03:56
K8D3 020356Z AUTO 28007KT 16/12 A2972 RMK AO2 SLP056 T01610117 PWINO TSNO

2006/10/02 03:56
KSPD 020356Z AUTO 00000KT 13/02 A2999 RMK AO2 SLP102 T01280022 PWINO TSNO

2006/10/02 03:56
KFAT 020356Z 29003KT 8SM BKN085 OVC110 15/13 A2999 RMK AO2 RAE56 SLP154 P0000 T01500128

2006/10/02 03:56
KP28 020356Z AUTO 15007KT 25/16 A2992 RMK AO2 SLP116 T02500156 PWINO TSNO

2006/10/02 03:53
KGNT 020353Z AUTO 30007KT 13/M03 A3026 RMK AO2 SLP185 T01331033 PWINO TSNO

2006/10/02 03:56
TJSJ 020356Z 12003KT 10SM FEW030 SCT090 27/24 A2999 RMK AO2 SLP154 T02670239 403220256 $

2006/10/02 03:56
KCDJ 020356Z AUTO 19008KT 26/16 A2996 RMK AO2 SLP132 T02560161 PWINO TSNO

2006/10/02 03:56
KP53 020356Z AUTO 18009KT 11/08 A2997 RMK AO2 SLP151 T01110078 PWINO TSNO

2006/10/02 03:56
KFSD 020356Z 00000KT 10SM CLR 14/12 A2976 RMK AO2 SLP073 FEW ABV 120 T01390117 $

2006/10/02 03:56
KLWS 020356Z 16004KT 10SM CLR 15/02 A2990 RMK AO2 SLP125 T01500022

2006/10/02 03:56
KSXT 020356Z AUTO 35012KT 10SM CLR 11/06 A2999 RMK AO2 SLP139 T01060056 TSNO

2006/10/02 03:56
KGNA 020356Z AUTO 03004KT 12/08 A2980 RMK AO2 SLP091 T01220083 PWINO TSNO

2006/10/02 03:56
KBIH 020356Z AUTO 15017G23KT 10SM OVC100 21/04 A2991 RMK AO2 SLP090 T02110044 TSNO $

2006/10/02 03:56
KFLG 020356Z AUTO 19006KT 10SM FEW080 15/M01 A3029 RMK AO2 SLP169 T01501006 TSNO

2006/10/02 03:56
KINW 020356Z AUTO 23011KT 10SM CLR 21/00 A3014 RMK AO2 SLP148 T02110000 TSNO

2006/10/02 03:56
KSMP 020356Z AUTO 30004KT 10SM OVC018 07/03 A3000 RMK AO2 SLP161 T00670033 TSNO

2006/10/02 03:56
KP60 020356Z AUTO 28004KT 03/M06 A3015 RMK AO2 SLP175 T00281056 PWINO TSNO

2006/10/02 03:56
K2WX 020356Z AUTO 03010KT 14/01 A2981 RMK AO1 SLP079 T01440011

2006/10/02 03:56
KD07 020356Z AUTO 04007KT 15/06 A2984 RMK AO2 SLP095 T01500061 PWINO TSNO

2006/10/02 03:56
KGNR 020356Z AUTO 01004KT 07/06 A3004 RMK AO1 SLP182 P0004 T00720061

2006/10/02 03:56
KMHS 020356Z AUTO VRB03KT 10SM CLR 12/03 A3005 RMK AO2 SLP184 T01220033 TSNO

2006/10/02 03:55
KCNK 020355Z AUTO 18018G25KT 10SM CLR 26/14 A2985 RMK AO2 SLP091 T02610139

2006/10/02 03:55
KIRK 020355Z AUTO 19010G17KT 10SM CLR 22/12 A2997 RMK AO2 SLP145 T02220122

2006/10/02 03:55
KPZQ 020355Z AUTO 00000KT 10SM CLR 05/04 A3011 RMK AO2

2006/10/02 03:56
PADK 020356Z AUTO 33003KT 4SM FEW027 SCT048 09/07 A2958 RMK AO1

2006/10/02 03:56
KPGA 020356Z AUTO 18003KT 10SM CLR 23/M01 A3005 RMK AO2 SLP121 T02331011 TSNO $

2006/10/02 03:56
KAAF 020356Z AUTO 00000KT 9SM CLR 22/20 A3012 RMK AO2 SLP199 T02220200 TSNO

2006/10/02 03:55
KLYV 020355Z AUTO 00000KT 10SM CLR 13/11 A2977 RMK AO2

2006/10/02 03:56
KOFK 020356Z AUTO 00000KT 10SM CLR 18/12 A2977 RMK AO2 SLP071 T01780122 $

2006/10/02 03:56
KBZN 020356Z 00000KT 10SM CLR 10/02 A2990 RMK AO2 SLP110 T01000017

2006/10/02 03:55
KCLI 020355Z AUTO 07003KT 7SM CLR 11/09 A2995 RMK AO2

2006/10/02 03:56
PHNY 020356Z AUTO 04008KT 10SM CLR 24/17 A3000 RMK AO2 TSNO T02440172 SLP137 $

2006/10/02 03:52
KABI 020352Z 17012KT 10SM CLR 26/14 A3006 RMK AO2 SLP153 T02610139

2006/10/02 03:54
KFWA 020354Z 16003KT 10SM CLR 11/08 A3014 RMK AO2 SLP207 T01110078

2006/10/02 03:53
KLND 020353Z AUTO 23011KT 10SM CLR 18/M05 A3000 RMK AO2 SLP108 T01781050

2006/10/02 03:53
KMWT 020353Z AUTO 00000KT 10SM CLR 22/17 A3008 RMK AO2 SLP175 T02170172 TSNO

2006/10/02 03:52
KVTN 020352Z AUTO 29004KT 10SM CLR 12/09 A2984 RMK AO2 SLP095 T01170089

2006/10/02 03:56
KBJN 020356Z AUTO 20011G19KT 10SM -RA OVC022 16/03 A3011 RMK AO2 PK WND 18027/0332 RAB01E12B42 SLP028 P0000 T01610033 $

2006/10/02 03:56
KRNO 020356Z 35005G16KT 8SM RA FEW010 BKN025 OVC035 13/07 A3005 RMK AO2 SLP145 P0004 T01280067

2006/10/02 03:55
KQCO 020355Z 12004KT 8000 DU HZ SCT150 25/07 A2983 RMK SLP088

2006/10/02 03:55
KQSL 020355Z 12004KT 9000 HZ FEW160 SCT250 25/06 A2986 RMK SLP103 Q1011MB WND DATA ESTMD ALSTG/SLP ESTMD

2006/10/02 03:56
PAFM 020356Z AUTO 03004KT 10SM BKN018 OVC024 02/01 A2973 RMK AO1

2006/10/02 03:56
PAGL 020356Z AUTO 10SM OVC036 06/02 A2964 RMK AO1

2006/10/02 03:56
PAGS 020356Z AUTO 00000KT 10SM OVC027 08/03 A3013 RMK AO1

2006/10/02 03:56
PAHL 020356Z AUTO 07003KT 10SM BKN014 OVC030 03/01 A2964 RMK AO1 P0002

2006/10/02 03:56
PAHP 020356Z AUTO 06008KT 9SM FEW006 SCT016 BKN020 09/08 A2949 RMK AO1 TSNO

2006/10/02 03:56
PAHY 020356Z AUTO 00000KT 10SM CLR 07/05 A3013 RMK AO1

2006/10/02 03:56
PAII 020356Z AUTO 13017G22KT 9SM OVC005 09/07 A2942 RMK AO1 P0002

2006/10/02 03:56
PAIN 020356Z AUTO 17004KT 10SM SCT050 BKN065 OVC090 03/M02 A2977 RMK AO1

2006/10/02 03:56
PAKK 020356Z AUTO 01010KT 10SM BKN024 BKN037 04/01 A2962 RMK AO1

2006/10/02 03:56
PAKP 020356Z AUTO 19005KT 10SM BKN040 OVC046 M01/M02 A2965 RMK AO1

2006/10/02 03:56
PAMD 020356Z AUTO 13017G21KT 6SM FEW006 SCT015 BKN045 09/08 A2988 RMK AO1

2006/10/02 03:56
PAMH 020356Z AUTO 13005KT 10SM BKN070 03/01 A2971 RMK AO1

2006/10/02 03:56
PAMM 020356Z AUTO 00000KT 10SM CLR 08/04 A3015 RMK AO1

2006/10/02 03:56
PANI 020356Z AUTO 11009KT 10SM BKN034 OVC047 09/04 A2952 RMK AO1

2006/10/02 03:56
PANV 020356Z 02004KT 10SM OVC001 06/06 A2956 RMK AO1

2006/10/02 03:56
PAPG 020356Z 00000KT 10SM BKN050 06/04 A3015 RMK AO1 WEA

2006/10/02 03:56
PAPH 020356Z AUTO 23014KT 2 1/2SM BKN009 BKN020 OVC027 10/08 A2946 RMK AO1

2006/10/02 03:56
PAPO 020356Z AUTO 35018G22KT 10SM BKN018 OVC024 03/01 A2975 RMK AO1

2006/10/02 03:56
PARC 020356Z AUTO 23007KT 10SM FEW037 SCT050 BKN055 M01/M04 A2965 RMK AO1

2006/10/02 03:56
PASA 020356Z AUTO 05016G24KT 3SM OVC006 04/02 A2963 RMK AO1

2006/10/02 03:56
PASD 020356Z 24015G21KT 10SM SCT024 BKN030 OVC036 11/06 A2953 RMK AO1 WEA

2006/10/02 03:56
PASH 020356Z AUTO 03013KT OVC023 04/01 A2975 RMK AO1

2006/10/02 03:56
PASK 020356Z AUTO 04007KT 3SM BKN003 BKN009 OVC014 04/02 A2970 RMK AO1

2006/10/02 03:56
PASL 020356Z AUTO 00000KT 10SM OVC048 07/06 A2962 RMK AO1 TSNO

2006/10/02 03:56
PASM 020356Z AUTO 07007KT 10SM BKN037 OVC043 07/05 A2953 RMK AO1

2006/10/02 03:56
PASX 020356Z AUTO 08009KT 10SM FEW070 SCT090 09/02 A2973 RMK AO1

2006/10/02 03:56
PATG 020356Z AUTO 05007KT 2 1/2SM FEW001 BKN015 OVC020 09/07 A2940 RMK AO1 P0003

2006/10/02 03:56
PAUN 020356Z AUTO 07011KT 3SM FEW021 BKN026 OVC032 06/03 A2962 RMK AO1

2006/10/02 03:56
PAVD 020356Z 00000KT 10SM FEW030 OVC050 05/03 A2997 RMK AO1 0347Z WEA

2006/10/02 03:53
KTOI 020353Z AUTO 00000KT 9SM CLR 23/21 A3014 RMK AO2 SLP201 T02280206 TSNO

2006/10/02 03:53
TIST 020353Z 07009KT 10SM CLR 28/22 A2997 RMK AO2 SLP148 T02830222 403220278

2006/10/02 03:53
TISX 020353Z AUTO 05007KT 10SM CLR 27/23 A2997 RMK AO2 SLP148 T02720228 403220261 TSNO $

2006/10/02 03:50
TJPS 020350Z 05004KT 8SM FEW025 26/22 A2998

2006/10/02 03:55
KLVN 020355Z AUTO 00000KT 10SM CLR 19/13 A2976 RMK AO2

2006/10/02 03:54
KLXL 020354Z AUTO 00000KT 10SM CLR 12/11 A2974 RMK AO2

2006/10/02 03:56
KM19 020356Z AUTO 13006KT 10SM CLR 19/13 A3011 RMK AO2 T01940133 RAB34E43 P0000 SLP194

2006/10/02 03:56
KMDT 020356Z 32007KT 10SM CLR 13/08 A3012 RMK AO2 SLP200 T01330083

2006/10/02 03:54
KMGG 020354Z AUTO 15004KT 10SM CLR 18/11 A2974 RMK AO2

2006/10/02 03:56
KMQY 020356Z AUTO 00000KT 10SM CLR 13/12 A3021 RMK AO2 T01270116 SLP222 $

2006/10/02 03:56
KMRH 020356Z AUTO 00000KT 8SM CLR 16/14 A3016 RMK AO2 SLP213 T01560139

2006/10/02 03:56
KOWB 020356Z AUTO 18003KT 10SM CLR 15/14 A3016 RMK AO2 T01500138 SLP213

2006/10/02 03:56
KRDM 020356Z AUTO 34007KT 10SM CLR 13/03 A2995 RMK AO2 SLP135 T01330033

2006/10/02 03:55
KRNP 020355Z AUTO 00000KT 3SM BR CLR 06/06 A3010 RMK AO2

2006/10/02 03:55
KRQB 020355Z AUTO 00000KT 10SM BKN110 08/07 A3008 RMK AO2

2006/10/02 03:56
KSBP 020356Z AUTO 35007KT 10SM FEW120 15/10 A3001 RMK AO2 SLP163 T01500100 TSNO

2006/10/02 03:56
KSJX 020356Z AUTO 00000KT 10SM BKN110 09/07 A3004 RMK AO2

2006/10/02 03:56
KSLE 020356Z AUTO 00000KT 10SM CLR 13/07 A2997 RMK AO2 SLP147 T01330067

2006/10/02 03:56
KSLH 020356Z AUTO 18004KT 10SM BKN100 07/06 A3005 RMK AO2

2006/10/02 03:56
KSME 020356Z AUTO 00000KT 10SM CLR 12/12 A3025 RMK AO2

2006/10/02 03:50
EGPC 020350Z AUTO 04014KT 5000NDV RA SCT003/// 12/11 Q0995

2006/10/02 03:50
EGPE 020350Z AUTO 02009KT 9999 RA BKN004/// 12/12 Q0994

2006/10/02 03:50
EGPL 020350Z AUTO 36012KT 9999NDV NCD 11/09 Q0999

2006/10/02 03:50
EGPO 020350Z AUTO 02019KT 4900NDV -RA SCT021/// SCT031/// 12/09 Q0999

2006/10/02 03:56
KTPH 020356Z AUTO 15023G33KT 10SM BKN085 OVC100 18/02 A3003 RMK AO2 PK WND 15033/0354 SLP115 T01830022

2006/10/02 03:56
KUCA 020356Z AUTO 00000KT 10SM SCT019 BKN031 OVC090 10/09 A3007 RMK AO2 SLP183 T01000089 PNO $

2006/10/02 03:56
KUKI 020356Z AUTO 36005KT 10SM OVC041 14/07 A3001 RMK AO2 SLP157 T01440072

2006/10/02 03:56
KWJF 020356Z AUTO 27004KT 10SM CLR 18/13 A2997 RMK AO2 SLP136 T01780128

2006/10/02 03:56
PAGN 020356Z AUTO 00000KT 10SM BKN060 06/04 A3012 RMK AO2 TSNO T00550044 SLP203

2006/10/02 03:56
PATQ 020356Z AUTO 29006KT 1 1/4SM BR OVC006 M01/M02 A2968 RMK AO2 TSNO T10111016 UPB30E43 P0000 SLP054 $

2006/10/02 03:56
KAJO 020356Z AUTO 25004KT 10SM CLR 20/14 A2993 RMK AO2 T02000144 SLP249 $

2006/10/02 03:56
KAND 020356Z AUTO 06007KT 10SM CLR 19/11 A3017 RMK AO2 SLP209 T01890111

2006/10/02 03:56
KART 020356Z AUTO 00000KT 6SM BR BKN065 BKN080 11/10 A3004 RMK AO2 SLP170 T01110100 TSNO

2006/10/02 03:54
KARV 020354Z AUTO 16006KT 10SM CLR 15/08 A2989 RMK AO2

2006/10/02 03:55
KBBB 020355Z AUTO 00000KT 10SM CLR 14/12 A2972 RMK AO2

2006/10/02 03:56
KBED 020356Z 02007KT 10SM -RA OVC011 12/11 A2999 RMK AO2 SLP167 P0000 T01170106

2006/10/02 03:55
KBFW 020355Z AUTO 00000KT 10SM CLR 08/07 A2977 RMK AO2

2006/10/02 03:55
KCBG 020355Z AUTO 15005KT 10SM CLR 21/12 A2975 RMK AO2

2006/10/02 03:56
KCEC 020356Z AUTO 15007KT 10SM OVC016 12/09 A3003 RMK AO2 SLP170 T01170089

2006/10/02 03:55
KCFE 020355Z AUTO 14003KT 10SM CLR 20/12 A2974 RMK AO2 T02010118

2006/10/02 03:55
KCMY 020355Z AUTO 12003KT 10SM VCTS CLR 16/11 A2987 RMK AO2 LTG DSNT E

2006/10/02 03:55
KCNB 020355Z AUTO 25003KT 10SM CLR 13/12 A2974 RMK AO2

2006/10/02 03:56
KCTB 020356Z AUTO 00000KT 10SM CLR 08/04 A2990 RMK AO2 SLP124 T00830044

2006/10/02 03:56
KCXY 020356Z AUTO 26008KT 10SM CLR 12/08 A3013 RMK AO2 SLP204 T01220083

2006/10/02 03:56
KDAN 020356Z AUTO 34004KT 10SM CLR 16/11 A3018 RMK AO2 SLP212 T01560106 $

2006/10/02 03:56
KDIK 020356Z AUTO 18007KT 10SM CLR 09/03 A2985 RMK AO2 SLP101 T00890028

2006/10/02 03:56
KDUG 020356Z AUTO 02003KT 10SM CLR 18/06 A3012 RMK AO2 SLP143 T01830056

2006/10/02 03:56
KDUJ 020356Z AUTO 00000KT 10SM CLR 08/06 A3015 RMK AO2 SLP214 T00780061

2006/10/02 03:56
KEAU 020356Z AUTO 14006KT 10SM CLR 18/11 A2982 RMK AO2 SLP097 T01830111

2006/10/02 03:56
KEED 020356Z AUTO 21011KT 10SM CLR 34/07 A2981 RMK AO2 SLP058 T03440072 TSNO

2006/10/02 03:56
KEKO 020356Z AUTO 24009KT 10SM FEW110 19/00 A2997 RMK AO2 SLP112 T01890000

2006/10/02 03:56
KELZ 020356Z AUTO 28006KT 10SM BKN044 08/06 A3014 RMK AO2 SLP213 T00780056

2006/10/02 03:56
KGON 020356Z AUTO 35005KT 10SM FEW019 12/12 A2999 RMK AO2 SLP155 T01220117

2006/10/02 03:56
KGRD 020356Z AUTO 35004KT 10SM CLR 17/16 A3018 RMK AO2 SLP215 T01720156

2006/10/02 03:56
KHPN 020356Z 31008KT 10SM SCT070 12/10 A3003 RMK AO2 SLP169 T01220100

2006/10/02 03:56
KHWV 020356Z AUTO 32004KT 6SM BR FEW100 12/11 A3002 RMK AO2 SLP166 T01220111

2006/10/02 03:56
KHYA 020356Z AUTO 27006KT 6SM BR SCT017 BKN025 BKN032 11/11 A2992 RMK AO2 SLP133 T01110111

2006/10/02 03:56
KIGX 020356Z AUTO VRB03KT 10SM CLR 13/12 A3018 RMK AO2 SLP216 T01330117 TSNO

2006/10/02 03:56
KISP 020356Z 31005KT 10SM CLR 13/11 A3001 RMK AO2 SLP163 T01280111

2006/10/02 03:56
KITH 020356Z AUTO 29007KT 10SM OVC047 11/08 A3011 RMK AO2 T01050083 401660088 OVC V BKN SLP197

2006/10/02 03:56
KJMS 020356Z AUTO 25006KT 10SM CLR 14/04 A2976 RMK AO2 SLP077 T01390044

2006/10/02 03:56
KJXN 020356Z 00000KT 10SM CLR 08/07 A3012 RMK AO2 SLP201 T00830067

2006/10/02 03:55
KLJF 020355Z AUTO 00000KT 10SM CLR 18/13 A2974 RMK AO2

2006/10/02 03:56
PAFS 020356Z AUTO 08008KT 10SM FEW065 SCT100 07/M02 A2965 RMK AO2 TSNO T00721016 SLP049 $

2006/10/02 03:56
PAGN 020356Z AUTO 00000KT 10SM BKN060 06/04 A3012 RMK AO2 TSNO T00550044 SLP203

2006/10/02 03:56
PAHC 020356Z AUTO 09005KT 10SM SCT047 OVC070 10/04 A2955 RMK AO2 PWINO TSNO T01000038 SLP009 $

2006/10/02 03:56
PAIG 020356Z AUTO 10012KT 10SM SCT045 09/06 A2951 RMK AO2 TSNO T00940055 RAE0258 P0000 SLP998 $

2006/10/02 03:47
KTRK 020347Z AUTO 13004KT 10SM SCT048 OVC060 11/04 A3011

2006/10/02 03:55
KYIP 020355Z 00000KT 1 3/4SM BR CLR 08/07 A3013 RMK AO2

2006/10/02 03:57
KPQL 020357Z AUTO 00000KT 3/4SM BR FEW025 21/19 A3012 RMK AO2

2006/10/02 03:53
KDNK 020353Z AUTO 00000KT 10SM CLR 23/21 A3011 RMK AO2 SLP193 T02280211 $

2006/10/02 03:45
MMCP 020345Z 36008KT 7SM SKC 26/23 A2999

2006/10/02 03:46
MMLO 020346Z 06006KT 6SM RA BKN030 BKN080 OVC220 16/16 A3033 RMK 60275 8/463

2006/10/02 03:48
MMOX 020348Z 33005KT 8SM SCT100 SCT280 19/11 A3021 RMK 8/038

2006/10/02 03:48
MMTG 020348Z 30020KT 10SM SCT090 26/20 A3000 RMK 8/030 MSGTX MMMD

2006/10/02 03:49
MMAA 020349Z 25004KT 8SM SCT010TCU BKN090 BKN300 29/24 A2991 RMK 8/262 CBS LTG 1 QUAD PRESRR

2006/10/02 03:47
MMGL 020347Z 04004KT 5SM -RA BKN020 OVC025CB 17/15 A3018 RMK 60205 8/9//

2006/10/02 03:46
MMMD 020346Z 07007KT 7SM SKC 26/22 A3000

2006/10/02 03:45
MMMX 020345Z 34005KT 5SM -RA BKN025CB BKN080 OVC200 14/12 A3039 RMK 60005 8/963 -TS E15 OCNL LTGICCC SE

2006/10/02 03:45
MMTM 020345Z 1201KT 6SM FEW020 27/25 A3006 RMK 8/100

2006/10/02 03:46
MMUN 020346Z 00000KT 7SM FEW020 SCT080 29/25 A3000 RMK 8/560 MSGTX MMMD

2006/10/02 03:45
MMVR 020345Z 00000KT 7SM BKN080 26/25 A3006 RMK 8/030

2006/10/02 03:50
EGPA 020350Z AUTO 02021KT 9999 BKN009/// 13/11 Q0996

2006/10/02 03:50
EGPC 020350Z AUTO 04014KT 5000NDV RA SCT003/// 12/11 Q0995

2006/10/02 03:50
EGCC 020350Z 21009KT 9999 -SHRA FEW020 SCT035 12/12 Q0997

2006/10/02 03:45
MMTO 020345Z 00000KT 5SM SCT015 BKN070 BKN200 12/10 A3043 RMK 8/462 DSTN CB/E HZ

2006/10/02 03:45
MMZC 020345Z 09008KT 10SM SCT030 SCT120 BKN200 12/MM A3035 RMK 8/464

2006/10/02 03:54
KMTP 020354Z AUTO 35010KT 14/12 A3000 RMK AO2 SLP160 T01440122 PWINO TSNO

2006/10/02 03:50
EGDG 020350Z 21009KT 9999 FEW010 BKN045 13/12 Q1003

2006/10/02 03:50
EGDL 020350Z 22010KT 9999 FEW016 BKN060 12/10 Q1002 TEMPO SHRA SCT015

2006/10/02 03:45
MMAS 020345Z 20007KT 10SM SCT040 BKN200 17/13 A3026 RMK 8/402

2006/10/02 03:45
MMBT 020345Z 00000KT 6SM SCT250 26/23 A2993 RMK 8/006 HZY

2006/10/02 03:47
MMGL 020347Z 04004KT 5SM -RA BKN020 OVC025CB 17/15 A3018 RMK 60205 8/9//

2006/10/02 03:47
MMMM 020347Z 00000KT 7SM BKN030CB OVC070 16/14 A3028 RMK 8/96/

2006/10/02 03:50
ESKN 020350Z VRB02KT 0500 0400/ R26/0550V0700N FG SKC 08/08 Q1005

2006/10/02 03:50
ESOK 020350Z 07007KT 8000 BR SCT095 10/10 Q1002

2006/10/02 03:50
ESOW 020350Z 00000KT 0400 R01/0900 R19/1100U FG NSC 05/04 Q1004

2006/10/02 03:50
ESSA 020350Z VRB03KT 9999 BCFG NSC 08/08 Q1005 TEMPO 4000

2006/10/02 03:50
ESSB 020350Z 00000KT CAVOK 07/07 Q1005

2006/10/02 03:50
ESSD 020350Z 26004KT 0200 R32/0750N FG VV003 04/03 Q1004

2006/10/02 03:50
ESSP 020350Z VRB01KT 0500 R09/0700VP1500U R27/0800VP1500D FG VV001 05/05 Q1004

2006/10/02 03:50
ESSV 020350Z 16006KT 8000 BR NSC 12/11 Q1006

2006/10/02 03:56
PAMK 020356Z AUTO 09009KT 10SM -RA BKN027 OVC036 06/04 A2957 RMK AO2 TSNO T00610044 BKN V OVC RAB41 P0000 SLP016 $

2006/10/02 03:56
PAPM 020356Z AUTO 05010KT 7SM FEW022 BKN029 OVC045 09/08 A2941 RMK AO2 TSNO T00940077 RAB05E42 P0000 SLP960 $

2006/10/02 03:56
PARS 020356Z AUTO 04004KT 10SM OVC040 10/06 A2951 RMK AO2 TSNO T01000055 SLP999 $

2006/10/02 03:56
PATQ 020356Z AUTO 29006KT 1 1/4SM BR OVC006 M01/M02 A2968 RMK AO2 TSNO T10111016 UPB30E43 P0000 SLP054 $

2006/10/02 03:54
PATW 020354Z 34004KT 4SM -SN FEW009 OVC020 00/M01 A2982 RMK PASSESTD CLSD NOSPECI

2006/10/02 03:57
K5SM 020357Z AUTO 00000KT 10SM SCT120 07/M04 A3044 RMK AO2

2006/10/02 03:57
KAMN 020357Z AUTO 00000KT 10SM CLR 06/06 A3009 RMK AO2

2006/10/02 03:53
KASD 020353Z AUTO 00000KT 6SM BR CLR 22/19 A3012 RMK AO2 SLP198 T02170194 TSNO

2006/10/02 03:58
KAVK 020358Z AUTO 19013KT 10SM CLR 26/14 A2992 RMK AO2

2006/10/02 03:54
KBUU 020354Z AUTO 08008KT 10SM CLR 15/11 A3002 RMK AO2

2006/10/02 03:55
KCDD 020355Z AUTO 17004KT 10SM CLR 13/09 A2975 RMK AO2

2006/10/02 03:47
KCHD 020347Z 00000KT 15SM SCT150 29/04 A2987 RMK LAST

2006/10/02 03:55
KCKC 020355Z AUTO 00000KT 10SM CLR 08/06 A2982 RMK AO2

2006/10/02 03:55
KCOQ 020355Z AUTO 13003KT 10SM CLR 09/09 A2976 RMK AO2 LTG DSNT SE

2006/10/02 03:55
KCQM 020355Z AUTO 00000KT 10SM CLR 11/09 A2975 RMK AO2

2006/10/02 03:57
KCWA 020357Z AUTO 14006KT 10SM CLR 13/09 A2992 RMK AO2

2006/10/02 03:55
KDLL 020355Z AUTO 12006KT 10SM CLR 17/12 A2992 RMK AO2

2006/10/02 03:55
KEGV 020355Z AUTO 16003KT 10SM CLR 12/09 A2989 RMK AO2

2006/10/02 03:54
KIND 020354Z 17005KT 10SM CLR 17/12 A3012 RMK AO2 SLP197 T01670117

2006/10/02 03:56
KLRD 020356Z AUTO 13010KT 10SM CLR 28/23 A3006 RMK AO2 T02770233 SLP170

2006/10/02 03:53
KMCO 020353Z 08005KT 10SM CLR 23/19 A3011 RMK AO2 SLP194 T02280194

2006/10/02 03:55
KMJQ 020355Z AUTO 19006KT 10SM CLR 21/15 A2977 RMK AO2

2006/10/02 03:55
KMOX 020355Z AUTO 00000KT 10SM CLR 17/13 A2971 RMK AO2

2006/10/02 03:55
KMVE 020355Z AUTO 28004KT 10SM CLR 19/12 A2972 RMK AO2

2006/10/02 03:55
KMWM 020355Z AUTO 18004KT 10SM CLR 18/14 A2975 RMK AO2

2006/10/02 03:53
KNEW 020353Z AUTO 21003KT 10SM CLR 26/22 A3011 RMK AO2 SLP195 T02610217 TSNO

2006/10/02 03:56
KOEB 020356Z AUTO 00000KT 10SM CLR 07/07 A3011 RMK AO2

2006/10/02 03:55
KORB 020355Z AUTO 00000KT 10SM CLR 12/10 A2972 RMK AO2

2006/10/02 03:53
KSIY 020353Z AUTO 16008KT 10SM CLR 16/M01 A2996 RMK AO2 SLP147 T01611011 TSNO

2006/10/02 03:45
KSUN 020345Z 36005KT 10SM SKC 13/M07 A3000

2006/10/02 03:45
KSWF 020345Z 27005KT 5SM BR SKC 11/10 A3007

2006/10/02 03:53
KTPA 020353Z 04006KT 8SM CLR 24/19 A3011 RMK AO2 SLP197 T02440189 $

2006/10/02 03:53
KUVA 020353Z AUTO 14009KT 10SM CLR 26/21 A3008 RMK AO2

2006/10/02 03:53
KRTN 020353Z AUTO 09008KT 10SM CLR 12/M03 A3016 RMK AO2 SLP146 T01221028 TSNO

2006/10/02 03:56
KINS 020356Z AUTO 23007KT 10SM BKN120 26/M02 A2993 RMK AO2 SLP088 T02561017 $

2006/10/02 03:56
K9L2 020356Z AUTO 00000KT 10SM FEW100 21/12 A2995 RMK AO2 SLP128 T02060117 $

2006/10/02 03:56
KVBG 020356Z AUTO 35007KT 10SM -RA SCT080 OVC110 14/12 A3002 RMK AO2 RAB32 SLP156 P0000 T01390122 TSNO $

2006/10/02 03:56
KNPA 020356Z AUTO 00000KT 5SM BR CLR 22/21 A3011 RMK AO2 SLP198 T02220211 TSNO

2006/10/02 03:56
KNLC 020356Z 02004KT 4SM BR SCT010 BKN110 14/13 A2999 RMK AO2 RAE09 SLP156 P0000 T01440133

2006/10/02 03:56
KNUQ 020356Z 34004KT 10SM OVC041 16/09 A3002 RMK AO2 SLP167 T01610089

2006/10/02 03:53
KDNK 020353Z AUTO 00000KT 10SM CLR 23/21 A3011 RMK AO2 SLP193 T02280211 $

2006/10/02 03:56
KNFL 020356Z AUTO 34006KT 10SM SCT110 19/01 A2997 RMK AO2 SLP120 T01940011 TSNO $

2006/10/02 03:55
KBLV 020355Z 17005KT 7SM SCT250 18/13 A3009 RMK AO2A SLP188

2006/10/02 03:53
KDTS 020353Z AUTO VRB03KT 10SM CLR 27/24 A3011 RMK AO2 SLP194 T02720244 $

2006/10/02 03:55
KFMH 020355Z 28007KT 7SM FEW002 SCT006 OVC021 13/12 A2994 RMK SCT006 V BKN SLP139 RCRNR

2006/10/02 03:55
KGBN 020355Z 22006KT 20SM SCT200 31/08 A2986 RMK SLP093 SLP ESTMD

2006/10/02 03:55
KGRK 020355Z 17008KT 7SM SCT060 BKN250 25/18 A3008 RMK SLP170

2006/10/02 03:55
KHST 020355Z 07008G13KT 7SM SCT030 27/23 A3006 RMK SLP180

2006/10/02 03:55
KLFI 020355Z VRB02KT 7SM SCT060 18/15 A3014 RMK SLP207

2006/10/02 03:55
KLSV 020355Z 17006KT 20SM BKN150 BKN250 28/02 A2985 RMK SLP096

2006/10/02 03:55
KMTC 020355Z 00000KT 10SM SKC 09/08 A3013 RMK SLP207

2006/10/02 03:55
KSKF 020355Z 16008KT 7SM BKN250 27/23 A3010 RMK SLP184 LAST

2006/10/02 03:53
PABI 020353Z 12008KT 10SM OVC110 03/M01 A2976 RMK AO2 SLP101 T00331011

2006/10/02 03:53
KRYT 020353Z AUTO 00000KT 10SM CLR 12/10 A3014 RMK AO2 SLP206 T01220100 $

2006/10/02 03:55
KFCS 020355Z VRB06KT 7SM SCT120 BKN250 19/00 A3010 RMK SLP136 LAST

2006/10/02 03:55
KHOP 020355Z 00000KT 7SM FEW250 16/14 A3018 RMK SLP219

2006/10/02 03:55
KPSM 020355Z 01009KT 8SM BKN011 OVC035 10/09 A3001 RMK SLP164

2006/10/02 03:55
KQUK 020355Z 18001KT 5000 BR FEW000 SCT250 09/07 A3017 RMK VIS NE 3200 FG FEW000 PK WND 16003/06 SLP212 WND DATA ESTMD ALSTG/ALP ESTMD WHT

2006/10/02 03:55
PHHI 020355Z AUTO 09004KT 10SM SCT036 25/20 A2998 RMK AO2 SLP139 T02490203

2006/10/02 03:54
KBKB 020354Z AUTO 00000KT 9SM CLR 22/20 A3009 RMK AO2 SLP214 T02170200 $

2006/10/02 03:55
KPOE 020355Z AUTO 20003KT 10SM CLR 24/21 A3011 RMK AO2 SLP198 T02440206

2006/10/02 03:55
KADW 020355Z 34003KT 10SM CLR 12/09 A3016 RMK AO2A SLP212 T01200086 $

2006/10/02 03:55
KLHW 020355Z 00000KT 7SM SKC 20/19 A3011 RMK SLP198

2006/10/02 03:55
KLRF 020355Z 07001KT 7SM BKN250 21/19 A3010 RMK SLP192

2006/10/02 03:55
KMIB 020355Z AUTO 31007KT 10SM CLR 10/07 A2979 RMK AO2 VIS 3/4 RWY11 PRESRR SLP089 T01030071 $

2006/10/02 03:55
KRCA 020355Z 05004KT 8SM CLR 19/05 A2985 RMK AO2A SLP088 T01920047 $

2006/10/02 03:55
KRDR 020355Z 26005KT 10SM CLR 12/05 A2969 RMK AO2A SLP066 T01170047 $

2006/10/02 03:55
KRIV 020355Z 27006KT 10SM SCT150 BKN250 20/12 A2997 RMK SLP133 ALSTG/SLP ESTMD

2006/10/02 03:55
KTIK 020355Z 19012KT 7SM FEW140 BKN250 26/16 A3001 RMK SLP152

2006/10/02 03:57
KMPV 020357Z AUTO 00000KT 1 3/4SM BR OVC014 09/08 A3007 RMK AO2

2006/10/02 03:58
YBCS 020358Z 13016G26KT 9999 FEW035 27/14 Q1015 NOSIG

2006/10/02 03:58
KALB 020358Z 00000KT 1/4SM FG FEW029 BKN070 OVC080 09/08 A3005

2006/10/02 03:58
KOKM 020358Z AUTO 18006KT CLR 23/17 A3001 RMK AO1 PWINO

2006/10/02 03:55
KONA 020355Z AUTO 00000KT 10SM CLR 16/12 A2981 RMK AO2 LTG DSNT E

2006/10/02 03:57
KONZ 020357Z AUTO 00000KT 10SM CLR 12/11 A3012 RMK AO2

2006/10/02 03:57
KOSC 020357Z AUTO 00000KT 10SM CLR 06/04 A3010 RMK AO2

2006/10/02 03:55
KPBH 020355Z AUTO 16006KT 10SM CLR 16/10 A2987 RMK AO2 LTG DSNT SE AND S

2006/10/02 03:55
KPCZ 020355Z AUTO 09004KT 3SM BR CLR 11/09 A2993 RMK AO2

2006/10/02 03:55
KPDC 020355Z AUTO 18007KT 10SM CLR 24/10 A2986 RMK AO2

2006/10/02 03:54
KPIA 020354Z 19010KT 10SM CLR 20/10 A3003 RMK AO2 SLP165 T02000100

2006/10/02 03:55
KRCX 020355Z AUTO 13005KT 10SM CLR 16/11 A2986 RMK AO2 LTG DSNT SE

2006/10/02 03:55
KRGK 020355Z AUTO 09004KT 10SM CLR 21/12 A2978 RMK AO2 LTG DSNT E

2006/10/02 03:56
KSHV 020356Z 17003KT 10SM BKN260 23/18 A3009 RMK AO2 SLP185 BKN260 THIN T02330178

2006/10/02 03:55
PGWT 020355Z 26019G31KT 7SM BKN014CB BKN025 OVC035 27/25 A2952 RMK CB ALQDS MOV E

2006/10/02 03:56
PACM 020356Z AUTO 09007KT 10SM FEW013 OVC026 08/07 A2950 RMK AO2 TSNO T00770066 RAB32E41 P0000 SLP994

2006/10/02 03:56
PAMB 020356Z AUTO 08014KT 2SM BR OVC010 08/07 A2943 RMK AO2 PWINO TSNO T00830072 P0005 SLP969 $

2006/10/02 03:56
PAOH 020356Z AUTO 00000KT 10SM -RA BKN042 06/05 A3012 RMK AO2 TSNO T00610050 RAB38 P0000 SLP199 $

2006/10/02 03:56
PAOO 020356Z AUTO 07004KT 10SM BKN042 OVC050 09/07 A2947 RMK AO2 TSNO T00940066 SLP982 $

2006/10/02 03:56
PARY 020356Z AUTO 09008KT 4SM BR BKN001 BKN005 OVC022 02/01 A2968 RMK AO2 PWINO TSNO T00160011 SLP060 $

2006/10/02 03:56
PPIZ 020356Z AUTO 05004KT 10SM +RA BKN020 OVC025 01/M01 A2975 RMK AO2 TSNO T00111005 P0000 SLP079 $

2006/10/02 03:57
KACB 020357Z AUTO 00000KT 10SM SCT110 05/04 A3004 RMK AO2

2006/10/02 03:47
KADS 020347Z 16011G16KT 20SM BKN200 28/19 A3005

2006/10/02 03:57
KBWP 020357Z AUTO 26003KT 10SM CLR 16/14 A2971 RMK AO1

2006/10/02 03:53
KDTL 020353Z AUTO 20004KT 10SM CLR 16/11 A2973 RMK AO2

2006/10/02 03:55
KDVP 020355Z AUTO 00000KT 7SM CLR 15/12 A2978 RMK AO2

2006/10/02 03:55
KDXX 020355Z AUTO 26004KT 10SM CLR 16/12 A2973 RMK AO2

2006/10/02 03:55
KDYT 020355Z AUTO 03007KT 10SM CLR 13/11 A2977 RMK AO2

2006/10/02 03:56
KEKQ 020356Z AUTO 00000KT CLR 11/10 RMK AO2 PWINO T01050100 402500100 SLPNO $

2006/10/02 03:55
KELO 020355Z AUTO 13004KT 10SM CLR 09/06 A2975 RMK AO2

2006/10/02 03:57
KERY 020357Z AUTO 11003KT 10SM -RA BKN110 08/07 A3004 RMK AO2

2006/10/02 03:55
KETH 020355Z AUTO 00000KT 10SM CLR 17/13 A2973 RMK AO2

2006/10/02 03:55
KEVM 020355Z AUTO 00000KT 10SM CLR 07/04 A2977 RMK AO2

2006/10/02 03:55
KFFM 020355Z AUTO 19004KT 10SM CLR 19/13 A2972 RMK AO2

2006/10/02 03:55
KFGN 020355Z AUTO 30005KT 10SM CLR 18/11 A2968 RMK AO2

2006/10/02 03:47
KGYR 020347Z 13007KT 20SM BKN250 28/14 A2987 RMK LAST

2006/10/02 03:56
KHCD 020356Z AUTO 00000KT 10SM CLR 17/13 A2974 RMK AO2

2006/10/02 03:57
KIWA 020357Z AUTO 14009KT 10SM CLR 27/04 A2990 RMK AO2

2006/10/02 03:57
KJVL 020357Z AUTO 18008KT 10SM CLR 19/11 A2995 RMK AO2

2006/10/02 03:57
KLUM 020357Z AUTO 09005KT 10SM CLR 16/12 A2981 RMK AO2 LTG DSNT E

2006/10/02 03:45
KMHR 020345Z 31004KT 10SM SCT046 16/08 A3001

2006/10/02 03:55
KOVL 020355Z AUTO 17004KT 10SM CLR 17/13 A2973 RMK AO2

2006/10/02 03:55
KOWA 020355Z AUTO 16010KT 10SM CLR 22/12 A2978 RMK AO2

2006/10/02 03:47
KPAO 020347Z 00000KT 25SM OVC040 15/09 A3001 RMK LAST

2006/10/02 03:55
KPNM 020355Z AUTO 00000KT 10SM CLR 16/12 A2974 RMK AO2

2006/10/02 03:47
KRHV 020347Z 00000KT 10SM SCT100 14/12 A3001

2006/10/02 03:59
KSEE 020359Z 24008KT 10SM SCT150 20/00 A2995

2006/10/02 03:47
KSQL 020347Z 32005KT 10SM SCT037 16/10 A3000 RMK LAST

2006/10/02 03:56
PACM 020356Z AUTO 09007KT 10SM FEW013 OVC026 08/07 A2950 RMK AO2 TSNO T00770066 RAB32E41 P0000 SLP994

2006/10/02 03:52
K2G4 020352Z AUTO 26005KT 10SM 10/05 A3020 RMK AO1

2006/10/02 03:55
KANE 020355Z AUTO 13004KT 10SM CLR 19/13 A2976 RMK AO2

2006/10/02 04:00
KCPW 020400Z AUTO 10SM CLR 09/M11 A3051 RMK AO2

2006/10/02 03:57
KCVX 020357Z AUTO 12005KT 10SM SCT110 08/06 A3006 RMK AO2

2006/10/02 03:55
KFKA 020355Z AUTO 20010G16KT 10SM CLR 21/10 A2984 RMK AO2 LTG DSNT E

2006/10/02 03:53
KFMN 020353Z 02005KT 10SM CLR 16/M03 A3016 RMK AO2 SLP174 T01611033

2006/10/02 03:55
KFOZ 020355Z AUTO 00000KT 10SM CLR 13/09 A2974 RMK AO2 LTG DSNT SE

2006/10/02 03:55
KFSE 020355Z AUTO 22006KT 10SM CLR 17/11 A2969 RMK AO2

2006/10/02 03:54
KGDB 020354Z AUTO 00000KT 7SM CLR 13/12 A2974 RMK AO2

2006/10/02 03:55
KGHW 020355Z AUTO 00000KT 10SM CLR 18/13 A2973 RMK AO2

2006/10/02 03:55
KGPI 020355Z AUTO 00000KT 10SM CLR 09/01 A2989 RMK AO2 SLP126 T00890011

2006/10/02 03:57
KGYL 020357Z AUTO 00000KT 10SM CLR 22/12 A2974 RMK AO2

2006/10/02 03:55
KLIC 020355Z AUTO 00000KT 10SM CLR 13/01 A3006 RMK AO2 SLP115 T01280006 TSNO

2006/10/02 03:55
KLLJ 020355Z AUTO 25005KT 10SM FEW090 13/M08 A2996 RMK AO2 SLP114 T01331078 TSNO

2006/10/02 03:55
KMDZ 020355Z AUTO 15009KT 10SM CLR 16/11 A2988 RMK AO2

2006/10/02 03:55
KMKG 020355Z 15009KT 10SM CLR 13/08 A3005 RMK AO2 SLP174 T01280083

2006/10/02 03:58
KMLT 020358Z AUTO 03003KT 10SM -RA FEW026 BKN046 OVC070 10/07 A3008 RMK AO2 RAB01 SLP192 P0001 T01000067

2006/10/02 03:55
KMWC 020355Z AUTO 14014G18KT 10SM -RA BKN095 OVC110 16/10 A3002 RMK AO2 P0022

2006/10/02 03:55
KOEO 020355Z AUTO 00000KT 10SM CLR 18/12 A2979 RMK AO2

2006/10/02 03:57
KEKN 020357Z AUTO 00000KT 1/4SM FG FEW001 BKN006 05/04 A3024

2006/10/02 03:57
KMPV 020357Z AUTO 00000KT 1 3/4SM BR OVC014 09/08 A3007 RMK AO2

2006/10/02 04:00
OSAP 020400Z 25005KT 7000NSC 18/16 Q1012

2006/10/02 04:00
OSDI 020400Z 24003KT CAVOK 13/10 Q1014

2006/10/02 04:00
OSLK 020400Z 06004KT 9999 FEW026 SCT030 20/16 Q1011

2006/10/02 03:56
PAMO 020356Z AUTO 07011KT 10SM BKN047 OVC060 08/05 A2953 RMK AO2 TSNO T00770050 SLP001 $

2006/10/02 03:55
KADU 020355Z AUTO 19008KT 10SM CLR 23/13 A2984 RMK AO2

2006/10/02 03:55
KAIO 020355Z AUTO 19009KT 10SM CLR 23/15 A2986 RMK AO2

2006/10/02 03:55
KAXA 020355Z AUTO 18007KT 10SM CLR 21/16 A2978 RMK AO2

2006/10/02 03:55
KBNW 020355Z AUTO 18009KT 10SM CLR 22/16 A2984 RMK AO2

2006/10/02 03:55
KCAV 020355Z AUTO 17012KT 10SM CLR 22/12 A2981 RMK AO2

2006/10/02 03:55
KCBF 020355Z AUTO 19015G22KT 10SM CLR 27/16 A2983 RMK AO2

2006/10/02 03:55
KCCY 020355Z AUTO 17009G15KT 10SM CLR 22/12 A2984 RMK AO2

2006/10/02 03:55
KCIN 020355Z AUTO 19011G16KT 10SM CLR 25/16 A2981 RMK AO2

2006/10/02 03:55
KCKP 020355Z AUTO 21003KT 10SM CLR 22/15 A2976 RMK AO2

2006/10/02 03:55
KCNC 020355Z AUTO 18015G20KT 10SM CLR 24/16 A2991 RMK AO2

2006/10/02 03:57
KFKS 020357Z AUTO 11005KT 10SM BKN110 13/07 A3002 RMK AO2

2006/10/02 03:58
KLDM 020358Z AUTO 12005KT 10SM OVC110 13/07 A3004 RMK AO2

2006/10/02 03:55
KPEX 020355Z AUTO 00000KT 10SM CLR 14/12 A2974 RMK AO2 LTG DSNT E

2006/10/02 03:57
KPWC 020357Z AUTO 15003KT 10SM CLR 14/13 A2973 RMK AO2

2006/10/02 03:58
KRMY 020358Z AUTO 00000KT 10SM SCT120 09/07 A3011 RMK AO2

2006/10/02 03:55
KRNH 020355Z AUTO 13006KT 10SM CLR 20/11 A2979 RMK AO2

2006/10/02 03:56
KROS 020356Z AUTO 16007KT 10SM CLR 18/11 A2975 RMK AO2

2006/10/02 03:55
KROX 020355Z AUTO 30004KT 10SM CLR 17/12 A2968 RMK AO2

2006/10/02 03:55
KRPD 020355Z AUTO 15005KT 10SM CLR 16/11 A2982 RMK AO2 LTG DSNT SE

2006/10/02 03:57
KSYN 020357Z AUTO 18005KT 10SM CLR 21/12 A2975 RMK AO2

2006/10/02 03:57
KTEW 020357Z AUTO 00000KT 10SM CLR 06/06 A3010 RMK AO2

2006/10/02 03:55
KPBH 020355Z AUTO 16006KT 10SM CLR 16/10 A2987 RMK AO2 LTG DSNT SE AND S

2006/10/02 03:55
KPCZ 020355Z AUTO 09004KT 3SM BR CLR 11/09 A2993 RMK AO2

2006/10/02 03:55
KPDC 020355Z AUTO 18007KT 10SM CLR 24/10 A2986 RMK AO2

2006/10/02 03:55
KRCX 020355Z AUTO 13005KT 10SM CLR 16/11 A2986 RMK AO2 LTG DSNT SE

2006/10/02 03:55
KRGK 020355Z AUTO 09004KT 10SM CLR 21/12 A2978 RMK AO2 LTG DSNT E

2006/10/02 03:56
PAMO 020356Z AUTO 07011KT 10SM BKN047 OVC060 08/05 A2953 RMK AO2 TSNO T00770050 SLP001 $

2006/10/02 03:55
KADU 020355Z AUTO 19008KT 10SM CLR 23/13 A2984 RMK AO2

2006/10/02 03:55
KAIO 020355Z AUTO 19009KT 10SM CLR 23/15 A2986 RMK AO2

2006/10/02 03:55
KAXA 020355Z AUTO 18007KT 10SM CLR 21/16 A2978 RMK AO2

2006/10/02 03:55
KBNW 020355Z AUTO 18009KT 10SM CLR 22/16 A2984 RMK AO2

2006/10/02 03:55
KCAV 020355Z AUTO 17012KT 10SM CLR 22/12 A2981 RMK AO2

2006/10/02 03:55
KCBF 020355Z AUTO 19015G22KT 10SM CLR 27/16 A2983 RMK AO2

2006/10/02 03:55
KCCY 020355Z AUTO 17009G15KT 10SM CLR 22/12 A2984 RMK AO2

2006/10/02 03:55
KCIN 020355Z AUTO 19011G16KT 10SM CLR 25/16 A2981 RMK AO2

2006/10/02 03:55
KCNC 020355Z AUTO 18015G20KT 10SM CLR 24/16 A2991 RMK AO2

2006/10/02 03:57
KFKS 020357Z AUTO 11005KT 10SM BKN110 13/07 A3002 RMK AO2

2006/10/02 03:58
KLDM 020358Z AUTO 12005KT 10SM OVC110 13/07 A3004 RMK AO2

2006/10/02 03:55
KPEX 020355Z AUTO 00000KT 10SM CLR 14/12 A2974 RMK AO2 LTG DSNT E

2006/10/02 03:57
KPWC 020357Z AUTO 15003KT 10SM CLR 14/13 A2973 RMK AO2

2006/10/02 03:58
KRMY 020358Z AUTO 00000KT 10SM SCT120 09/07 A3011 RMK AO2

2006/10/02 03:55
KRNH 020355Z AUTO 13006KT 10SM CLR 20/11 A2979 RMK AO2

2006/10/02 03:55
KROX 020355Z AUTO 30004KT 10SM CLR 17/12 A2968 RMK AO2

2006/10/02 03:55
KRPD 020355Z AUTO 15005KT 10SM CLR 16/11 A2982 RMK AO2 LTG DSNT SE

2006/10/02 03:57
KTEW 020357Z AUTO 00000KT 10SM CLR 06/06 A3010 RMK AO2

2006/10/02 03:55
PAGA 020355Z AUTO 08009KT 10SM OVC028 04/02 A2966 RMK AO1 T00390023

2006/10/02 03:56
PACM 020356Z AUTO 09007KT 10SM FEW013 OVC026 08/07 A2950 RMK AO2 TSNO T00770066 RAB32E41 P0000 SLP994

2006/10/02 03:56
PAMB 020356Z AUTO 08014KT 2SM BR OVC010 08/07 A2943 RMK AO2 PWINO TSNO T00830072 P0005 SLP969 $

2006/10/02 03:56
PAOH 020356Z AUTO 00000KT 10SM -RA BKN042 06/05 A3012 RMK AO2 TSNO T00610050 RAB38 P0000 SLP199 $

2006/10/02 03:56
PAOO 020356Z AUTO 07004KT 10SM BKN042 OVC050 09/07 A2947 RMK AO2 TSNO T00940066 SLP982 $

2006/10/02 03:56
PARY 020356Z AUTO 09008KT 4SM BR BKN001 BKN005 OVC022 02/01 A2968 RMK AO2 PWINO TSNO T00160011 SLP060 $

2006/10/02 03:56
PPIZ 020356Z AUTO 05004KT 10SM +RA BKN020 OVC025 01/M01 A2975 RMK AO2 TSNO T00111005 P0000 SLP079 $

2006/10/02 03:57
KACB 020357Z AUTO 00000KT 10SM SCT110 05/04 A3004 RMK AO2

2006/10/02 03:47
KADS 020347Z 16011G16KT 20SM BKN200 28/19 A3005

2006/10/02 03:57
KBWP 020357Z AUTO 26003KT 10SM CLR 16/14 A2971 RMK AO1

2006/10/02 03:53
KDTL 020353Z AUTO 20004KT 10SM CLR 16/11 A2973 RMK AO2

2006/10/02 03:55
KDVP 020355Z AUTO 00000KT 7SM CLR 15/12 A2978 RMK AO2

2006/10/02 03:55
KDXX 020355Z AUTO 26004KT 10SM CLR 16/12 A2973 RMK AO2

2006/10/02 03:55
KDYT 020355Z AUTO 03007KT 10SM CLR 13/11 A2977 RMK AO2

2006/10/02 03:56
KEKQ 020356Z AUTO 00000KT CLR 11/10 RMK AO2 PWINO T01050100 402500100 SLPNO $

2006/10/02 03:55
KELO 020355Z AUTO 13004KT 10SM CLR 09/06 A2975 RMK AO2

2006/10/02 03:57
KERY 020357Z AUTO 11003KT 10SM -RA BKN110 08/07 A3004 RMK AO2

2006/10/02 03:55
KETH 020355Z AUTO 00000KT 10SM CLR 17/13 A2973 RMK AO2

2006/10/02 03:55
KEVM 020355Z AUTO 00000KT 10SM CLR 07/04 A2977 RMK AO2

2006/10/02 03:55
KFFM 020355Z AUTO 19004KT 10SM CLR 19/13 A2972 RMK AO2

2006/10/02 03:55
KFGN 020355Z AUTO 30005KT 10SM CLR 18/11 A2968 RMK AO2

2006/10/02 03:47
KGYR 020347Z 13007KT 20SM BKN250 28/14 A2987 RMK LAST

2006/10/02 03:56
KHCD 020356Z AUTO 00000KT 10SM CLR 17/13 A2974 RMK AO2

2006/10/02 03:57
KIWA 020357Z AUTO 14009KT 10SM CLR 27/04 A2990 RMK AO2

2006/10/02 03:57
KJVL 020357Z AUTO 18008KT 10SM CLR 19/11 A2995 RMK AO2

2006/10/02 03:57
KLUM 020357Z AUTO 09005KT 10SM CLR 16/12 A2981 RMK AO2 LTG DSNT E

2006/10/02 03:55
KOVL 020355Z AUTO 17004KT 10SM CLR 17/13 A2973 RMK AO2

2006/10/02 03:55
KOWA 020355Z AUTO 16010KT 10SM CLR 22/12 A2978 RMK AO2

2006/10/02 03:47
KPAO 020347Z 00000KT 25SM OVC040 15/09 A3001 RMK LAST

2006/10/02 03:55
KPNM 020355Z AUTO 00000KT 10SM CLR 16/12 A2974 RMK AO2

2006/10/02 03:47
KRHV 020347Z 00000KT 10SM SCT100 14/12 A3001

2006/10/02 03:59
KSEE 020359Z 24008KT 10SM SCT150 20/00 A2995

2006/10/02 03:47
KSQL 020347Z 32005KT 10SM SCT037 16/10 A3000 RMK LAST

2006/10/02 03:56
PACM 020356Z AUTO 09007KT 10SM FEW013 OVC026 08/07 A2950 RMK AO2 TSNO T00770066 RAB32E41 P0000 SLP994

2006/10/02 03:45
PHJH 020345Z 05013KT 15SM -SHRA FEW006 SCT080 BKN150 26/22 A2994 RMK LAST

2006/10/02 03:52
K2G4 020352Z AUTO 26005KT 10SM 10/05 A3020 RMK AO1

2006/10/02 03:55
KANE 020355Z AUTO 13004KT 10SM CLR 19/13 A2976 RMK AO2

2006/10/02 04:00
KCPW 020400Z AUTO 10SM CLR 09/M11 A3051 RMK AO2

2006/10/02 03:57
KCVX 020357Z AUTO 12005KT 10SM SCT110 08/06 A3006 RMK AO2

2006/10/02 03:55
KFKA 020355Z AUTO 20010G16KT 10SM CLR 21/10 A2984 RMK AO2 LTG DSNT E

2006/10/02 03:55
KFOZ 020355Z AUTO 00000KT 10SM CLR 13/09 A2974 RMK AO2 LTG DSNT SE

2006/10/02 03:55
KFSE 020355Z AUTO 22006KT 10SM CLR 17/11 A2969 RMK AO2

2006/10/02 03:54
KGDB 020354Z AUTO 00000KT 7SM CLR 13/12 A2974 RMK AO2

2006/10/02 03:55
KGHW 020355Z AUTO 00000KT 10SM CLR 18/13 A2973 RMK AO2

2006/10/02 03:57
KGYL 020357Z AUTO 00000KT 10SM CLR 22/12 A2974 RMK AO2

2006/10/02 03:55
KLLJ 020355Z AUTO 25005KT 10SM FEW090 13/M08 A2996 RMK AO2 SLP114 T01331078 TSNO

2006/10/02 03:55
KMDZ 020355Z AUTO 15009KT 10SM CLR 16/11 A2988 RMK AO2

2006/10/02 03:58
KMLT 020358Z AUTO 03003KT 10SM -RA FEW026 BKN046 OVC070 10/07 A3008 RMK AO2 RAB01 SLP192 P0001 T01000067

2006/10/02 03:55
KMWC 020355Z AUTO 14014G18KT 10SM -RA BKN095 OVC110 16/10 A3002 RMK AO2 P0022

2006/10/02 03:55
KOEO 020355Z AUTO 00000KT 10SM CLR 18/12 A2979 RMK AO2

2006/10/02 03:58
KOKM 020358Z AUTO 18006KT CLR 23/17 A3001 RMK AO1 PWINO

2006/10/02 03:55
KONA 020355Z AUTO 00000KT 10SM CLR 16/12 A2981 RMK AO2 LTG DSNT E

2006/10/02 03:57
KONZ 020357Z AUTO 00000KT 10SM CLR 12/11 A3012 RMK AO2

2006/10/02 03:57
KOSC 020357Z AUTO 00000KT 10SM CLR 06/04 A3010 RMK AO2

2006/10/02 04:00
LBBG 020400Z 24002MPS 2200 BR SKC 11/11 Q1020 NOSIG

2006/10/02 04:00
LBPD 020400Z VRB01MPS 5000 SKC 12/11 Q1020 NOSIG

2006/10/02 04:00
LBSF 020400Z 11001MPS 0450 R27/0700VP1500N R09/P1500N BCFG SKC 11/10 Q1021 TEMPO 0300 BCFG

2006/10/02 04:00
LBWN 020400Z 00000MPS 0800 R09/0800VP1500N R27/P1500N BCFG SKC 10/10 Q1019 NOSIG

2006/10/02 04:00
LHBP 020400Z VRB01KT 6000 NSC 11/10 Q1016 NOSIG

2006/10/02 04:00
LUKK 020400Z 10002KT 4400 BR NSC 08/08 Q1018 26CLRD65 TEMPO 2000 BR

2006/10/02 04:00
OPSK 020400Z 18002KT 2500 HZ FEW200 31/20 1007

2006/10/02 03:50
EGOV 020350Z 27010KT 9999 FEW011 BKN016 BKN080 13/12 Q0998

2006/10/02 03:54
PTPN 020354Z 05006KT 15SM SCT017 SCT130 OVC300 30/25 A2972

2006/10/02 03:55
PGWT 020355Z 26019G31KT 7SM BKN014CB BKN025 OVC035 27/25 A2952 RMK CB ALQDS MOV E

2006/10/02 03:55
PGWT 020355Z 26019G31KT 7SM BKN014CB BKN025 OVC035 27/25 A2952 RMK CB ALQDS MOV E

2006/10/02 03:57
PTKK 020357Z 19012KT 240V140 14SM FEW012 SCT040 OVC120 29/25 A2967 RMK SLP049 T02890252

2006/10/02 04:00
RJOI 020400Z 03009KT 9999 FEW030 BKN050 BKN200 25/16 A2989 RMK SLP122 T02500161

2006/10/02 03:55
KQTZ 020355Z VRB01KT 9999 FEW140 BKN250 26/08 A2981 RMK SLP094 Q1009MB WND DATA ESTMD ALSTG/SLP ESTMD

2006/10/02 03:57
KEKN 020357Z AUTO 00000KT 1/4SM FG FEW001 BKN006 05/04 A3024 RMK AO2 TSNO

2006/10/02 03:58
KALB 020358Z 00000KT 1/4SM FG FEW029 BKN070 OVC080 09/08 A3005 RMK AO2 TWR VIS 10

2006/10/02 04:00
GMFF 020400Z 19006KT 180V310 CAVOK 23/07 Q1017 NOSIG

2006/10/02 04:00
GMFO 020400Z 21010KT CAVOK 26/05 Q1017 NOSIG

2006/10/02 03:55
RJTY 020355Z 01006KT 9999 BKN030 OVC080 20/16 A2995 RMK AO2A SLP139 VISNO RWY18 CHINO RWY18

2006/10/02 03:56
KWMC 020356Z AUTO 26004KT 10SM SCT100 18/M12 A2995 RMK AO2 SLP107 T01831117

2006/10/02 03:50
ENSB 020350Z 00000KT 9999 FEW010 SCT030 BKN070 M02/M05 Q1008

2006/10/02 03:50
EBLG 020350Z 21015KT 9999 BKN022 16/12 Q1009 NOSIG

2006/10/02 04:00
LDDU 020400Z 07005KT CAVOK 17/14 Q1019

2006/10/02 04:00
LDOS 020400Z 19003KT CAVOK 15/13 Q1017

2006/10/02 04:00
LDPL 020400Z 00000KT 3000 BR FEW055 17/17 Q1017

2006/10/02 04:00
LDSP 020400Z VRB01KT CAVOK 15/11 Q1019 NOSIG

2006/10/02 04:00
LDZA 020400Z VRB02KT CAVOK 14/14 Q1016 NOSIG

2006/10/02 04:00
LDZD 020400Z 08001KT CAVOK 16/16 Q1018

2006/10/02 04:00
LZIB 020400Z 00000KT 8000 NSC 13/12 Q1016 NOSIG

2006/10/02 04:00
LZKZ 020400Z 29002KT 2000S BR FEW010 12/11 Q1016 NOSIG

2006/10/02 04:00
LZTT 020400Z VRB01KT CAVOK 11/09 Q1016

2006/10/02 03:50
ENSG 020350Z 06004KT CAVOK 06/04 Q0999

2006/10/02 03:55
RODN 020355Z 03012KT 9999 VCSH FEW025 BKN030 BKN060 29/25 A2978 RMK SLP084 VCSH N SHRA DSNT SW

2006/10/02 03:45
KMHR 020345Z 31004KT 10SM SCT046 16/08 A3001

2006/10/02 03:55
KLSF 020355Z 00000KT 4SM BR SKC 18/17 A3013 RMK VIS SW-W 1 SLP204

2006/10/02 03:52
KNBG 020352Z 00000KT 6SM BR SCT200 22/19 A3013 RMK AO2 SLP200 T02170194 $

2006/10/02 03:53
KNGU 020353Z 06004KT 10SM SCT060 19/13 A3016 RMK AO2 SLP211 T01940133

2006/10/02 03:52
KNHK 020352Z 26004KT 10SM CLR 13/11 A3015 RMK AO2 SLP208 T01280111 VISNO RY24 $

2006/10/02 03:53
KNIP 020353Z 18005KT 7SM CLR 26/19 A3012 RMK AO2 SLP196 T02610194

2006/10/02 03:55
KVOK 020355Z 12007KT 7SM FEW050 FEW100 BKN250 17/11 A2989 RMK SLPNO

2006/10/02 03:55
KWRB 020355Z 00000KT 10SM CLR 19/18 A3013 RMK AO2A SLP201 T01880177 $

2006/10/02 03:55
KWRI 020355Z 30006KT 7SM SKC 14/09 A3007 RMK SLP183

2006/10/02 03:57
PAED 020357Z VRB06KT 10SM FEW050 BKN085 05/05 A2979 RMK AO2A SLP090

2006/10/02 03:56
KAQV 020356Z AUTO 00000KT 10SM CLR 22/20 A3010 RMK AO2 SLP190 T02170200 $

2006/10/02 03:55
PACZ 020355Z AUTO 14004KT 10SM SCT025 OVC041 08/08 RMK AO1 T00780078

2006/10/02 03:55
PATL 020355Z AUTO 00000KT 10SM SCT039 SCT050 BKN070 04/03 A2964 RMK AO1 T00390028

2006/10/02 03:55
PAEH 020355Z AUTO SCT010 SCT017 RMK AO1 OVC2 2 48/46/0000/938

2006/10/02 03:55
PASV 020355Z AUTO 11011G15KT 10SM SCT041 BKN049 OVC100 08/00 A2958 RMK AO1 T00830001

2006/10/02 03:45
PHJH 020345Z 05013KT 15SM -SHRA FEW006 SCT080 BKN150 26/22 A2994 RMK LAST

2006/10/02 03:53
KFMN 020353Z 02005KT 10SM CLR 16/M03 A3016 RMK AO2 SLP174 T01611033

2006/10/02 03:55
KGPI 020355Z AUTO 00000KT 10SM CLR 09/01 A2989 RMK AO2 SLP126 T00890011

2006/10/02 03:55
KLIC 020355Z AUTO 00000KT 10SM CLR 13/01 A3006 RMK AO2 SLP115 T01280006 TSNO

2006/10/02 03:55
KMKG 020355Z 15009KT 10SM CLR 13/08 A3005 RMK AO2 SLP174 T01280083

2006/10/02 03:54
KPIA 020354Z 19010KT 10SM CLR 20/10 A3003 RMK AO2 SLP165 T02000100

2006/10/02 03:56
KSHV 020356Z 17003KT 10SM BKN260 23/18 A3009 RMK AO2 SLP185 BKN260 THIN T02330178

2006/10/02 03:59
KIGM 020359Z AUTO 18007KT 10SM CLR 27/03 A3000 RMK AO2 SLP086 T02670028 TSNO

2006/10/02 03:55
KCKP 020355Z AUTO 21003KT 10SM CLR 22/15 A2976 RMK AO2

2006/10/02 03:56
KROS 020356Z AUTO 16007KT 10SM CLR 18/11 A2975 RMK AO2

2006/10/02 03:57
KSYN 020357Z AUTO 18005KT 10SM CLR 21/12 A2975 RMK AO2

2006/10/02 03:55
KQAJ 020355Z 16003KT 9999 FEW150 BKN250 24/06 A2986 RMK SLP112 T02360055 PA 671 DA 1954

2006/10/02 03:50
EGDM 020350Z 24005KT 9999 SCT020 SCT050 13/10 Q1003

2006/10/02 03:46
MMAN 020346Z 00000KT 10SM SCT080 25/21 A3006 RMK 8/070

2006/10/02 03:57
KMPV 020357Z AUTO 00000KT 1 3/4SM BR OVC014 09/08 A3007

2006/10/02 03:59
KMCD 020359Z AUTO 00000KT 10SM SCT100 11/08 A3008 RMK AO2

2006/10/02 03:59
KPHN 020359Z AUTO 00000KT 1/2SM FG VV005 05/04 A3014 RMK AO2

2006/10/02 03:55
KTKV 020355Z AUTO 15004KT 10SM CLR 12/07 A2990 RMK AO2

2006/10/02 03:55
KTOB 020355Z AUTO 18009G14KT 10SM 22/14 A2980 RMK AO2 LTG DSNT E

2006/10/02 03:55
KTWM 020355Z AUTO 36003KT 10SM CLR 08/06 A2978 RMK AO2

2006/10/02 03:55
KUES 020355Z AUTO 12011G16KT 10SM SCT110 17/09 A3003 RMK AO2

2006/10/02 03:55
KULM 020355Z AUTO 15003KT 10SM CLR 18/13 A2973 RMK AO2

2006/10/02 03:55
KVVV 020355Z AUTO 00000KT 10SM CLR 19/13 A2972 RMK AO2

2006/10/02 03:48
KVWU 020348Z AUTO 00000KT 10SM CLR 16/12 A2969 RMK AO2

2006/10/02 03:55
KXVG 020355Z AUTO 00000KT 10SM CLR 11/10 A2973 RMK AO2

2006/10/02 03:59
KPOU 020359Z AUTO 00000KT 1SM BR BKN080 OVC095 09/09 A3004 RMK AO2

2006/10/02 03:59
KSLK 020359Z AUTO 00000KT 6SM BR FEW010 SCT022 OVC060 10/09 A3001 RMK AO2

2006/10/02 04:00
KBFD 020400Z AUTO 00000KT 1 1/4SM BR FEW001 04/03 A3014 RMK AO2

2006/10/02 04:00
KDXR 020400Z AUTO 00000KT 1/2SM FG CLR 09/09 A3005 RMK AO2 P0001

2006/10/02 04:00
KMMK 020400Z AUTO 00000KT 1SM BR VV001 10/09 A3002 RMK AO2

2006/10/02 04:00
KPQL 020400Z AUTO 00000KT 1/4SM FG FEW001 21/19 A3012 RMK AO2

2006/10/02 04:00
PATQ 020400Z AUTO 29006KT 2SM BR OVC006 M01/M02 A2968 RMK AO2 TSNO $

2006/10/02 03:55
KBIX 020355Z 00000KT 7SM FEW250 25/23 A3011 RMK SLP198 LAST

2006/10/02 03:55
KCSQ 020355Z AUTO 18015G20KT 10SM CLR 23/17 A2989 RMK AO2

2006/10/02 03:55
KDEH 020355Z AUTO 19008G15KT 10SM CLR 24/05 A2987 RMK AO2

2006/10/02 03:56
KDIJ 020356Z AUTO 10005KT 10SM CLR 09/M02 A3008 RMK AO2 T00941022 SLP115 $

2006/10/02 03:55
KDNS 020355Z AUTO 17011G15KT 10SM CLR 23/16 A2983 RMK AO2

2006/10/02 03:55
KEBS 020355Z AUTO 17008KT 10SM CLR 22/14 A2981 RMK AO2

2006/10/02 03:55
KEOK 020355Z AUTO 20015G22KT 10SM CLR 25/12 A2998 RMK AO2

2006/10/02 03:55
KFFL 020355Z AUTO 18010KT 10SM CLR 25/12 A2994 RMK AO2

2006/10/02 03:55
KFSW 020355Z AUTO 18007KT 10SM CLR 25/11 A2998 RMK AO2

2006/10/02 03:55
KGGI 020355Z AUTO 17011KT 10SM CLR 22/11 A2989 RMK AO2

2006/10/02 03:55
KGTB 020355Z 23002KT 7SM FEW030 SCT050 BKN090 11/11 A3004 RMK SLP173 RCRNR

2006/10/02 03:55
KHNR 020355Z AUTO 18008KT 10SM CLR 25/16 A2985 RMK AO2

2006/10/02 03:55
KICL 020355Z AUTO 18007KT 10SM CLR 25/17 A2986 RMK AO2

2006/10/02 03:55
KIIB 020355Z AUTO 18010G15KT 10SM CLR 20/10 A2988 RMK AO1

2006/10/02 03:55
KIKV 020355Z AUTO 19008KT 10SM CLR 24/16 A2985 RMK AO2

2006/10/02 03:55
KLFI 020355Z VRB02KT 7SM SCT060 18/15 A3014 RMK SLP207

2006/10/02 03:55
KLRF 020355Z 07001KT 7SM BKN250 21/19 A3010 RMK SLP192

2006/10/02 03:55
KLRJ 020355Z AUTO 26003KT 10SM CLR 17/14 A2977 RMK AO2

2006/10/02 03:55
KMPZ 020355Z AUTO 19014G20KT 10SM CLR 24/10 A2996 RMK AO1

2006/10/02 03:55
KMUT 020355Z AUTO 18014G18KT 10SM CLR 24/10 A2993 RMK AO2

2006/10/02 03:55
KMXO 020355Z AUTO 18008KT 10SM CLR 21/11 A2990 RMK AO2

2006/10/02 03:56
KNCA 020356Z 00000KT 7MS SKC 15/14 A3017 RMK SLP216 T01500139

2006/10/02 03:56
KNYL 020356Z 16005KT 7SM SCT050 SCT100 BKN180 BKN200 31/13 A2980 RMK SLP086

2006/10/02 03:55
KOLZ 020355Z AUTO 18009KT 10SM CLR 21/11 A2988 RMK AO2

2006/10/02 03:53
KONT 020353Z COR 26004KT 6SM HZ SCT130 BKN200 21/14 A2994 RMK AO2 SLP129 T02110139

2006/10/02 03:55
KORC 020355Z AUTO 20004KT 10SM CLR 21/14 A2977 RMK AO2

2006/10/02 03:55
KOXV 020355Z AUTO 19012KT 10SM CLR 24/16 A2989 RMK AO2

2006/10/02 03:55
KPEA 020355Z AUTO 17008KT 10SM CLR 22/12 A2989 RMK AO1

2006/10/02 03:55
KRDK 020355Z AUTO 19010G15KT 10SM CLR 26/16 A2984 RMK AO2

2006/10/02 03:55
KRRL 020355Z AUTO 15004KT 10SM VCTS CLR 13/08 A2992 RMK AO2 LTG DSNT SE AND S

2006/10/02 03:55
KRRT 020355Z AUTO 28006KT 10SM CLR 16/11 A2969 RMK AO2

2006/10/02 03:55
KSSC 020355Z 00000KT 7SM SKC 18/15 A3015 RMK SLP210

2006/10/02 03:59
KJYM 020359Z AUTO 00000KT 10SM CLR 07/05 A3012 RMK AO2

2006/10/02 03:55
KOOA 020355Z AUTO 18013G19KT 10SM CLR 24/11 A2991 RMK AO2

2006/10/02 03:58
KRYV 020358Z AUTO 13011G16KT 10SM CLR 16/10 A2998 RMK AO2

2006/10/02 03:59
KSAW 020359Z AUTO 18009KT 10SM CLR 11/09 A2996 RMK AO2 LTG DSNT SW

2006/10/02 03:55
KSAZ 020355Z AUTO 00000KT 10SM CLR 12/12 A2973 RMK AO2

2006/10/02 03:55
KSDA 020355Z AUTO 18010KT 10SM CLR 26/16 A2985 RMK AO2

2006/10/02 03:55
KSGS 020355Z AUTO 16004KT 10SM 20/12 A2975 RMK AO2 TSNO

2006/10/02 03:55
KSHL 020355Z AUTO 00000KT 10SM CLR 16/12 A2979 RMK AO2

2006/10/02 03:55
KSLB 020355Z AUTO 21015G19KT 10SM CLR 26/14 A2979 RMK AO2

2006/10/02 03:55
KSTE 020355Z AUTO 00000KT 10SM CLR 14/10 A2992 RMK AO2

2006/10/02 03:55
KSUW 020355Z AUTO 00000KT 10SM CLR 12/12 A2976 RMK AO2

2006/10/02 03:55
KTKC 020355Z AUTO 22006KT 10SM CLR 17/12 A2975 RMK AO2 LTG DSNT E PWINO

2006/10/02 03:55
KTNU 020355Z AUTO 18009KT 10SM CLR 22/13 A2988 RMK AO2

2006/10/02 03:57
KVLL 020357Z AUTO 00000KT 10SM CLR 11/08 A3013 RMK AO2

2006/10/02 03:55
KVTI 020355Z AUTO 18010G15KT 10SM CLR 23/11 A2988 RMK AO1

2006/10/02 03:45
KVVG 020345Z AUTO 00000KT 10SM 22/22 A3012 RMK AO2

2006/10/02 03:56
PAJZ 020356Z AUTO 11019G24KT 4SM -RA BR FEW028 OVC040 08/06 A2952 RMK AO2 TSNO T00770055 P0002 PK WND 11027/0320 SLP000 $

2006/10/02 03:59
KBAX 020359Z AUTO 00000KT 10SM CLR 05/04 A3011 RMK AO2

2006/10/02 04:01
KCPK 020401Z AUTO 00000KT 10SM SCT075 OVC090 15/13 A3015 RMK AO2

2006/10/02 03:59
KEZF 020359Z AUTO 00000KT 13/12 A3016 RMK AO1

2006/10/02 03:56
KFAT 020356Z 29003KT 8SM BKN085 OVC110 15/13 A2999 RMK AO2 RAE56 SLP154 P0000 T01500128

2006/10/02 03:56
KHND 020356Z AUTO 19006KT 10SM CLR 28/M02 A2991 RMK AO2 T02771016 SLP079 $

2006/10/02 03:56
KINW 020356Z AUTO 23011KT 10SM CLR 21/00 A3014 RMK AO2 SLP148 T02110000 TSNO

2006/10/02 03:51
KLNL 020351Z AUTO 15004KT 10SM CLR 11/06 A2991 RMK AO2 LTG DSNT S

2006/10/02 04:00
WSAP 020400Z 18010KT 5000 HZ FEW020 BKN300 31/25 Q1011

2006/10/02 03:45
KSWF 020345Z 27005KT 5SM BR SKC 11/10 A3007

2006/10/02 04:01
KRMG 020401Z AUTO 00000KT 2 1/2SM BR CLR 15/14 A3017

2006/10/02 04:00
PATQ 020400Z AUTO 29006KT 2SM BR OVC006 M01/M02 A2968 RMK AO2 TSNO $

2006/10/02 04:00
UTTT 020400Z 14002MPS 7000 FEW100 21/09 Q1018 NOSIG 08CLRD70

2006/10/02 04:00
PATQ 020400Z AUTO 29006KT 2SM BR OVC006 M01/M02 A2968

2006/10/02 04:00
LKMT 020400Z 23006KT 5000 BR NSC 13/13 Q1014 NOSIG

2006/10/02 04:00
LKPR 020400Z 23009KT 9999 FEW025 16/14 Q1013 NOSIG

2006/10/02 04:00
LKTB 020400Z 00000KT 1600 BR OVC002 12/11 Q1015 TEMPO 1500 BR

2006/10/02 04:00
LWSK 020400Z 00000KT CAVOK 10/08 Q1021 TEMPO 5000 BR

2006/10/02 04:01
KCPK 020401Z AUTO 00000KT 10SM SCT075 OVC090 15/13 A3015 RMK AO2

2006/10/02 04:01
KFKN 020401Z AUTO 00000KT 10SM CLR 14/12 A3014 RMK AO1

2006/10/02 04:02
KFYJ 020402Z AUTO 00000KT 7SM SCT080 15/14 A3017 RMK AO1

2006/10/02 04:01
KGEV 020401Z AUTO 30004KT 10SM CLR 16/07 A3026 RMK AO2

2006/10/02 04:01
KHDC 020401Z AUTO 00000KT 4SM BR CLR 20/19 A3013 RMK AO2

2006/10/02 04:01
KIPJ 020401Z AUTO 00000KT 7SM CLR 13/12 A3019 RMK AO1

2006/10/02 03:59
PTYA 020359Z 24015G25KT 9SM -SHRA SCT015CB BKN130 OVC290 27/24 A2959 RMK PK WND 24030/35 CB VC ALQDS SLP022 T02690244

2006/10/02 03:55
KTKC 020355Z AUTO 22006KT 10SM CLR 17/12 A2975 RMK AO2 LTG DSNT E PWINO

2006/10/02 03:55
KVTI 020355Z AUTO 18010G15KT 10SM CLR 23/11 A2988 RMK AO1

2006/10/02 03:56
KFAT 020356Z 29003KT 8SM BKN085 OVC110 15/13 A2999 RMK AO2 RAE56 SLP154 P0000 T01500128

2006/10/02 03:56
KINW 020356Z AUTO 23011KT 10SM CLR 21/00 A3014 RMK AO2 SLP148 T02110000 TSNO

2006/10/02 03:55
KTKV 020355Z AUTO 15004KT 10SM CLR 12/07 A2990 RMK AO2

2006/10/02 03:50
EGCC 020350Z 21009KT 9999 -SHRA FEW020 SCT035 12/12 Q0997 TEMPO SHRA

2006/10/02 03:59
KPOU 020359Z AUTO 00000KT 1SM BR BKN080 OVC095 09/09 A3004 RMK AO2

2006/10/02 03:59
KSLK 020359Z AUTO 00000KT 6SM BR FEW010 SCT022 OVC060 10/09 A3001 RMK AO2

2006/10/02 04:00
KBFD 020400Z AUTO 00000KT 1 1/4SM BR FEW001 04/03 A3014 RMK AO2

2006/10/02 04:00
KDXR 020400Z AUTO 00000KT 1/2SM FG CLR 09/09 A3005 RMK AO2 P0001

2006/10/02 04:00
KMMK 020400Z AUTO 00000KT 1SM BR VV001 10/09 A3002 RMK AO2

2006/10/02 04:00
KPQL 020400Z AUTO 00000KT 1/4SM FG FEW001 21/19 A3012 RMK AO2

2006/10/02 04:00
PATQ 020400Z AUTO 29006KT 2SM BR OVC006 M01/M02 A2968 RMK AO2 TSNO $

2006/10/02 04:00
PATQ 020400Z AUTO 29006KT 2SM BR OVC006 M01/M02 A2968 RMK AO2 TSNO $

2006/10/02 03:55
KBKF 020355Z 20004KT 25SM FEW110 SCT220 19/00 A3007 RMK SLP123

2006/10/02 03:59
KDMA 020359Z 00000KT 20SM SCT250 25/03 A2999 RMK SLP118

2006/10/02 03:55
KEDW 020355Z 23005KT 45SM SCT120 BKN200 19/12 A2995 RMK SLP115

2006/10/02 03:57
KGRF 020357Z 34002KT 7SM FEW050 FEW200 13/07 A3000 RMK SLP161

2006/10/02 03:55
KHRT 020355Z 00000KT 7SM CLR 26/24 A3011 RMK AO2A SLP197 T02580239 $

2006/10/02 03:55
KMUO 020355Z 35007KT 20SM BKN180 14/M05 A2986 RMK SLP103 FIRST

2006/10/02 03:56
KNKX 020356Z 30004KT 7SM FEW010 SCT100 BKN150 18/16 A2993 RMK SLP132 T01830156

2006/10/02 03:55
KSUU 020355Z 25008KT 20SM BKN120 BKN200 14/09 A2999 RMK SLP158

2006/10/02 03:56
KSVN 020356Z VRB02KT 7SM FEW020 SCT070 23/21 A3011 RMK SLP196 WND DATA ESTMD

2006/10/02 04:00
TTPP 020400Z 00000KT 9999 FEW020 BKN300 26/24 Q1012 NOSIG

2006/10/02 03:55
KBIX 020355Z 00000KT 7SM FEW250 25/23 A3011 RMK SLP198 LAST

2006/10/02 03:55
KGTB 020355Z 23002KT 7SM FEW030 SCT050 BKN090 11/11 A3004 RMK SLP173 RCRNR

2006/10/02 03:55
KLFI 020355Z VRB02KT 7SM SCT060 18/15 A3014 RMK SLP207

2006/10/02 03:55
KLRF 020355Z 07001KT 7SM BKN250 21/19 A3010 RMK SLP192

2006/10/02 03:56
KNCA 020356Z 00000KT 7MS SKC 15/14 A3017 RMK SLP216 T01500139

2006/10/02 03:56
KNYL 020356Z 16005KT 7SM SCT050 SCT100 BKN180 BKN200 31/13 A2980 RMK SLP086

2006/10/02 03:55
KSSC 020355Z 00000KT 7SM SKC 18/15 A3015 RMK SLP210

2006/10/02 03:55
PABA 020355Z AUTO 14008KT 10SM SCT055 OVC070 00/M01 A2973 RMK AO1 T00001005

2006/10/02 04:00
OYSN 020400Z 23005KT CAVOK 13/M05 Q1028

2006/10/02 04:00
OSAP 020400Z 25004KT 7000NSC 18/16 Q1012

2006/10/02 04:01
CYZY 020401Z AUTO 12003KT 9SM OVC013 01/00 A3002

2006/10/02 03:53
RJNK 020353Z 33004KT 6000 -RA SCT003 SCT004 BKN030 19/17 Q1012 RMK 3ST003 4ST004 6SC030 A2989 3ST003 OVER AD

2006/10/02 04:00
K47A 020400Z AUTO 35003KT 10SM CLR 17/12 A3018 RMK AO2

2006/10/02 04:00
KAVC 020400Z AUTO 33003KT 10SM CLR 18/14 A3023 RMK AO1

2006/10/02 03:59
KBQK 020359Z AUTO 00000KT 7SM SCT070 20/19 A3012 RMK AO2

2006/10/02 04:01
KFKN 020401Z AUTO 00000KT 10SM CLR 14/12 A3014 RMK AO1

2006/10/02 04:00
KFVX 020400Z AUTO 00000KT 10SM CLR 12/11 A3020 RMK AO2

2006/10/02 04:02
KFYJ 020402Z AUTO 00000KT 7SM SCT080 15/14 A3017 RMK AO1

2006/10/02 04:01
KGEV 020401Z AUTO 30004KT 10SM CLR 16/07 A3026 RMK AO2

2006/10/02 04:01
KHDC 020401Z AUTO 00000KT 4SM BR CLR 20/19 A3013 RMK AO2

2006/10/02 04:01
KIPJ 020401Z AUTO 00000KT 7SM CLR 13/12 A3019 RMK AO1

2006/10/02 04:00
KJGG 020400Z AUTO 00000KT 10SM BKN070 17/17 A3016 RMK AO1

2006/10/02 04:00
KTTF 020400Z AUTO 00000KT 10SM CLR 09/08 A3012 RMK AO2

2006/10/02 03:56
PADM 020356Z AUTO 06006KT 10SM OVC050 09/06 A2955 RMK AO2 TSNO T00940055 SLP994 $

2006/10/02 03:56
PALG 020356Z AUTO 08007KT 10SM OVC060 10/05 A2952 RMK AO2 TSNO T01000050 SLP998 $

2006/10/02 03:50
PALP 020350Z 21006KT 10SM OVC006 00/M01 A2971

2006/10/02 04:00
GMME 020400Z 00000KT 0600 FG BKN010 SCT016 17/17 Q1015 NOSIG

2006/10/02 04:00
GMMX 020400Z VRB01KT CAVOK 21/16 Q1017 NOSIG

2006/10/02 04:00
GMTT 020400Z AUTO 08006KT 8000 FEW016 SCT233 20/16 Q1014 NOSIG

2006/10/02 04:00
OJAI 020400Z 00000KT 8000 SKC 12/10 Q1014

2006/10/02 03:50
LTAI 020350Z 32009KT 9999 FEW030 21/10 Q1011 NOSIG RMK RWY18C 33007KT RWY36R 32009KT RWY18L 31008KT

2006/10/02 03:55
KQTU 020355Z 16004KT 9000 BKN100 25/10 A2985 RMK SLP097

2006/10/02 03:56
PALG 020356Z AUTO 08007KT 10SM OVC060 10/05 A2952 RMK AO2 TSNO T01000050 SLP998 $

2006/10/02 03:50
PALP 020350Z 21006KT 10SM OVC006 00/M01 A2971

2006/10/02 03:48
RJAH 020348Z 35010KT 9999 -DZ FEW005 BKN008 OVC015 18/18 Q1011 RMK 2ST005 6ST008 8SC015 A2986

2006/10/02 03:50
OIYY 020350Z 12004KT CAVOK 20/M03 Q1020 A3015 NOSIG

2006/10/02 04:00
WSSL 020400Z 19009KT 5000 HZ FEW020TCU BKN300 32/21 Q1011 RMK 0 330Z Q1011

2006/10/02 04:00
WSSS 020400Z 20007KT 160V230 4000 HZ FEW018 BKN270 31/23 Q1011 NOSIG

2006/10/02 03:56
KWJF 020356Z AUTO 27004KT 10SM CLR 18/13 A2997 RMK AO2 SLP136 T01780128

2006/10/02 03:50
TJPS 020350Z 05004KT 8SM FEW025 26/22 A2998

2006/10/02 03:55
KCSQ 020355Z AUTO 18015G20KT 10SM CLR 23/17 A2989 RMK AO2

2006/10/02 03:55
KDEH 020355Z AUTO 19008G15KT 10SM CLR 24/05 A2987 RMK AO2

2006/10/02 03:56
KDIJ 020356Z AUTO 10005KT 10SM CLR 09/M02 A3008 RMK AO2 T00941022 SLP115 $

2006/10/02 03:55
KDNS 020355Z AUTO 17011G15KT 10SM CLR 23/16 A2983 RMK AO2

2006/10/02 03:55
KEBS 020355Z AUTO 17008KT 10SM CLR 22/14 A2981 RMK AO2

2006/10/02 03:55
KEOK 020355Z AUTO 20015G22KT 10SM CLR 25/12 A2998 RMK AO2

2006/10/02 03:55
KFFL 020355Z AUTO 18010KT 10SM CLR 25/12 A2994 RMK AO2

2006/10/02 03:55
KFSW 020355Z AUTO 18007KT 10SM CLR 25/11 A2998 RMK AO2

2006/10/02 03:55
KGGI 020355Z AUTO 17011KT 10SM CLR 22/11 A2989 RMK AO2

2006/10/02 03:55
KHNR 020355Z AUTO 18008KT 10SM CLR 25/16 A2985 RMK AO2

2006/10/02 03:55
KICL 020355Z AUTO 18007KT 10SM CLR 25/17 A2986 RMK AO2

2006/10/02 03:55
KIIB 020355Z AUTO 18010G15KT 10SM CLR 20/10 A2988 RMK AO1

2006/10/02 03:55
KIKV 020355Z AUTO 19008KT 10SM CLR 24/16 A2985 RMK AO2

2006/10/02 03:55
KLRJ 020355Z AUTO 26003KT 10SM CLR 17/14 A2977 RMK AO2

2006/10/02 03:55
KMPZ 020355Z AUTO 19014G20KT 10SM CLR 24/10 A2996 RMK AO1

2006/10/02 03:55
KMUT 020355Z AUTO 18014G18KT 10SM CLR 24/10 A2993 RMK AO2

2006/10/02 03:55
KMXO 020355Z AUTO 18008KT 10SM CLR 21/11 A2990 RMK AO2

2006/10/02 03:55
KOLZ 020355Z AUTO 18009KT 10SM CLR 21/11 A2988 RMK AO2

2006/10/02 03:53
KONT 020353Z COR 26004KT 6SM HZ SCT130 BKN200 21/14 A2994 RMK AO2 SLP129 T02110139

2006/10/02 03:55
KORC 020355Z AUTO 20004KT 10SM CLR 21/14 A2977 RMK AO2

2006/10/02 03:55
KOXV 020355Z AUTO 19012KT 10SM CLR 24/16 A2989 RMK AO2

2006/10/02 03:55
KPEA 020355Z AUTO 17008KT 10SM CLR 22/12 A2989 RMK AO1

2006/10/02 03:55
KRDK 020355Z AUTO 19010G15KT 10SM CLR 26/16 A2984 RMK AO2

2006/10/02 03:55
KRRL 020355Z AUTO 15004KT 10SM VCTS CLR 13/08 A2992 RMK AO2 LTG DSNT SE AND S

2006/10/02 03:55
KRRT 020355Z AUTO 28006KT 10SM CLR 16/11 A2969 RMK AO2

2006/10/02 03:59
KJYM 020359Z AUTO 00000KT 10SM CLR 07/05 A3012 RMK AO2

2006/10/02 03:55
KOOA 020355Z AUTO 18013G19KT 10SM CLR 24/11 A2991 RMK AO2

2006/10/02 03:58
KRYV 020358Z AUTO 13011G16KT 10SM CLR 16/10 A2998 RMK AO2

2006/10/02 03:59
KSAW 020359Z AUTO 18009KT 10SM CLR 11/09 A2996 RMK AO2 LTG DSNT SW

2006/10/02 03:55
KSAZ 020355Z AUTO 00000KT 10SM CLR 12/12 A2973 RMK AO2

2006/10/02 03:55
KSDA 020355Z AUTO 18010KT 10SM CLR 26/16 A2985 RMK AO2

2006/10/02 03:55
KSGS 020355Z AUTO 16004KT 10SM 20/12 A2975 RMK AO2 TSNO

2006/10/02 03:55
KSHL 020355Z AUTO 00000KT 10SM CLR 16/12 A2979 RMK AO2

2006/10/02 03:55
KSLB 020355Z AUTO 21015G19KT 10SM CLR 26/14 A2979 RMK AO2

2006/10/02 03:55
KSTE 020355Z AUTO 00000KT 10SM CLR 14/10 A2992 RMK AO2

2006/10/02 03:55
KSUW 020355Z AUTO 00000KT 10SM CLR 12/12 A2976 RMK AO2

2006/10/02 03:55
KTNU 020355Z AUTO 18009KT 10SM CLR 22/13 A2988 RMK AO2

2006/10/02 03:57
KVLL 020357Z AUTO 00000KT 10SM CLR 11/08 A3013 RMK AO2

2006/10/02 03:45
KVVG 020345Z AUTO 00000KT 10SM 22/22 A3012 RMK AO2

2006/10/02 03:59
KBAX 020359Z AUTO 00000KT 10SM CLR 05/04 A3011 RMK AO2

2006/10/02 03:59
KEZF 020359Z AUTO 00000KT 13/12 A3016 RMK AO1

2006/10/02 03:56
KHND 020356Z AUTO 19006KT 10SM CLR 28/M02 A2991 RMK AO2 T02771016 SLP079 $

2006/10/02 03:51
KLNL 020351Z AUTO 15004KT 10SM CLR 11/06 A2991 RMK AO2 LTG DSNT S

2006/10/02 03:59
KMCD 020359Z AUTO 00000KT 10SM SCT100 11/08 A3008 RMK AO2

2006/10/02 03:59
KPHN 020359Z AUTO 00000KT 1/2SM FG VV005 05/04 A3014 RMK AO2

2006/10/02 03:55
KTOB 020355Z AUTO 18009G14KT 10SM 22/14 A2980 RMK AO2 LTG DSNT E

2006/10/02 03:55
KTWM 020355Z AUTO 36003KT 10SM CLR 08/06 A2978 RMK AO2

2006/10/02 03:55
KUES 020355Z AUTO 12011G16KT 10SM SCT110 17/09 A3003 RMK AO2

2006/10/02 03:55
KULM 020355Z AUTO 15003KT 10SM CLR 18/13 A2973 RMK AO2

2006/10/02 03:55
KVVV 020355Z AUTO 00000KT 10SM CLR 19/13 A2972 RMK AO2

2006/10/02 03:48
KVWU 020348Z AUTO 00000KT 10SM CLR 16/12 A2969 RMK AO2

2006/10/02 03:55
KXVG 020355Z AUTO 00000KT 10SM CLR 11/10 A2973 RMK AO2

2006/10/02 04:00
K47A 020400Z AUTO 35003KT 10SM CLR 17/12 A3018 RMK AO2

2006/10/02 04:00
KAVC 020400Z AUTO 33003KT 10SM CLR 18/14 A3023 RMK AO1

2006/10/02 03:59
KBQK 020359Z AUTO 00000KT 7SM SCT070 20/19 A3012 RMK AO2

2006/10/02 04:00
KFVX 020400Z AUTO 00000KT 10SM CLR 12/11 A3020 RMK AO2

2006/10/02 04:00
KJGG 020400Z AUTO 00000KT 10SM BKN070 17/17 A3016 RMK AO1

2006/10/02 04:00
KTTF 020400Z AUTO 00000KT 10SM CLR 09/08 A3012 RMK AO2

2006/10/02 04:00
EPGD 020400Z 21004KT 2500 BR BKN002 BKN004 12/11 Q1008

2006/10/02 04:00
EPKK 020400Z 00000KT 2000 BR MIFG FEW100 BKN200 12/12 Q1014

2006/10/02 04:00
EPKT 020400Z 20005KT 2000 BR NSC 14/14 Q1013

2006/10/02 04:00
EPPO 020400Z 19004KT 2500 BR NSC 13/13 Q1010

2006/10/02 04:00
EPRZ 020400Z 23004KT 9999 SCT043 BKN100 13/12 Q1014

2006/10/02 04:00
EPSC 020400Z 16006KT 3000 BR FEW002 BKN050 14/14 Q1007

2006/10/02 04:00
EPWA 020400Z 23004KT 180V260 3000 BR SCT005 BKN012 15/14 Q1011 TEMPO 2000 BR SCT004

2006/10/02 03:55
KQTI 020355Z 36004KT 9999 SCT100 SCT200 24/08 A2989 RMK SLP106

2006/10/02 04:01
KRMG 020401Z AUTO 00000KT 2 1/2SM BR CLR 15/14 A3017 RMK AO2 TSNO

2006/10/02 04:00
DTMB 020400Z 15002KT 8000 SKC 22/22 Q1018 NOSIG

2006/10/02 04:00
DTTA 020400Z 14002KT 6000 FEW030 22/21 Q1017 NOSIG

2006/10/02 04:00
DTTB 020400Z 36002KT CAVOK 19/19 Q1017

2006/10/02 04:00
DTTJ 020400Z 19006KT 5000 SKC 21/21 Q1018 NOSIG

2006/10/02 04:00
DTTK 020400Z 25002KT CAVOK 22/17 Q1018

2006/10/02 04:00
DTTL 020400Z 18004KT 6000 BKN016 24/23 Q1017

2006/10/02 04:00
DTTN 020400Z 26002KT 8000 SKC 19/11 Q1018

2006/10/02 04:00
DTTX 020400Z 24004KT CAVOK 20/18 Q1018 NOSIG

2006/10/02 04:00
DTTZ 020400Z 11010KT CAVOK 23/12 Q1018 NOSIG

2006/10/02 03:50
EGDG 020350Z 21009KT 9999 FEW010 BKN045 13/12 Q1003 BLU

2006/10/02 03:45
LHDC 020345Z 18005KT CAVOK 13/11 Q1017 NOSIG

2006/10/02 03:45
LHKE 020345Z 00000MPS 1500 MIFG FEW200 11/10 Q1017 RMK RWY12 00000MPS AMB

2006/10/02 03:45
LHPP 020345Z 28002KT CAVOK 15/13 Q1018

2006/10/02 03:45
LHSN 020345Z VRB02MPS 6000 NSC 13/12 Q1017 TEMPO 5000 BR RMK WHT

2006/10/02 03:45
LHUD 020345Z 15004KT CAVOK 14/12 Q1017

2006/10/02 04:00
K1A5 020400Z AUTO 00000KT 7SM CLR 10/08 A3026 RMK AO2

2006/10/02 04:00
K1P1 020400Z AUTO 00000KT 10SM BKN034 OVC044 09/08 A3003 RMK AO2

2006/10/02 04:00
K3A1 020400Z AUTO 00000KT 10SM CLR 13/11 A3020 RMK AO2

2006/10/02 04:00
K3I2 020400Z AUTO 00000KT 7SM CLR 11/09 A3020 RMK AO2

2006/10/02 03:59
K48I 020359Z AUTO 00000KT 1/2SM FG OVC001 11/10 A3021 RMK AO2

2006/10/02 03:57
K8A0 020357Z AUTO 04005KT 10SM CLR 18/12 A3018 RMK AO2

2006/10/02 04:00
KALX 020400Z AUTO 00000KT 4SM BR CLR 20/18 A3016 RMK AO1

2006/10/02 04:00
KBCB 020400Z AUTO 00000KT 10SM CLR 09/09 A3026 RMK AO2

2006/10/02 04:00
KCJR 020400Z AUTO 00000KT 7SM CLR 10/08 A3018 RMK AO2

2006/10/02 04:00
KCPC 020400Z AUTO 00000KT 7SM SCT060 16/15 A3015 RMK AO2

2006/10/02 03:57
KEHO 020357Z AUTO 00000KT 10SM CLR 16/13 A3019 RMK AO2

2006/10/02 04:00
KEMV 020400Z AUTO 32003KT 10SM CLR 15/15 A3016 RMK AO2

2006/10/02 04:00
KEYF 020400Z AUTO 00000KT 10SM CLR 16/13 A3016 RMK AO2

2006/10/02 03:55
KGTU 020355Z AUTO 17006KT 10SM CLR 26/17 A3010 RMK AO1

2006/10/02 03:55
KHYI 020355Z AUTO 16010KT 10SM CLR 24/18 A3011 RMK AO1

2006/10/02 03:58
KIER 020358Z AUTO 00000KT 10SM CLR 22/20 A3010 RMK AO2

2006/10/02 03:55
KILE 020355Z AUTO 18010KT 10SM CLR 26/17 A3010 RMK AO1

2006/10/02 04:01
KJQF 020401Z AUTO 00000KT 7SM CLR 13/12 A3018 RMK AO2

2006/10/02 04:01
KMFV 020401Z AUTO 28003KT 5SM BR CLR 14/14 A3014 RMK AO2

2006/10/02 03:55
KOCH 020355Z AUTO 00000KT 10SM CLR 23/21 A3012 RMK AO1

2006/10/02 03:55
KPRX 020355Z AUTO 17010KT 10SM CLR 26/16 A3007 RMK AO1

2006/10/02 03:55
KPWG 020355Z AUTO 17012KT 10SM CLR 26/18 A3006 RMK AO1

2006/10/02 04:04
KRUQ 020404Z AUTO 00000KT 10SM CLR 14/13 A3018 RMK AO2

2006/10/02 04:00
KSVH 020400Z AUTO 32004KT 10SM CLR 13/11 A3019 RMK AO2

2006/10/02 03:55
KTPL 020355Z AUTO 18011KT 10SM CLR 26/17 A3007 RMK AO1

2006/10/02 03:57
KACP 020357Z AUTO 00000KT 3SM BR SCT026 19/17 A3012 RMK AO2

2006/10/02 04:01
KASJ 020401Z AUTO 00000KT 5SM HZ CLR 17/13 A3014 RMK AO2

2006/10/02 04:00
KAYS 020400Z AUTO 17004KT 10SM SCT065 23/18 A3011 RMK AO1

2006/10/02 04:00
KBGE 020400Z AUTO 00000KT 7SM CLR 24/20 A3011 RMK AO2

2006/10/02 04:00
KCCO 020400Z AUTO 00000KT 2 1/2SM CLR 14/14 A3017 RMK AO1

2006/10/02 04:00
KDPL 020400Z AUTO 00000KT 5SM BR CLR 12/11 A3017 RMK AO2

2006/10/02 04:00
KGHG 020400Z AUTO 30009G15KT 010V350 10SM OVC005 12/12 A2996 RMK AO2

2006/10/02 04:00
KGWW 020400Z AUTO 00000KT 7SM CLR 13/12 A3016 RMK AO2

2006/10/02 04:00
KHLX 020400Z AUTO 24005KT 10SM CLR 14/11 A3027 RMK AO1

2006/10/02 04:00
KHNZ 020400Z AUTO 26003KT 10SM CLR 15/12 A3017 RMK AO2

2006/10/02 04:00
KHSP 020400Z AUTO 30006KT 10SM CLR 11/08 A3026 RMK AO2

2006/10/02 04:00
KISO 020400Z AUTO 00000KT 7SM CLR 14/13 A3016 RMK AO2

2006/10/02 04:01
KPTB 020401Z AUTO 00000KT 10SM CLR 15/13 A3016 RMK AO2

2006/10/02 04:01
KSFQ 020401Z AUTO 00000KT 10SM CLR 14/13 A3015 RMK AO2

2006/10/02 04:01
KTDF 020401Z AUTO 00000KT 4SM CLR 12/12 A3019 RMK AO1

2006/10/02 04:02
KUNV 020402Z AUTO 23004KT 10SM CLR 09/07 A3014 RMK AO2

2006/10/02 04:02
KVUJ 020402Z AUTO 00000KT 10SM CLR 13/12 A3022 RMK AO2

2006/10/02 03:59
KBIJ 020359Z AUTO 00000KT 3SM BR SCT065 21/19 A3012 RMK AO2

2006/10/02 04:00
KDBN 020400Z AUTO 00000KT 10SM CLR 17/17 A3012 RMK AO1

2006/10/02 03:58
KDNN 020358Z AUTO 35003KT 10SM CLR 14/14 A3018 RMK AO2

2006/10/02 04:00
KDRI 020400Z AUTO 00000KT 10SM CLR 21/19 A3013 RMK AO2

2006/10/02 04:01
KEXX 020401Z AUTO 00000KT 10SM CLR 14/13 A3019 RMK AO2

2006/10/02 04:03
KFQD 020403Z AUTO 00000KT 10SM SCT090 16/13 A3020 RMK AO2

2006/10/02 03:58
KI16 020358Z AUTO 00000KT 10SM SCT001 09/08 A3024 RMK AO2

2006/10/02 04:01
KIDI 020401Z AUTO 00000KT 10SM SCT060 07/07 A3017 RMK AO2

2006/10/02 04:00
KJKA 020400Z AUTO 00000KT 3SM BR CLR 25/23 A3012 RMK AO2

2006/10/02 04:00
KJYO 020400Z AUTO 00000KT 10SM CLR 11/09 A3016 RMK AO2

2006/10/02 03:58
KLNP 020358Z AUTO 00000KT 10SM CLR 13/09 A3027 RMK AO1

2006/10/02 04:01
KLOM 020401Z AUTO 00000KT 10SM CLR 11/09 A3009 RMK AO1

2006/10/02 04:04
KMDQ 020404Z AUTO 00000KT 10SM CLR 15/14 A3019 RMK AO2

2006/10/02 04:01
KMKJ 020401Z AUTO 00000KT 10SM SCT090 10/07 A3032 RMK AO1

2006/10/02 04:00
KMTV 020400Z AUTO 00000KT 10SM CLR 12/11 A3022 RMK AO2

2006/10/02 04:00
KOKV 020400Z AUTO 00000KT 10SM CLR 11/08 A3016 RMK AO2

2006/10/02 04:00
KOMH 020400Z AUTO 00000KT 10SM CLR 12/10 A3018 RMK AO1

2006/10/02 04:02
KONX 020402Z AUTO 00000KT 10SM CLR 16/14 A3014 RMK AO2

2006/10/02 04:02
KRCZ 020402Z AUTO 10SM CLR 18/12 A3016 RMK AO2 PWINO

2006/10/02 04:01
PABR 020401Z 34006KT 10SM OVC010 00/M02 A2966 RMK AO2

2006/10/02 04:01
PASO 020401Z AUTO 00000KT 6SM -RA BR SCT016 BKN033 OVC050 09/08 A2966 RMK AO2 P0000 TSNO

2006/10/02 04:01
KCQX 020401Z AUTO 00000KT 4SM BR SCT001 SCT019 SCT032 14/13 A2993 RMK AO2

2006/10/02 03:59
YSSY 020359Z 16017KT CAVOK 24/07 Q1016 FM0359 16020G30KT 9999 SCT030 SCT050 FM0359 MOD TURB BLW 5000FT

2006/10/02 04:02
CYTE 020402Z AUTO 00000KT 9SM OVC006 OVC028 01/ A2987

2006/10/02 04:01
PABR 020401Z 34006KT 10SM OVC010 00/M02 A2966

2006/10/02 03:53
PABR 020353Z 34006KT 9SM SCT008 SCT011 BKN026 00/M01 A2966

2006/10/02 03:53
PACD 020353Z 26027G35KT 10SM -RA BKN011 BKN018 BKN140 08/07 A2954

2006/10/02 03:57
PAED 020357Z VRB06KT 10SM FEW050 BKN085 05/05 A2979

2006/10/02 03:59
PAEI 020359Z VRB01KT 10SM SCT120 SCT150 BKN200 02/00 A2974

2006/10/02 03:53
PAEN 020353Z 03006KT 10SM SCT070 07/04 A2973

2006/10/02 03:53
PAFA 020353Z 00000KT 10SM BKN080 OVC110 04/M01 A2976

2006/10/02 03:56
PAFS 020356Z AUTO 08008KT 10SM FEW065 SCT100 07/M02 A2965

2006/10/02 03:53
PAJN 020353Z 07007KT 10SM OVC065 07/04 A3011

2006/10/02 03:54
PAKN 020354Z 12003KT 10SM -RA OVC046 09/07 A2944

2006/10/02 03:53
PAKT 020353Z 19011KT 10SM CLR 03/02 A3014

2006/10/02 03:53
PANC 020353Z 34007KT 10SM FEW015 SCT055 BKN080 BKN130 04/03 A2980

2006/10/02 03:53
PAOM 020353Z 03013KT 10SM BKN030 OVC090 06/02 A2962

2006/10/02 03:53
PAOR 020353Z 11005KT 10SM FEW065 SCT080 OVC100 01/M01 A2982

2006/10/02 03:53
PAOT 020353Z 36007KT 10SM FEW035 SCT250 04/M01 A2971

2006/10/02 03:56
PARY 020356Z AUTO 09008KT 4SM BR BKN001 BKN005 OVC022 02/01 A2968

2006/10/02 03:53
PASC 020353Z 00000KT 10SM BKN010 OVC043 01/01 A2971

2006/10/02 03:53
PASI 020353Z 10005KT 10SM BKN048 07/04 A3011

2006/10/02 03:56
PATQ 020356Z AUTO 29006KT 1 1/4SM BR OVC006 M01/M02 A2968

2006/10/02 03:56
PAVD 020356Z 00000KT 10SM FEW030 OVC050 05/03 A2997

2006/10/02 03:56
PAWG 020356Z 16006KT 10SM SCT037 BKN050 06/02 A3013

2006/10/02 03:56
PFYU 020356Z 03003KT 10SM OVC070 01/M01 A2974

2006/10/02 03:59
PTKR 020359Z 26016G26KT 15SM SCT018 BKN120 OVC300 30/24 A2961 RMK PK WND 26030/36 SLP030 T02960241

2006/10/02 03:58
PGRO 020358Z 24013KT 5SM -RA SCT010CB BKN050 OVC150 26/24 A2954 RMK CB ALQDS MOV NE

2006/10/02 04:00
DIAP 020400Z 21005KT 8000 SCT011 BKN030 25/25 Q1012 NOSI8G

2006/10/02 04:00
FBSK 020400Z 00000KT CAVOK 18/05 Q1012 NOSIG

2006/10/02 04:00
HDAM 020400Z 11006KT 9999 FEW020 30/28 Q1010

2006/10/02 04:00
HECA 020400Z 30001KT 6000 SKC 22/18 Q1012 NOSIG

2006/10/02 03:50
HLLT 020350Z 12002KT CAVOK 18/15 Q1019

2006/10/02 04:01
KJQF 020401Z AUTO 00000KT 7SM CLR 13/12 A3018 RMK AO2

2006/10/02 04:01
KMFV 020401Z AUTO 28003KT 5SM BR CLR 14/14 A3014 RMK AO2

2006/10/02 04:04
KRUQ 020404Z AUTO 00000KT 10SM CLR 14/13 A3018 RMK AO2

2006/10/02 04:01
KASJ 020401Z AUTO 00000KT 5SM HZ CLR 17/13 A3014 RMK AO2

2006/10/02 04:01
KPTB 020401Z AUTO 00000KT 10SM CLR 15/13 A3016 RMK AO2

2006/10/02 04:01
KSFQ 020401Z AUTO 00000KT 10SM CLR 14/13 A3015 RMK AO2

2006/10/02 04:01
KTDF 020401Z AUTO 00000KT 4SM CLR 12/12 A3019 RMK AO1

2006/10/02 04:02
KUNV 020402Z AUTO 23004KT 10SM CLR 09/07 A3014 RMK AO2

2006/10/02 04:02
KVUJ 020402Z AUTO 00000KT 10SM CLR 13/12 A3022 RMK AO2

2006/10/02 04:01
KEXX 020401Z AUTO 00000KT 10SM CLR 14/13 A3019 RMK AO2

2006/10/02 04:03
KFQD 020403Z AUTO 00000KT 10SM SCT090 16/13 A3020 RMK AO2

2006/10/02 04:01
KIDI 020401Z AUTO 00000KT 10SM SCT060 07/07 A3017 RMK AO2

2006/10/02 04:01
KLOM 020401Z AUTO 00000KT 10SM CLR 11/09 A3009 RMK AO1

2006/10/02 04:04
KMDQ 020404Z AUTO 00000KT 10SM CLR 15/14 A3019 RMK AO2

2006/10/02 04:01
KMKJ 020401Z AUTO 00000KT 10SM SCT090 10/07 A3032 RMK AO1

2006/10/02 04:02
KONX 020402Z AUTO 00000KT 10SM CLR 16/14 A3014 RMK AO2

2006/10/02 04:02
KRCZ 020402Z AUTO 10SM CLR 18/12 A3016 RMK AO2 PWINO

2006/10/02 04:01
PABR 020401Z 34006KT 10SM OVC010 00/M02 A2966 RMK AO2

2006/10/02 04:01
PASO 020401Z AUTO 00000KT 6SM -RA BR SCT016 BKN033 OVC050 09/08 A2966 RMK AO2 P0000 TSNO

2006/10/02 04:01
KCQX 020401Z AUTO 00000KT 4SM BR SCT001 SCT019 SCT032 14/13 A2993 RMK AO2

2006/10/02 03:55
PABA 020355Z AUTO 14008KT 10SM SCT055 OVC070 00/M01 A2973

2006/10/02 03:53
PABI 020353Z 12008KT 10SM OVC110 03/M01 A2976

2006/10/02 03:55
PACZ 020355Z AUTO 14004KT 10SM SCT025 OVC041 08/08

2006/10/02 03:56
PADK 020356Z AUTO 33003KT 4SM FEW027 SCT048 09/07 A2958

2006/10/02 03:53
PADQ 020353Z 13014KT 5SM -RA BR FEW008 BKN015 OVC033 09/08 A2961

2006/10/02 03:55
PAEH 020355Z AUTO SCT010 SCT017

2006/10/02 03:55
PAGA 020355Z AUTO 08009KT 10SM OVC028 04/02 A2966

2006/10/02 03:55
PASV 020355Z AUTO 11011G15KT 10SM SCT041 BKN049 OVC100 08/00 A2958

2006/10/02 03:55
PATC 020355Z AUTO 02017KT 10SM CLR 02/M01 A2969

2006/10/02 03:55
PATL 020355Z AUTO 00000KT 10SM SCT039 SCT050 BKN070 04/03 A2964

2006/10/02 03:59
K48I 020359Z AUTO 00000KT 1/2SM FG OVC001 11/10 A3021 RMK AO2

2006/10/02 04:00
KAYS 020400Z AUTO 17004KT 10SM SCT065 23/18 A3011 RMK AO1

2006/10/02 03:56
TJSJ 020356Z 12003KT 10SM FEW030 SCT090 27/24 A2999 RMK AO2 SLP154 T02670239 403220256 $

2006/10/02 04:00
KDBN 020400Z AUTO 00000KT 10SM CLR 17/17 A3012 RMK AO1

2006/10/02 03:50
K9BB 020350Z 24008KT 20SM BKN150 17/01 RMK NOSPECI LAST T01720006

2006/10/02 04:00
K1A5 020400Z AUTO 00000KT 7SM CLR 10/08 A3026 RMK AO2

2006/10/02 04:00
K1P1 020400Z AUTO 00000KT 10SM BKN034 OVC044 09/08 A3003 RMK AO2

2006/10/02 04:00
K3A1 020400Z AUTO 00000KT 10SM CLR 13/11 A3020 RMK AO2

2006/10/02 04:00
K3I2 020400Z AUTO 00000KT 7SM CLR 11/09 A3020 RMK AO2

2006/10/02 03:57
K8A0 020357Z AUTO 04005KT 10SM CLR 18/12 A3018 RMK AO2

2006/10/02 04:00
KALX 020400Z AUTO 00000KT 4SM BR CLR 20/18 A3016 RMK AO1

2006/10/02 04:00
KBCB 020400Z AUTO 00000KT 10SM CLR 09/09 A3026 RMK AO2

2006/10/02 04:00
KCJR 020400Z AUTO 00000KT 7SM CLR 10/08 A3018 RMK AO2

2006/10/02 04:00
KCPC 020400Z AUTO 00000KT 7SM SCT060 16/15 A3015 RMK AO2

2006/10/02 03:57
KEHO 020357Z AUTO 00000KT 10SM CLR 16/13 A3019 RMK AO2

2006/10/02 04:00
KEMV 020400Z AUTO 32003KT 10SM CLR 15/15 A3016 RMK AO2

2006/10/02 04:00
KEYF 020400Z AUTO 00000KT 10SM CLR 16/13 A3016 RMK AO2

2006/10/02 03:55
KGTU 020355Z AUTO 17006KT 10SM CLR 26/17 A3010 RMK AO1

2006/10/02 03:55
KHYI 020355Z AUTO 16010KT 10SM CLR 24/18 A3011 RMK AO1

2006/10/02 03:58
KIER 020358Z AUTO 00000KT 10SM CLR 22/20 A3010 RMK AO2

2006/10/02 03:55
KILE 020355Z AUTO 18010KT 10SM CLR 26/17 A3010 RMK AO1

2006/10/02 03:55
KOCH 020355Z AUTO 00000KT 10SM CLR 23/21 A3012 RMK AO1

2006/10/02 03:55
KPRX 020355Z AUTO 17010KT 10SM CLR 26/16 A3007 RMK AO1

2006/10/02 03:55
KPWG 020355Z AUTO 17012KT 10SM CLR 26/18 A3006 RMK AO1

2006/10/02 04:00
KSVH 020400Z AUTO 32004KT 10SM CLR 13/11 A3019 RMK AO2

2006/10/02 03:55
KTPL 020355Z AUTO 18011KT 10SM CLR 26/17 A3007 RMK AO1

2006/10/02 03:57
KACP 020357Z AUTO 00000KT 3SM BR SCT026 19/17 A3012 RMK AO2

2006/10/02 04:00
KBGE 020400Z AUTO 00000KT 7SM CLR 24/20 A3011 RMK AO2

2006/10/02 04:00
KCCO 020400Z AUTO 00000KT 2 1/2SM CLR 14/14 A3017 RMK AO1

2006/10/02 04:00
KDPL 020400Z AUTO 00000KT 5SM BR CLR 12/11 A3017 RMK AO2

2006/10/02 04:00
KGHG 020400Z AUTO 30009G15KT 010V350 10SM OVC005 12/12 A2996 RMK AO2

2006/10/02 04:00
KGWW 020400Z AUTO 00000KT 7SM CLR 13/12 A3016 RMK AO2

2006/10/02 04:00
KHLX 020400Z AUTO 24005KT 10SM CLR 14/11 A3027 RMK AO1

2006/10/02 04:00
KHNZ 020400Z AUTO 26003KT 10SM CLR 15/12 A3017 RMK AO2

2006/10/02 04:00
KHSP 020400Z AUTO 30006KT 10SM CLR 11/08 A3026 RMK AO2

2006/10/02 04:00
KISO 020400Z AUTO 00000KT 7SM CLR 14/13 A3016 RMK AO2

2006/10/02 03:59
KBIJ 020359Z AUTO 00000KT 3SM BR SCT065 21/19 A3012 RMK AO2

2006/10/02 03:58
KDNN 020358Z AUTO 35003KT 10SM CLR 14/14 A3018 RMK AO2

2006/10/02 04:00
KDRI 020400Z AUTO 00000KT 10SM CLR 21/19 A3013 RMK AO2

2006/10/02 03:58
KI16 020358Z AUTO 00000KT 10SM SCT001 09/08 A3024 RMK AO2

2006/10/02 04:00
KJKA 020400Z AUTO 00000KT 3SM BR CLR 25/23 A3012 RMK AO2

2006/10/02 04:00
KJYO 020400Z AUTO 00000KT 10SM CLR 11/09 A3016 RMK AO2

2006/10/02 03:58
KLNP 020358Z AUTO 00000KT 10SM CLR 13/09 A3027 RMK AO1

2006/10/02 04:00
KMTV 020400Z AUTO 00000KT 10SM CLR 12/11 A3022 RMK AO2

2006/10/02 04:00
KOKV 020400Z AUTO 00000KT 10SM CLR 11/08 A3016 RMK AO2

2006/10/02 04:00
KOMH 020400Z AUTO 00000KT 10SM CLR 12/10 A3018 RMK AO1

2006/10/02 03:55
PAGA 020355Z AUTO 08009KT 10SM OVC028 04/02 A2966 RMK AO1 T00390023

2006/10/02 03:59
KDOV 020359Z 27006KT 7SM SKC 14/10 A3012 RMK SLP199

2006/10/02 03:55
KFBG 020355Z 00000KT 7SM SKC 15/14 A3016 RMK SLP212 FIRST

2006/10/02 03:55
KNFG 020355Z 00000KT 7SM FEW050 BKN150 BKN200 17/16 A2993 RMK SLP133 T01720156 PA+80 DA+400

2006/10/02 03:56
KNPA 020356Z AUTO 00000KT 5SM BR CLR 22/21 A3011 RMK AO2 SLP198 T02220211 TSNO

2006/10/02 03:55
KNTD 020355Z 00000KT 7SM SCT070 BKN140 BKN200 16/13 A2993 RMK SLP136 T01610133

2006/10/02 03:55
KNXP 020355Z 28011KT 7SM BKN100 BKN200 27/05 A2998 RMK SLP116 T02670050

2006/10/02 03:59
KPOB 020359Z 00000KT 7SM SKC 14/14 A3016 RMK SLP213

2006/10/02 03:59
KVPS 020359Z 00000KT 7SM FEW060 25/23 A3012 RMK VIS LWR NW-N SLP199

2006/10/02 03:55
PGUA 020355Z 26013KT 7SM -RA SCT020 BKN080 OVC100 27/25 A2958 RMK AO2A SLP999 WR// BLU

2006/10/02 03:55
KFTK 020355Z 00000KT 7SM SKC 15/14 A3018 RMK SLP211

2006/10/02 03:56
KNFL 020356Z AUTO 34006KT 10SM SCT110 19/01 A2997 RMK AO2 SLP120 T01940011 TSNO $

2006/10/02 03:55
KNKT 020355Z 00000KT 7SM SKC 16/14 A3017 RMK SLP211 T01610139

2006/10/02 03:56
KNLC 020356Z 02004KT 4SM BR SCT010 BKN110 14/13 A2999 RMK AO2 RAE09 SLP156 P0000 T01440133

2006/10/02 03:56
KNTU 020356Z 00000KT 7SM BKN100 18/14 A3013 RMK SLP206 T01780139

2006/10/02 03:56
KNUQ 020356Z 34004KT 10SM OVC041 16/09 A3002 RMK AO2 SLP167 T01610089

2006/10/02 03:55
KNUW 020355Z 00000KT 7SM FEW070 08/06 A3001 RMK SLP167 T00780061

2006/10/02 03:55
KPOE 020355Z AUTO 20003KT 10SM CLR 24/21 A3011 RMK AO2 SLP198 T02440206

2006/10/02 03:55
KQUK 020355Z COR 18001KT 5000 BR FEW000 SCT250 09/07 A3017 RMK VIS NE 3200 FG FEW000 PK WND 16003/06 SLP212 WND DATA ESTMD ALSTG/SLP ESTMD WHT COR 0403

2006/10/02 03:56
KVBG 020356Z AUTO 35007KT 10SM -RA SCT080 OVC110 14/12 A3002 RMK AO2 RAB32 SLP156 P0000 T01390122 TSNO $

2006/10/02 04:00
VHHH 020400Z 36007KT 4600 HZ FEW040 BKN150 29/20 Q1011 NOSIG

2006/10/02 04:00
ZJSY 020400Z 07010MPS 9999 SCT015 31/24 Q1007 NOSIG

2006/10/02 04:00
FLLS 020400Z 25005KT CAVOK 20/19 Q1018

2006/10/02 04:00
GMFF 020400Z 19006KT 180V310 CAVOK 23/07 Q1017 NOSIG

2006/10/02 04:00
GMFO 020400Z 21010KT CAVOK 26/05 Q1017 NOSIG

2006/10/02 04:00
GMME 020400Z 00000KT 0600 FG BKN010 SCT016 17/17 Q1015 NOSIG

2006/10/02 04:00
GMMX 020400Z VRB01KT CAVOK 21/16 Q1017 NOSIG

2006/10/02 04:00
GMTT 020400Z AUTO 08006KT 8000 FEW016 SCT233 20/16 Q1014 NOSIG

2006/10/02 03:53
TIST 020353Z 07009KT 10SM CLR 28/22 A2997

2006/10/02 03:53
TISX 020353Z AUTO 05007KT 10SM CLR 27/23 A2997

2006/10/02 03:50
TJBQ 020350Z 10006KT 10SM SCT020 25/24 A2999

2006/10/02 03:50
TJPS 020350Z 05004KT 8SM FEW025 26/22 A2998

2006/10/02 03:56
TJSJ 020356Z 12003KT 10SM FEW030 SCT090 27/24 A2999

2006/10/02 04:00
GOOY 020400Z 28003KT 9999 SCT013 27/25 Q1010 NOSIG

2006/10/02 03:53
PHJR 020353Z 07005KT 10SM CLR 27/21 A2994

2006/10/02 03:53
PHKO 020353Z 29005KT 10SM FEW034 28/22 A2991

2006/10/02 03:53
PHLI 020353Z 06009KT 10SM OVC034 26/22 A2996

2006/10/02 03:53
PHNL 020353Z 04008KT 10SM FEW045 27/21 A2993

2006/10/02 03:54
PHOG 020354Z 23004KT 10SM SCT055 29/21 A2992

2006/10/02 03:53
PHTO 020353Z 14005KT 6SM -RA BR FEW019 BKN028 25/23 A2997

2006/10/02 03:54
PGSN 020354Z 23018G23KT 10SM SCT019 28/24 A2953

2006/10/02 03:55
PGUA 020355Z 26013KT 7SM -RA SCT020 BKN080 OVC100 27/25 A2958

2006/10/02 03:54
PGUM 020354Z 24010KT 10SM -RA FEW075 27/25 A2959

2006/10/02 03:52
PKWA 020352Z 01003KT 10SM FEW018TCU BKN180 BKN300 29/26 A2973

2006/10/02 03:58
PGRO 020358Z 24013KT 5SM -RA SCT010CB BKN050 OVC150 26/24 A2954

2006/10/02 03:54
PGSN 020354Z 23018G23KT 10SM SCT019 28/24 A2953

2006/10/02 03:54
PGUM 020354Z 24010KT 10SM -RA FEW075 27/25 A2959

2006/10/02 03:55
PGWT 020355Z 26019G31KT 7SM BKN014CB BKN025 OVC035 27/25 A2952

2006/10/02 03:50
PKMR 020350Z 03007KT 15SM FEW016 SCT050 OVC300 30/25 A2972

2006/10/02 03:52
PKWA 020352Z 01003KT 10SM FEW018TCU BKN180 BKN300 29/26 A2973

2006/10/02 03:57
PTKK 020357Z 19012KT 240V140 14SM FEW012 SCT040 OVC120 29/25 A2967

2006/10/02 03:59
PTKR 020359Z 26016G26KT 15SM SCT018 BKN120 OVC300 30/24 A2961

2006/10/02 03:54
PTPN 020354Z 05006KT 15SM SCT017 SCT130 OVC300 30/25 A2972

2006/10/02 03:50
PTRO 020350Z 27013G22KT 15SM SCT016TCU BKN120 BKN300 30/25 A2963

2006/10/02 03:50
PTTP 020350Z 13004KT 15SM FEW019 BKN130 OVC300 30/25 A2976

2006/10/02 03:59
PTYA 020359Z 24015G25KT 9SM -SHRA SCT015CB BKN130 OVC290 27/24 A2959

2006/10/02 04:00
SBMA 020400Z 35003KT 8000 FEW400 27/22 Q1010

2006/10/02 04:00
SBMQ 020400Z /////KT 9999 FEW015 25/23 Q////

2006/10/02 04:00
SBPV 020400Z 16002KT 8000 SCT023 BKN300 25/22 Q1011

2006/10/02 04:00
SBRB 020400Z 00000KT 5000 BR FEW015 SCT100 BKN400 22/22 Q1013

2006/10/02 04:00
SBRJ 020400Z 10006KT 9999 FEW020 BKN090 21/17 Q1017

2006/10/02 04:00
SBSP 020400Z 00000KT 4000 -RA OVC005 18/17 Q1018

2006/10/02 04:00
SBTE 020400Z 35005KT CAVOK 27/22 Q1011

2006/10/02 04:00
OOMS 020400Z 28005KT 250V330 CAVOK 30/25 Q1011 NOSIG

2006/10/02 04:00
OOSA 020400Z 23002KT 9999 FEW025 28/21 Q1012 NOSIG RH66 RMK01

2006/10/02 04:00
OYAA 020400Z 28005KT 9999 SCT018 28/24 Q1011

2006/10/02 04:00
OYSN 020400Z 23005KT CAVOK 1

2006/10/02 04:00
OYSN 020400Z 23005KT CAVOK 13/M05 Q1028

2006/10/02 04:00
SBCT 020400Z 09008KT 9999 BKN008 OVC020 15/14 Q1018

2006/10/02 04:00
SBCY 020400Z 01006KT 9999 FEW020 BKN300 27/XX Q1013

2006/10/02 04:00
SBFL 020400Z 19002KT 1600 -RA BKN010 BKN025 17/17 Q1018

2006/10/02 04:00
OJAI 020400Z 00000KT 8000 SKC 12/10 Q1014

2006/10/02 04:00
OJAM 020400Z 00000KT 4000 BR FEW020 16/14 Q1014

2006/10/02 04:00
SBBE 020400Z 07006KT CAVOK 25/24 Q1011

2006/10/02 04:00
SBBR 020400Z 03004KT 9999 TS SCT018 FEW020CB BKN080 BKN200 18/18 Q1020

2006/10/02 04:00
SBBV 020400Z 08004KT CAVOK 26/23 Q1011

2006/10/02 04:00
SBCF 020400Z 12006KT CAVOK 18/15 Q1020

2006/10/02 04:00
SBCG 020400Z 12010KT 9999 SCT009 FEW030TCU BKN080 23/19 Q1015

2006/10/02 04:00
SBEG 020400Z 00000KT 9999 FEW015 BKN330 24/22 Q1011

2006/10/02 04:00
SBFI 020400Z 00000KT 0900 R14/0900 FG FEW002 SCT200 15/14 Q1013

2006/10/02 04:00
SBFZ 020400Z 14010KT 9999 BKN017 26/22 Q1013

2006/10/02 04:00
SBGL 020400Z 12004KT 9999 FEW020 BKN200 20/16 Q1017

2006/10/02 04:00
SBGR 020400Z 07006KT 5000 BR BKN005 OVC080 18/18 Q1018

2006/10/02 04:00
SBKP 020400Z 12004KT 8000 SCT030 OVC080 19/19 Q1017

2006/10/02 04:00
SBNT 020400Z 13006KT 9999 FEW020 26/21 Q1014

2006/10/02 04:00
SBPA 020400Z 10002KT CAVOK 17/16 Q1015

2006/10/02 04:00
SBSL 020400Z 05009KT CAVOK 26/22 Q1011

2006/10/02 04:00
SBSN 020400Z 00000KT CAVOK 25/23 Q1011

2006/10/02 04:00
SBSV 020400Z 16006KT 9999 SCT015 24/21 Q1015

2006/10/02 04:00
VDPP 020400Z 23007KT 9999 SCT015 30/26 Q1005

2006/10/02 04:00
WSSL 020400Z 19009KT 5000 HZ FEW020TCU BKN300 32/21 Q1011 RMK 0 330Z Q1011

2006/10/02 04:00
WSSS 020400Z 20007KT 160V230 4000 HZ FEW018 BKN270 31/23 Q1011 NOSIG

2006/10/02 04:00
OJAQ 020400Z 34008KT 7000 FEW200 24/17 Q1009

2006/10/02 04:00
OEDF 020400Z 20003KT 5000 BR SKC 23/20 Q1010 NOSIG

2006/10/02 04:00
OEJN 020400Z 12003KT CAVOK 25/24 Q1008 NOSIG

2006/10/02 04:00
OEMA 020400Z 00000KT CAVOK 25/01 Q1012 NOSIG

2006/10/02 04:00
OERK 020400Z 15003KT CAVOK 25/07 Q1014 NOSIG

2006/10/02 04:00
OKBK 020400Z 00000KT CAVOK 25/12 Q1011 NOSIG

2006/10/02 04:00
OSAP 020400Z 25004KT 7000NSC 18/16 Q1012

2006/10/02 04:00
OSAP 020400Z 25005KT 7000NSC 18/16 Q1012

2006/10/02 04:00
OSDI 020400Z 24003KT CAVOK 13/10 Q1014

2006/10/02 04:00
OSLK 020400Z 06004KT 9999 FEW026 SCT030 20/16 Q1011

2006/10/02 04:00
SBRP 020400Z 13006KT 9999 SCT030 BKN070 22/22 Q1015

2006/10/02 03:53
KMSY 020353Z 00000KT 10SM FEW250 25/21 A3012

2006/10/02 04:00
TFFF 020400Z VRB01KT 1500 FEW020 25/23 Q1013 NOSIG

2006/10/02 04:00
TFFR 020400Z 09003KT 9999 FEW020 26/23 Q1014 NOSIG

2006/10/02 04:00
TTPP 020400Z 00000KT 9999 FEW020 BKN300 26/24 Q1012 NOSIG

2006/10/02 04:00
MGGT 020400Z 36014KT 9999 BKN014 19/17 Q1027

2006/10/02 04:00
MGHT 020400Z 12008KT 9999 OVCC018 18/15 QFE 818/6

2006/10/02 04:00
MGHT 020400Z 12008KT 9999 OVCC018 18/15 QFE 818.6

2006/10/02 04:00
MHAM 020400Z 00000KT 9999 FEW030 26/24

2006/10/02 04:00
MHCA 020400Z 04005KT 9999 SCT028TCU 23/22 Q1017 TCU TDS

2006/10/02 04:00
LFML 020400Z 14003KT 9999 BKN020 20/17 Q1017 NOSIG

2006/10/02 04:00
LFMN 020400Z 29005KT 9999 FEW023 18/17 Q1018 NOSIG

2006/10/02 04:00
LFMP 020400Z 17002KT 4000 BR SCT005 BKN043 19/18 Q1016

2006/10/02 04:00
LFMT 020400Z 04004KT 4000 BR BKN003 21/20 Q1016

2006/10/02 04:00
LFOB 020400Z 21013KT 9999 FEW023 SCT047 BKN250 15/12 Q1009

2006/10/02 04:00
LFOH 020400Z AUTO 22016G26KT 9999NDV BKN021/// 16/13 Q1008

2006/10/02 04:00
LFOT 020400Z 19010KT 9999 FEW025 BKN120 16/14 Q1013

2006/10/02 04:00
LFPB 020400Z AUTO 21012KT //// BKN020 BKN027 17/13 Q1010

2006/10/02 04:00
LFPG 020400Z 21015KT 9999 SCT014 BKN230 16/13 Q1010 NOSIG

2006/10/02 04:00
LFPN 020400Z AUTO 20010KT 9999NDV BKN013 15/13 Q1011

2006/10/02 04:00
LFPO 020400Z 20010KT 170V230 9999 BKN015 BKN180 16/14 Q1011 TEMPO BKN012

2006/10/02 04:00
LFQQ 020400Z 22013KT 9999 SCT035 BKN046 15/12 Q1006 NOSIG

2006/10/02 04:00
LFRB 020400Z 23010KT 190V270 9999 SCT016 BKN025 15/13 Q1007 NOSIG

2006/10/02 04:00
LFRC 020400Z AUTO 23010KT 9999NDV FEW014 SCT020 14/12 Q1006

2006/10/02 04:00
LFRD 020400Z AUTO 21011KT 9999NDV NSC 15/13 Q1008

2006/10/02 04:00
LFRG 020400Z AUTO 21010KT 9999NDV NSC 14/12 Q1008

2006/10/02 04:00
LFRK 020400Z 23013KT CAVOK 15/13 Q1008 NOSIG

2006/10/02 04:00
LFRN 020400Z 21007KT 180V240 9999 BKN026 16/13 Q1010 NOSIG

2006/10/02 04:00
LFRO 020400Z AUTO 22012KT 9999NDV NSC 15/13 Q1007

2006/10/02 04:00
LFRQ 020400Z 22007KT 200V260 9999 FEW015 OVC230 16/14 Q1009 NOSIG

2006/10/02 04:00
LFRS 020400Z 21006KT 9999 FEW021 BKN110 16/14 Q1011 NOSIG

2006/10/02 04:00
LFRT 020400Z 22009KT 200V260 9999 FEW021 OVC230 15/13 Q1008

2006/10/02 04:00
LFRZ 020400Z AUTO 23013KT 9999NDV -RA SCT024 BKN038 BKN054 17/15 Q1011

2006/10/02 04:00
LFSB 020400Z 17003KT 9999 FEW005 BKN087 14/14 Q1016 NOSIG

2006/10/02 04:00
LFSR 020400Z 21013KT 9999 FEW023 BKN140 16/12 Q1011

2006/10/02 04:00
LFST 020400Z 20008KT CAVOK 15/14 Q1014 NOSIG

2006/10/02 04:00
LFTW 020400Z 11003KT 1500 BR BKN011 19/18 Q1017 BECMG 5000

2006/10/02 04:00
LBBG 020400Z 24002MPS 2200 BR SKC 11/11 Q1020 NOSIG

2006/10/02 04:00
LBPD 020400Z VRB01MPS 5000 SKC 12/11 Q1020 NOSIG

2006/10/02 04:00
LBSF 020400Z 11001MPS 0450 R27/0700VP1500N R09/P1500N BCFG SKC 11/10 Q1021 TEMPO 0300 BCFG

2006/10/02 04:00
LBWN 020400Z 00000MPS 0800 R09/0800VP1500N R27/P1500N BCFG SKC 10/10 Q1019 NOSIG

2006/10/02 04:00
LHBP 020400Z VRB01KT 6000 NSC 11/10 Q1016 NOSIG

2006/10/02 04:00
LRAR 020400Z AUTO 14003MPS 5000 R27/P1500 NCD 13/12 Q1017

2006/10/02 04:00
LRBS 020400Z 00000MPS 3000 R07/0325V0550 MIFG BR SKC 12/12 Q1019 TEMPO 1500 MIFG

2006/10/02 04:00
LRCK 020400Z 28002MPS CAVOK 11/09 Q1020 NOSIG

2006/10/02 04:00
LROP 020400Z 00000MPS 2000 MIFG FEW100 SCT200 11/10 Q1019 TEMPO 1500 MIFG

2006/10/02 04:00
LRTM 020400Z 09002MPS 1800 BR FEW008 SCT200 09/09 Q1019

2006/10/02 04:00
LRTR 020400Z 10002MPS 5000 BR FEW060 SCT070 12/12 Q1017

2006/10/02 04:00
LUKK 020400Z 10002KT 4400 BR NSC 08/08 Q1018 26CLRD65 TEMPO 2000 BR

2006/10/02 03:54
LFBL 020354Z 14004KT 9999 SCT046 14/12 Q1015 NOSIG

2006/10/02 03:46
LFSI 020346Z 20009KT CAVOK 16/13 Q1013

2006/10/02 03:55
KQAE 020355Z COR VRB06KT 9000 FU FEW001 FEW180 SCT250 24/09 A2982 RMK VIS LWR NE-E FU FEW001 SLP094 WND DATA ESTMD ALSTG/SLP ESTMD COR 0356

2006/10/02 03:55
KQAE 020355Z VRB06KT 9000 FU FEW001 FEW180 SCT250 24/09 A2982 RMK VIS LWR NE-E FU FEW001 SLP090 WND DATA ESTMD ALSTG/SLP ESTMD

2006/10/02 03:55
KQTO 020355Z 34005KT 9000 HZ SCT180 BKN250 21/10 A2983 RMK SLP102 Q1010MB PA+249 DA+1165

2006/10/02 03:55
KQTU 020355Z 16004KT 9000 BKN100 25/10 A2985 RMK SLP097

2006/10/02 03:55
KQTX 020355Z VRB04KT 9999 SCT160 SCT200 26/04 A2988 RMK SLPNO Q1011MB PA+1099 DA+2641 WND DATA ESTMD ALSTG ESTMD

2006/10/02 03:55
KQTZ 020355Z VRB01KT 9999 FEW140 BKN250 26/08 A2981 RMK SLP094 Q1009MB WND DATA ESTMD ALSTG/SLP ESTMD

2006/10/02 03:55
KQVO 020355Z 00000KT 9000 HZ FEW150 SCT250 18/09 A2980 RMK SLP091 T01840089

2006/10/02 03:55
KQXJ 020355Z 17003KT 9999 FEW250 24/03 A2983 RMK SLP105 ALSTG/SLP ESTMD

2006/10/02 03:56
KABQ 020356Z 27003KT 10SM FEW120 BKN200 20/M03 A3016

2006/10/02 03:52
KATL 020352Z 01008KT 10SM CLR 21/13 A3017

2006/10/02 03:53
KBGR 020353Z 01005KT 8SM -RA SCT031 BKN038 OVC055 10/08 A3004

2006/10/02 03:53
KBHM 020353Z 00000KT 9SM CLR 20/17 A3018

2006/10/02 03:53
KBNA 020353Z 13003KT 10SM CLR 17/12 A3019

2006/10/02 03:54
KBOS 020354Z 01012KT 10SM BKN012 OVC021 12/11 A2999

2006/10/02 03:54
KBWI 020354Z 00000KT 10SM CLR 12/09 A3014

2006/10/02 03:56
KCHS 020356Z 00000KT 9SM CLR 20/17 A3013

2006/10/02 03:51
KCLE 020351Z 00000KT 10SM CLR 09/07 A3017

2006/10/02 03:52
KCLT 020352Z 34003KT 10SM CLR 17/11 A3019

2006/10/02 03:52
KCVG 020352Z 20003KT 10SM CLR 14/11 A3017

2006/10/02 03:53
KDEN 020353Z 27007KT 10SM SCT120 BKN200 23/M06 A3006

2006/10/02 03:53
KDFW 020353Z 17011KT 10SM SCT150 SCT300 28/18 A3004

2006/10/02 03:54
KDTW 020354Z 00000KT 9SM SCT200 11/08 A3013

2006/10/02 03:51
KEWR 020351Z 31006KT 10SM FEW080 14/09 A3005

2006/10/02 03:53
KFLL 020353Z 07014G17KT 10SM FEW027 SCT036 28/22 A3005

2006/10/02 03:52
KIAD 020352Z 00000KT 10SM CLR 11/09 A3017

2006/10/02 03:53
KIAH 020353Z 17004KT 10SM FEW140 BKN250 25/21 A3010

2006/10/02 03:54
KIND 020354Z 17005KT 10SM CLR 17/12 A3012

2006/10/02 03:56
KJAX 020356Z 00000KT 10SM CLR 20/18 A3011

2006/10/02 03:51
KJFK 020351Z 33009KT 10SM CLR 16/08 A3005

2006/10/02 03:56
KLAS 020356Z VRB03KT 10SM BKN140 OVC250 29/M01 A2987

2006/10/02 03:50
KLAX 020350Z 25007KT 10SM SCT150 SCT200 18/15 A2992

2006/10/02 03:51
KLGA 020351Z 35007KT 10SM CLR 16/09 A3004

2006/10/02 03:53
KLIT 020353Z 00000KT 7SM BKN250 24/19 A3010

2006/10/02 03:53
KLOU 020353Z AUTO 00000KT 10SM CLR 16/13 A3016

2006/10/02 03:53
KMCI 020353Z 18015KT 10SM SCT100 27/18 A2995

2006/10/02 03:53
KMCO 020353Z 08005KT 10SM CLR 23/19 A3011

2006/10/02 03:53
KMEM 020353Z 12005KT 10SM BKN250 23/12 A3013

2006/10/02 03:53
KMIA 020353Z 05009KT 10SM FEW027 28/21 A3006

2006/10/02 03:53
KMSP 020353Z 15010G15KT 10SM FEW130 22/11 A2976

2006/10/02 03:53
KOAK 020353Z 31007KT 10SM FEW045 BKN200 16/09 A3002

2006/10/02 03:52
KOKC 020352Z 20010KT 10SM SCT300 25/16 A3000

2006/10/02 03:53
KONT 020353Z COR 26004KT 6SM HZ SCT130 BKN200 21/14 A2994

2006/10/02 03:53
KONT 020353Z 26004KT 6SM HZ CLR 21/14 A2994

2006/10/02 03:51
KORD 020351Z 22020KT 10SM FEW060 SCT090 SCT120 BKN250 22/11 A2998

2006/10/02 03:51
KORF 020351Z 07003KT 10SM FEW070 BKN095 19/13 A3014

2006/10/02 03:53
KPBI 020353Z 07008KT 10SM FEW033 28/21 A3008

2006/10/02 03:54
KPHF 020354Z 00000KT 9SM SCT070 17/14 A3014

2006/10/02 03:54
KPHL 020354Z 31006KT 10SM CLR 15/08 A3011

2006/10/02 03:51
KPHX 020351Z 25006KT 10SM BKN200 32/06 A2987

2006/10/02 03:51
KPIT 020351Z 00000KT 10SM SCT060 09/07 A3015

2006/10/02 03:51
KRDU 020351Z 00000KT 10SM CLR 14/13 A3017

2006/10/02 03:51
KSAN 020351Z 31006KT 8SM FEW010 SCT170 20/16 A2994

2006/10/02 03:53
KSEA 020353Z 04008KT 10SM FEW200 13/08 A3001

2006/10/02 03:56
KSFO 020356Z 30007KT 10SM SCT035 SCT040 16/09 A3001

2006/10/02 03:51
KSTL 020351Z 17008KT 10SM FEW250 22/12 A3008

2006/10/02 03:51
KTEB 020351Z 32003KT 10SM CLR 14/09 A3004

2006/10/02 03:53
KTPA 020353Z 04006KT 8SM CLR 24/19 A3011

2006/10/02 04:00
FMMI 020400Z VRB01KT 9999 R11/1300V1400D FEW016 16/14 Q1022 NOSI G

2006/10/02 04:00
ZBAA 020400Z 14002MPS 5000 BR SKC 27/14 Q1013 NOSIG

2006/10/02 04:00
ZBTJ 020400Z 25004MPS 2500 HZ SKC 28/13 Q1013 NOSIG

2006/10/02 04:00
ZBYN 020400Z 19001MPS 3000 HZ SKC 22/12 Q1018 NOSIG

2006/10/02 04:00
ZGGG 020400Z 02003MPS 320V070 8000 NSC 28/17 Q1012 NOSIG

2006/10/02 04:00
ZGNN 020400Z 04004MPS 9999 FEW026 27/17 Q1013 NOSIG

2006/10/02 04:00
ZGSZ 020400Z 02003MPS 350V060 5000 HZ BKN050 29/20 Q1011 NOSIG

2006/10/02 04:00
ZHHH 020400Z 25002MPS 200V280 9999 SCT020 25/18 Q1017 NOSIG

2006/10/02 04:00
ZLLL 020400Z VRB01MPS CAVOK 18/08 Q1023 NOSIG

2006/10/02 04:00
ZMUB 020400Z VRB02MPS 9999 FEW033 14/03 Q1020 NOSIG RMK QFE655 8 49 MOP

2006/10/02 04:00
ZPPP 020400Z 13003MPS 090V170 6000 SCT030 BKN050 18/10 Q1023 NOSIG

2006/10/02 04:00
ZSAM 020400Z 03004MPS CAVOK 30/18 Q1011 NOSIG

2006/10/02 04:00
ZSHC 020400Z 36003MPS 320V050 4000 BR SCT020 23/17 Q1016 NOSIG

2006/10/02 04:00
ZSNJ 020400Z 03003MPS 340V080 5000 HZ BKN020 23/17 Q1017 NOSIG

2006/10/02 04:00
ZSOF 020400Z 05003MPS 7000 SKC 25/15 Q1017 NOSIG

2006/10/02 04:00
ZSPD 020400Z 10003MPS 5000 -RA BR BKN021 OVC040 21/19 Q1016 NOSIG

2006/10/02 04:00
ZSSS 020400Z 03004MPS 2500 -RA BR SCT007 OVC050 21/19 Q1015 NOSIG

2006/10/02 04:00
ZUCK 020400Z 20002MPS 160V260 2200 BR SCT026 23/19 Q1018 NOSIG

2006/10/02 04:00
ZUUU 020400Z 24002MPS 2000 -SHRA BR FEW030TCU SCT030 22/22 Q1018 NOSIG

2006/10/02 04:00
ZWWW 020400Z 00000MPS CAVOK 22/05 Q1021 NOSIG

2006/10/02 04:00
ZYHB 020400Z 22005MPS 170V250 CAVOK 23/18 Q1012 NOSIG

2006/10/02 04:00
ZYTL 020400Z 20003MPS 6000 NSC 26/17 Q1014 NOSIG

2006/10/02 04:00
EICK 020400Z 30006KT 9999 SCT040 BKN080 11/10 Q1001 NOSIG

2006/10/02 04:00
EIDW 020400Z 29007KT 9000 FEW002 SCT005 BKN012 11/10 Q0999 NOSIG

2006/10/02 04:00
EINN 020400Z 31009KT 9999 -SHRA FEW015 FEW018CB SCT024 BKN030 13/11 Q1001 NOSIG

2006/10/02 04:00
LDDU 020400Z 07005KT CAVOK 17/14 Q1019

2006/10/02 04:00
LDOS 020400Z 19003KT CAVOK 15/13 Q1017

2006/10/02 04:00
LDPL 020400Z 00000KT 3000 BR FEW055 17/17 Q1017

2006/10/02 04:00
LDSP 020400Z VRB01KT CAVOK 15/11 Q1019 NOSIG

2006/10/02 04:00
LDZA 020400Z VRB02KT CAVOK 14/14 Q1016 NOSIG

2006/10/02 04:00
LDZD 020400Z 08001KT CAVOK 16/16 Q1018

2006/10/02 04:00
LJLJ 020400Z VRB02KT 9999 -RA FEW025 BKN040 BKN090 15/14 Q1017 NOSIG

2006/10/02 04:00
LJMB 020400Z 00000KT 4000 BR NSC 14/14 Q1016

2006/10/02 04:00
LJPZ 020400Z 11004KT 060V150 9999 SCT050 OVC090 20/18 Q1016

2006/10/02 04:00
LKMT 020400Z 23006KT 5000 BR NSC 13/13 Q1014 NOSIG

2006/10/02 04:00
LKPR 020400Z 23009KT 9999 FEW025 16/14 Q1013 NOSIG

2006/10/02 04:00
LKTB 020400Z 00000KT 1600 BR OVC002 12/11 Q1015 TEMPO 1500 BR

2006/10/02 04:00
LQSA 020400Z 00000KT 0600 R12/0300N FG BKN001 10/09 Q1021

2006/10/02 04:00
LWOH 020400Z 34004KT CAVOK 08/08 Q1021

2006/10/02 04:00
LWSK 020400Z 00000KT CAVOK 10/08 Q1021 TEMPO 5000 BR

2006/10/02 04:00
LZIB 020400Z 00000KT 8000 NSC 13/12 Q1016 NOSIG

2006/10/02 04:00
LZKZ 020400Z 29002KT 2000S BR FEW010 12/11 Q1016 NOSIG

2006/10/02 04:00
LZTT 020400Z VRB01KT CAVOK 11/09 Q1016

2006/10/02 03:55
MUGM 020355Z 35006KT 9999 FEW030CB BKN090 BKN220 26/23 A2998 RMK LTG DSNT SE CB DSNT SE SLP152 T2 SET T02560228

2006/10/02 04:00
EPGD 020400Z 21004KT 2500 BR BKN002 BKN004 12/11 Q1008

2006/10/02 04:00
EPKK 020400Z 00000KT 2000 BR MIFG FEW100 BKN200 12/12 Q1014

2006/10/02 04:00
EPKT 020400Z 20005KT 2000 BR NSC 14/14 Q1013

2006/10/02 04:00
EPPO 020400Z 19004KT 2500 BR NSC 13/13 Q1010

2006/10/02 04:00
EPRZ 020400Z 23004KT 9999 SCT043 BKN100 13/12 Q1014

2006/10/02 04:00
EPSC 020400Z 16006KT 3000 BR FEW002 BKN050 14/14 Q1007

2006/10/02 04:00
EPWA 020400Z 23004KT 180V260 3000 BR SCT005 BKN012 15/14 Q1011 TEMPO 2000 BR SCT004

2006/10/02 04:00
RJDT 020400Z 04013G23KT 350V070 9999 SCT020 BKN/// 22/17 Q1014

2006/10/02 04:00
RJEB 020400Z 01007KT 9999 FEW030 SCT/// 18/14 Q1016

2006/10/02 04:00
RJEC 020400Z 22009KT 150V250 9999 FEW040 SCT/// 21/12 Q1016

2006/10/02 04:00
RJFG 020400Z 08006KT 030V130 9999 FEW015 SCT020 25/20 Q1011

2006/10/02 04:00
RJFM 020400Z 08008KT 9999 FEW025 26/19 Q1010

2006/10/02 04:00
RJFO 020400Z 33008KT 9999 FEW025 SCT045 25/16 Q1011

2006/10/02 04:00
RJFR 020400Z 35013KT 9999 FEW025 SCT080 BKN/// 24/15 Q1012

2006/10/02 04:00
RJKA 020400Z 03013KT 9999 FEW012 SCT020 BKN100 29/23 Q1009

2006/10/02 04:00
RJKB 020400Z 05014KT 9999 FEW020 30/24 Q1008

2006/10/02 04:00
LPFR 020400Z 28004KT CAVOK 19/19 Q1014

2006/10/02 04:00
LPPR 020400Z 00000KT 9999 FEW020 BKN040 18/17 Q1013

2006/10/02 04:00
LPPS 020400Z 21013KT 9999 FEW016 SCT100 23/20 Q1014

2006/10/02 04:00
LPPT 020400Z 23004KT 8000 FEW005 BKN100 18/18 Q1013 NOSIG

2006/10/02 03:50
LTAG 020350Z 29001KT 9999 SCT035 BKN100 19/17 Q1011 NOSIG

2006/10/02 04:00
AYPY 020400Z 18014KT 9999 FEW020 29/18 Q1008

2006/10/02 03:58
PGRO 020358Z 24013KT 5SM -RA SCT010CB BKN050 OVC150 26/24 A2954 RMK CB ALQDS MOV NE

2006/10/02 03:54
PGSN 020354Z 23018G23KT 10SM SCT019 28/24 A2953 RMK AO2 PK WND 23031/0316 SLP996 T02830244

2006/10/02 03:55
PGUA 020355Z 26013KT 7SM -RA SCT020 BKN080 OVC100 27/25 A2958 RMK AO2A SLP999 WR// BLU

2006/10/02 03:54
PGUM 020354Z 24010KT 10SM -RA FEW075 27/25 A2959 RMK AO2 RAB22 SLP012 P0000 T02720250

2006/10/02 03:55
PGWT 020355Z 26019G31KT 7SM BKN014CB BKN025 OVC035 27/25 A2952 RMK CB ALQDS MOV E

2006/10/02 03:53
PHJR 020353Z 07005KT 10SM CLR 27/21 A2994 RMK AO2 SLP145 T02720211

2006/10/02 03:54
PHMK 020354Z 06011G16KT 10SM SCT024 27/22 A2995 RMK AO2 SLP143 T02720220 $

2006/10/02 03:50
PKMR 020350Z 03007KT 15SM FEW016 SCT050 OVC300 30/25 A2972 RMK SLP064 T03030247

2006/10/02 03:52
PKWA 020352Z 01003KT 10SM FEW018TCU BKN180 BKN300 29/26 A2973 RMK TCU DSNT W SLP068 T02940262

2006/10/02 03:57
PTKK 020357Z 19012KT 240V140 14SM FEW012 SCT040 OVC120 29/25 A2967 RMK SLP049 T02890252

2006/10/02 03:59
PTKR 020359Z 26016G26KT 15SM SCT018 BKN120 OVC300 30/24 A2961 RMK PK WND 26030/36 SLP030 T02960241

2006/10/02 03:54
PTPN 020354Z 05006KT 15SM SCT017 SCT130 OVC300 30/25 A2972

2006/10/02 03:50
PTRO 020350Z 27013G22KT 15SM SCT016TCU BKN120 BKN300 30/25 A2963 RMK TCU VC ALQDS

2006/10/02 03:50
PTTP 020350Z 13004KT 15SM FEW019 BKN130 OVC300 30/25 A2976 RMK SLP076 T03000248

2006/10/02 03:59
PTYA 020359Z 24015G25KT 9SM -SHRA SCT015CB BKN130 OVC290 27/24 A2959 RMK PK WND 24030/35 CB VC ALQDS SLP022 T02690244

2006/10/02 04:00
RJAA 020400Z 35010KT 9999 FEW008 BKN009 20/17 Q1011 NOSIG

2006/10/02 04:00
RJCC 020400Z 17014KT 9999 FEW035 SCT050 BKN/// 20/12 Q1016

2006/10/02 04:00
RJCH 020400Z 12017KT 9999 FEW012 SCT020 BKN120 21/16 Q1015

2006/10/02 04:00
RJFK 020400Z VRB02KT 9999 SCT025 26/18 Q1011

2006/10/02 04:00
RJFT 020400Z VRB04KT 9999 FEW035 25/16 Q1011

2006/10/02 04:00
RJFU 020400Z 35013KT 9999 FEW035 BKN/// 27/17 Q1011

2006/10/02 04:00
RJOO 020400Z VRB02KT 9999 FEW008 SCT015 BKN025 22/19 Q1011

2006/10/02 04:00
RJSS 020400Z 32006KT 7000 -RA FEW003 SCT005 BKN008 17/16 Q1013

2006/10/02 04:00
RJTT 020400Z 35010KT 9999 SCT015 BKN028 20/16 Q1012

2006/10/02 03:55
RODN 020355Z 03012KT 9999 VCSH FEW025 BKN030 BKN060 29/25 A2978 RMK SLP084 VCSH N SHRA DSNT SW

2006/10/02 04:00
LFBA 020400Z 11004KT 1000 R29/0900N BR SKC 15/15 Q1014 TEMPO 0300 FG

2006/10/02 04:00
LFBC 020400Z VRB02KT CAVOK 13/13 Q1013

2006/10/02 04:00
LFKF 020400Z AUTO 00000KT 6000NDV NCD 13/12 Q1018

2006/10/02 04:00
LFLD 020400Z 22010KT 9999 BKN033 16/13 Q1014

2006/10/02 04:00
LFLV 020400Z 21003KT 8000 NSC 13/12 Q1015

2006/10/02 04:00
LFOE 020400Z 22014KT 9999 FEW021 BKN033 BKN046 15/13 Q1009

2006/10/02 04:00
LFOP 020400Z 23012KT 9999 SCT026 BKN250 15/12 Q1009

2006/10/02 04:00
LFPB 020400Z AUTO 21012KT //// BKN020 BKN027 17/13 Q1010

2006/10/02 04:00
LFPG 020400Z 21015KT 9999 SCT014 BKN230 16/13 Q1010 NOSIG

2006/10/02 04:00
LFQB 020400Z 20011KT CAVOK 16/13 Q1013

2006/10/02 04:00
LFQQ 020400Z 22013KT 9999 SCT035 BKN046 15/12 Q1006 NOSIG

2006/10/02 04:00
LFRH 020400Z AUTO 24014KT 9999NDV FEW017 BKN025 BKN045 17/15 Q1009

2006/10/02 04:00
LFRM 020400Z 20008KT 160V230 9999 FEW006 OVC026 16/14 Q1011

2006/10/02 04:00
LFSD 020400Z 26001KT 9999 SCT036 OVC230 14/14 Q1015

2006/10/02 04:00
LFSO 020400Z 21010KT 14/12 Q1014

2006/10/02 04:00
LFSX 020400Z 21003KT 9999 SCT030 BKN120 15/15 Q1015

2006/10/02 04:00
LFTH 020400Z 35003KT 320V020 8000 SCT014 BKN041 19/18 Q1017

2006/10/02 03:55
KQAJ 020355Z 16003KT 9999 FEW150 BKN250 24/06 A2986 RMK SLP112 T02360055 PA 671 DA 1954

2006/10/02 03:55
KQAQ 020355Z 32003KT 6000 FU HZ FEW150 BKN250 24/10 A2984 RMK SLP102 WND DATA ESTMD ALSTG/SLP ESMTD PA 227 DA 1402

2006/10/02 03:55
KQCO 020355Z 12004KT 8000 DU HZ SCT150 25/07 A2983 RMK SLP088

2006/10/02 03:55
KQMA 020355Z 00000KT 8000 FU FEW000 BKN160 OVC200 24/09 A2983 RMK FU FEW000 SLP098 T02400089

2006/10/02 03:55
KQSL 020355Z 12004KT 9000 HZ FEW160 SCT250 25/06 A2986 RMK SLP103 Q1011MB WND DATA ESTMD ALSTG/SLP ESTMD

2006/10/02 03:55
KQTI 020355Z 36004KT 9999 SCT100 SCT200 24/08 A2989 RMK SLP106

2006/10/02 03:50
ENSO 020350Z 10009KT 99999 FEW020TCU FEW040 13/09 Q0996

2006/10/02 03:50
BGJN 020350Z AUTO 16013KT 9999NDV -SN FEW032/// SCT039/// BKN044/// 06/02 Q0995

2006/10/02 03:50
BGSF 020350Z 24015KT 9999 SCT040 BKN060 05/M02 Q1002

2006/10/02 03:55
BGTL 020355Z 10004KT 9999 SKC M07/M09 A2947 RMK SLP985 RCRNR

2006/10/02 04:00
BIAR 020400Z 00000KT 0700 R01/1500N FG VV001 M01/M01 Q1012

2006/10/02 04:00
BIEG 020400Z 14003KT 9999 FEW010 BKN025 02/M01 Q1012

2006/10/02 04:00
BIRK 020400Z 15006KT 9999 -DZ FEW013 BKN018 OVC030 06/04 Q1011

2006/10/02 03:55
TXKF 020355Z COR 21010KT 9SM SCT025 BKN100 25/22 A3007 RMK SLP183

2006/10/02 04:00
LFBD 020400Z 10003KT CAVOK 14/13 Q1014 NOSIG

2006/10/02 04:00
LFBH 020400Z AUTO 22007KT 9999NDV OVC045/// 19/15 Q1013

2006/10/02 04:00
LFBI 020400Z 20008KT CAVOK 16/13 Q1013 NOSIG

2006/10/02 04:00
LFBO 020400Z 14006KT 9000 SKC 18/17 Q1015 NOSIG

2006/10/02 04:00
LFBP 020400Z 13003KT CAVOK 13/12 Q1014 NOSIG

2006/10/02 04:00
LFBT 020400Z 17007KT CAVOK 14/11 Q1015 NOSIG

2006/10/02 04:00
LFBZ 020400Z AUTO 13004KT 9999NDV ////// 14/14 Q1013

2006/10/02 04:00
LFGJ 020400Z AUTO VRB02KT 0250NDV R05/0400D FG FEW006 14/14 Q1015

2006/10/02 04:00
LFKB 020400Z 21002KT 9999 3500S MIFG FEW016 16/15 Q1018 NOSIG

2006/10/02 04:00
LFKC 020400Z 20003KT 9999 FEW016 16/14 Q1018 NOSIG

2006/10/02 04:00
LFLB 020400Z AUTO VRB02KT //// // BKN005 17/16 Q1017

2006/10/02 04:00
LFLC 020400Z 20011KT CAVOK 14/12 Q1015

2006/10/02 04:00
LFLL 020400Z 16005KT CAVOK 17/16 Q1016 NOSIG

2006/10/02 04:00
LFLS 020400Z 10005KT 0250 R09/0400V0900D FG OVC012 17/16 Q1017

2006/10/02 04:00
LFLY 020400Z 00000KT 2000 BR BKN007 16/16 Q1016

2006/10/02 04:00
LFMH 020400Z 14008KT 9999 FEW015 BKN130 14/12 Q1017

2006/10/02 04:00
RJAF 020400Z VRB02KT 9999 BR FEW005 SCT010 BKN045 16/13 Q1013

2006/10/02 04:00
RJBD 020400Z 33009KT 9999 FEW010 BKN020 BKN030 24/20 Q1010

2006/10/02 04:00
RJCB 020400Z 12008KT 9999 FEW015 SCT030 BKN/// 18/12 Q1018

2006/10/02 04:00
RJCK 020400Z 15009KT 9999 FEW010 BKN035 17/14 Q1019

2006/10/02 04:00
RJCM 020400Z 16016KT 9999 FEW030 BKN/// 20/11 Q1017

2006/10/02 04:00
RJCN 020400Z 17008KT 140V200 9999 BKN028 BKN/// 19/13 Q1018

2006/10/02 04:00
RJCW 020400Z 01007KT 330V050 9999 FEW020 BKN030 BKN/// 19/16 Q1016

2006/10/02 04:00
RJDC 020400Z 01008KT 330V050 9999 FEW025 SCT035 BKN/// 26/15 Q1012

2006/10/02 04:00
RJOT 020400Z 31005KT 9999 FEW010 SCT020 22/18 Q1011

2006/10/02 04:00
RJOY 020400Z 05001KT 2500 -SHRA BR FEW005 BKN010 BKN020 21/20 Q1011

2006/10/02 04:00
RJSA 020400Z VRB03KT 9999 -RA FEW020 SCT070 BKN100 19/14 Q1014

2006/10/02 04:00
RJSC 020400Z 35006KT 9999 FEW008 BKN025 BKN080 19/16 Q1012

2006/10/02 04:00
RJSI 020400Z VRB01KT 9999 -RA FEW003 SCT010 BKN025 17/16 Q1014

2006/10/02 04:00
RJTF 020400Z 36006KT 9999 FEW011 BKN030 20/16 Q1012

2006/10/02 04:00
RJTH 020400Z 20009KT 170V240 9999 FEW018 SCT020 29/24 Q1010

2006/10/02 04:00
RJTI 020400Z 36007KT 310V100 9999 BKN015 BKN030 20/16 Q1011

2006/10/02 03:51
KABE 020351Z 22004KT 10SM CLR 11/08 A3009

2006/10/02 03:53
KAGC 020353Z AUTO 19005KT 10SM CLR 10/07 A3016

2006/10/02 03:54
KAKR 020354Z AUTO 00000KT 8SM CLR 08/07 A3015

2006/10/02 03:51
KALB 020351Z 00000KT 1SM BR FEW029 BKN075 09/09 A3005

2006/10/02 03:56
KART 020356Z AUTO 00000KT 6SM BR BKN065 BKN080 11/10 A3004

2006/10/02 03:54
KAVP 020354Z 00000KT 6SM BR CLR 08/08 A3010

2006/10/02 03:53
KBAF 020353Z 01003KT 10SM BKN017 BKN029 11/10 A3002

2006/10/02 03:51
KBDL 020351Z 34005KT 10SM FEW023 11/10 A3002

2006/10/02 03:54
KBDR 020354Z AUTO 34005KT 10SM CLR 13/11 A3002

2006/10/02 03:56
KBED 020356Z 02007KT 10SM -RA OVC011 12/11 A2999

2006/10/02 03:54
KBTV 020354Z 00000KT 10SM BKN026 BKN032 OVC050 11/09 A3002

2006/10/02 03:54
KBUF 020354Z 29006KT 10SM FEW050 11/07 A3012

2006/10/02 03:53
KBVY 020353Z AUTO 01008KT 10SM OVC008 11/10 A2999

2006/10/02 03:56
KCAE 020356Z 17003KT 10SM CLR 17/16 A3015

2006/10/02 03:51
KCAK 020351Z 00000KT 10SM CLR 10/08 A3015

2006/10/02 03:51
KCMH 020351Z 00000KT 10SM CLR 12/09 A3016

2006/10/02 03:53
KCRQ 020353Z 31004KT 7SM FEW010 19/16 A2993

2006/10/02 03:54
KCRW 020354Z 00000KT 10SM CLR 12/11 A3021

2006/10/02 03:56
KDAY 020356Z 00000KT 10SM CLR 13/08 A3018

2006/10/02 03:59
KDOV 020359Z 27006KT 7SM SKC 14/10 A3012

2006/10/02 03:51
KERI 020351Z 00000KT 10SM CLR 10/08 A3015

2006/10/02 03:53
KEWB 020353Z AUTO 30007KT 10SM BKN006 13/12 A2996

2006/10/02 03:53
KFVE 020353Z AUTO 09006KT 10SM OVC110 09/03 A3013

2006/10/02 03:56
KGON 020356Z AUTO 35005KT 10SM FEW019 12/12 A2999

2006/10/02 03:54
KGSO 020354Z 33003KT 10SM CLR 17/11 A3019

2006/10/02 03:53
KGSP 020353Z AUTO 03003KT 10SM CLR 18/09 A3018

2006/10/02 03:56
KHPN 020356Z 31008KT 10SM SCT070 12/10 A3003

2006/10/02 03:51
KHTS 020351Z 00000KT 5SM BR CLR 12/10 A3019

2006/10/02 03:53
KHUL 020353Z AUTO 05005KT 10SM BKN100 BKN120 11/06 A3006

2006/10/02 03:53
KHVN 020353Z AUTO 32006KT 10SM FEW065 13/11 A3002

2006/10/02 03:53
KIAG 020353Z AUTO 26006KT 10SM CLR 07/06 A3012

2006/10/02 03:51
KILG 020351Z AUTO 28008KT 10SM CLR 12/09 A3012

2006/10/02 03:53
KILM 020353Z AUTO 04006KT 10SM CLR 17/13 A3015

2006/10/02 03:54
KINT 020354Z AUTO 32003KT 10SM CLR 16/11 A3020

2006/10/02 03:55
KLSV 020355Z 17006KT 20SM BKN150 BKN250 28/02 A2985

2006/10/02 03:53
KLUK 020353Z AUTO 00000KT 9SM CLR 12/11 A3018

2006/10/02 03:54
KLWM 020354Z AUTO 02006KT 10SM BKN008 OVC012 11/10 A3002

2006/10/02 03:56
KMDT 020356Z 32007KT 10SM CLR 13/08 A3012

2006/10/02 03:53
KMSS 020353Z AUTO 26003KT 1 1/2SM BR CLR 09/09 A3002

2006/10/02 03:54
KORH 020354Z AUTO 36009KT 7SM OVC001 10/09 A3000

2006/10/02 03:55
KPQI 020355Z AUTO 06005KT 10SM SCT034 BKN046 OVC120 11/04 A3008

2006/10/02 03:55
KPSM 020355Z 01009KT 8SM BKN011 OVC035 10/09 A3001

2006/10/02 03:51
KPVD 020351Z 32008KT 8SM FEW005 OVC020 13/11 A2999

2006/10/02 03:51
KPWM 020351Z AUTO 01008KT 10SM OVC040 10/08 A3003

2006/10/02 03:54
KRIC 020354Z 36003KT 10SM FEW070 15/13 A3016

2006/10/02 03:54
KROC 020354Z 26006KT 10SM SCT065 SCT090 11/09 A3011

2006/10/02 03:54
KSYR 020354Z 24007KT 10SM FEW060 12/10 A3008

2006/10/02 03:55
KWRI 020355Z 30006KT 7SM SKC 14/09 A3007

2006/10/02 03:50
ENEK 020350Z 20012KT 9999 SCT008 14/13 Q0994

2006/10/02 04:00
UBBB 020400Z 34014KT 9999 FEW010 SCT100 22/21 Q1015 88CLRD70 NOSIG

2006/10/02 04:00
UHHH 020400Z 23004G07MPS CAVOK 21/12 Q1012 NOSIG

2006/10/02 04:00
UMGG 020400Z 16002MPS 6000 SCT100 09/08 Q1017 11000060 NOSIG

2006/10/02 04:00
UTAA 020400Z 28004MPS 6000 FEW230 25/08 Q1014 NOSIG

2006/10/02 04:00
UTTT 020400Z 14002MPS 7000 FEW100 21/09 Q1018 NOSIG 08CLRD70

2006/10/02 04:00
SMJP 020400Z 00000KT 9999 FEW030 25/23 Q1012 NOSIG

2006/10/02 04:00
RJNF 020400Z VRB01KT 9999 FEW005 SCT008 BKN010 20/17 Q1012

2006/10/02 04:00
RJNT 020400Z VRB05KT 9999 -SHRA FEW005 SCT012 BKN050 20/17 Q1011

2006/10/02 04:00
RJOA 020400Z 30006KT 250V360 9999 FEW015 BKN025 22/16 Q1012

2006/10/02 04:00
RJOB 020400Z VRB03KT 9999 FEW015 BKN030 22/17 Q1012

2006/10/02 04:00
RJOC 020400Z VRB03KT 9999 FEW008 SCT020 BKN040 20/16 Q1013

2006/10/02 04:00
RJOI 020400Z 03009KT 9999 FEW030 BKN050 BKN200 25/16 A2989 RMK SLP122 T02500161

2006/10/02 04:00
RJOK 020400Z 20009KT 9999 FEW025 SCT150 27/21 Q1009

2006/10/02 04:00
RJOM 020400Z 36010KT 9999 FEW015 SCT045 BKN140 24/19 Q1011

2006/10/02 04:00
RJOR 020400Z 03012KT 9999 -SHRA FEW004 SCT010 BKN015 20/18 Q1012

2006/10/02 04:00
MGPB 020400Z 06004KT 9000 -TSRA SCT016 FEW025CB OVC080 25/24 Q1015 CB/TS/LTNG E/ESE

2006/10/02 04:00
MGSJ 020400Z 00000KT CAVOK 26/25 FEW080

2006/10/02 04:00
MHLC 020400Z 00000KT 9999 FEW026CB BKN200 23/22 Q1014 FEW080 CB LTNG NNW HZ NOSIG

2006/10/02 04:00
MHLM 020400Z 30005KT 9999 SCT025CB BKN080 25/25 Q1015 LTNG N PCPN N NW HZ NOSIG

2006/10/02 04:00
MHTG 020400Z 04005KT 9999 BKN028CB BKN080 22/18 Q1020 FEW250 CB LTNG S SE S HZ NOSIG

2006/10/02 04:00
MPTO 020400Z 26006KT 9999 FEW020CB SCT100 26/24 Q1010

2006/10/02 04:00
MROC 020400Z 09004KT CAVOK 22/19 A2999 NOSIG

2006/10/02 03:50
MSLP 020350Z 05002KT 9999 FEW027 SCT120 26/22 Q1011 A2989 DSTN CB LTGIC TO N/SE

2006/10/02 03:53
TIST 020353Z 07009KT 10SM CLR 28/22 A2997 RMK AO2 SLP148 T02830222 403220278

2006/10/02 03:53
TISX 020353Z AUTO 05007KT 10SM CLR 27/23 A2997 RMK AO2 SLP148 T02720228 403220261 TSNO $

2006/10/02 03:50
TJBQ 020350Z 10006KT 10SM SCT020 25/24 A2999

2006/10/02 03:50
TJPS 020350Z 05004KT 8SM FEW025 26/22 A2998

2006/10/02 03:56
TJSJ 020356Z 12003KT 10SM FEW030 SCT090 27/24 A2999 RMK AO2 SLP154 T02670239 403220256 $

2006/10/02 04:00
RJTO 020400Z 04015KT 9999 SCT015 BKN030 20/17 Q1011

2006/10/02 03:55
RJTY 020355Z 01006KT 9999 BKN030 OVC080 20/16 A2995 RMK AO2A SLP139 VISNO RWY18 CHINO RWY18

2006/10/02 04:00
LPFR 020400Z 28004KT CAVOK 19/19 Q1014

2006/10/02 04:00
LPMA 020400Z 23016KT 9999 FEW016 FEW018TCU 22/21 Q1013 RS2110KT 052113KT 232318KT

2006/10/02 04:00
LPPR 020400Z 00000KT 9999 FEW020 BKN040 18/17 Q1013

2006/10/02 04:00
LPPS 020400Z 21013KT 9999 FEW016 SCT100 23/20 Q1014

2006/10/02 04:00
LPPT 020400Z 23004KT 8000 FEW005 BKN100 18/18 Q1013 NOSIG

2006/10/02 04:00
SOCA 020400Z 23001KT 9999 FEW025 SCT050 24/23 Q1012 NOSIG

2006/10/02 04:00
SPIM 020400Z 16008KT 5000 BR SKC 17/14 Q1014 NOSIG RMK PP000

2006/10/02 04:00
SPQT 020400Z 00000KT 9999 BKN012 BKN100 23/22 Q1012 NOSIG RMK PP000

2006/10/02 04:00
SPQU 020400Z 34004KT CAVOK 11/M09 Q1027 RMK PP000

2006/10/02 04:00
SPSO 020400Z VRB02KT 8000 SKC 16/14 Q1014 RMK PP000

2006/10/02 04:00
SPZO 020400Z 24003KT 9999 SKC 09/01 Q1032 RMK PP000

2006/10/02 04:00
SVBC 020400Z /////KT 9999 SCT010 25/20 Q1011

2006/10/02 04:00
SVMG 020400Z 08010KT 9999 FEW010 SCT270 28/26 Q1012 NOSIG

2006/10/02 04:00
SVMI 020400Z 00000KT CAVOK 27/24 Q1011 NOSIG

2006/10/02 04:00
SCAR 020400Z 20007KT 9999 BKN026 17/13 Q1016

2006/10/02 04:00
SCCI 020400Z 23006KT 9999 SCT020 02/00 Q1017 NOSIG

2006/10/02 04:00
SCDA 020400Z 21004KT 9999 OVC025 17/11 Q1017

2006/10/02 04:00
SCEL 020400Z VRB02KT 9999 SCT030 BKN120 13/10 Q1018 NOSIG

2006/10/02 04:00
SCFA 020400Z VRB03KT 9999 OVC020 15/12 Q1015 NOSIG

2006/10/02 04:00
SCIE 020400Z 22005KT CAVOK 08/05 Q1021

2006/10/02 04:00
SCIP 020400Z 14005KT 9999 SCT020 19/15 Q1025

2006/10/02 04:00
SCTE 020400Z 00000KT 0800 BCFG FEW020 05/05 Q1024 NOSIG

2006/10/02 04:00
SGAS 020400Z 09006KT CAVOK 21/19 Q1012

2006/10/02 04:00
SLCB 020400Z 14003KT 9999 FEW030 SCT200 15/07 Q1023

2006/10/02 04:00
SLLP 020400Z 04005KT 9999 NSC 03/M03 Q1037

2006/10/02 04:00
SLVR 020400Z 32007KT 8000 NSC 25/22 Q1010

2006/10/02 04:00
UTAM 020400Z 14004MPS CAVOK 21/05 Q1014 NOSIG

2006/10/02 04:00
SCSE 020400Z 26001KT CAVOK 11/10 Q1015 NEFO PLAYA SKC

2006/10/02 04:00
SCTC 020400Z 11001KT CAVOK 03/03 Q1024

2006/10/02 04:00
OERY 020400Z 16006KT 9000 SKC 27/05 Q1016 NOSIG

2006/10/02 04:00
DTMB 020400Z 15002KT 8000 SKC 22/22 Q1018 NOSIG

2006/10/02 04:00
DTTA 020400Z 14002KT 6000 FEW030 22/21 Q1017 NOSIG

2006/10/02 04:00
DTTB 020400Z 36002KT CAVOK 19/19 Q1017

2006/10/02 04:00
DTTJ 020400Z 19006KT 5000 SKC 21/21 Q1018 NOSIG

2006/10/02 04:00
DTTK 020400Z 25002KT CAVOK 22/17 Q1018

2006/10/02 04:00
DTTL 020400Z 18004KT 6000 BKN016 24/23 Q1017

2006/10/02 04:00
DTTN 020400Z 26002KT 8000 SKC 19/11 Q1018

2006/10/02 04:00
DTTX 020400Z 24004KT CAVOK 20/18 Q1018 NOSIG

2006/10/02 04:00
DTTZ 020400Z 11010KT CAVOK 23/12 Q1018 NOSIG

2006/10/02 03:53
KAMA 020353Z 18015KT 10SM CLR 22/16 A3004

2006/10/02 03:53
KAUS 020353Z 17009KT 10SM SCT120 25/19 A3008

2006/10/02 03:53
KBPT 020353Z AUTO 00000KT 8SM CLR 23/22 A3011

2006/10/02 03:59
KBQK 020359Z AUTO 00000KT 7SM SCT070 20/19 A3012

2006/10/02 03:53
KBRO 020353Z 12007KT 10SM CLR 26/22 A3008

2006/10/02 03:53
KBTR 020353Z 00000KT 10SM FEW250 23/20 A3011

2006/10/02 03:53
KCHA 020353Z 00000KT 10SM CLR 17/14 A3019

2006/10/02 03:51
KCRP 020351Z 14008KT 10SM FEW020 26/23 A3008

2006/10/02 03:53
KDAL 020353Z 16010KT 10SM FEW130 BKN300 28/18 A3005

2006/10/02 03:53
KDRT 020353Z AUTO 13006KT 10SM CLR 27/17 A3004

2006/10/02 03:51
KELP 020351Z 00000KT 10SM FEW250 24/03 A3009

2006/10/02 03:53
KEYW 020353Z AUTO 06011KT 10SM CLR 28/22 A3005

2006/10/02 03:53
KFPR 020353Z AUTO 07007KT 10SM BKN036 BKN044 27/20 A3009

2006/10/02 03:53
KFTW 020353Z 17011KT 10SM CLR 28/17 A3004

2006/10/02 03:53
KFTY 020353Z 00000KT 9SM CLR 15/13 A3017

2006/10/02 03:53
KFXE 020353Z 06009KT 10SM CLR 27/21 A3006

2006/10/02 03:52
KGLS 020352Z AUTO 14007KT 10SM CLR 27/22 A3012

2006/10/02 03:53
KGPT 020353Z AUTO 00000KT 6SM BR CLR 22/21 A3011

2006/10/02 03:53
KHOU 020353Z 00000KT 10SM FEW150 BKN250 24/21 A3010

2006/10/02 03:52
KHRL 020352Z 12008KT 10SM FEW095 27/22 A3007

2006/10/02 03:53
KHSV 020353Z 06003KT 10SM CLR 17/11 A3019

2006/10/02 03:53
KLCH 020353Z AUTO 00000KT 8SM CLR 23/21 A3011

2006/10/02 03:56
KLRD 020356Z AUTO 13010KT 10SM CLR 28/23 A3006

2006/10/02 03:53
KMAF 020353Z AUTO 17014KT 10SM CLR 24/14 A3007

2006/10/02 03:53
KMFE 020353Z 13008KT 10SM CLR 26/22 A3007

2006/10/02 03:53
KMGM 020353Z 00000KT 10SM CLR 23/20 A3013

2006/10/02 03:56
KMOB 020356Z 23003KT 10SM CLR 23/21 A3013

2006/10/02 03:53
KNEW 020353Z AUTO 21003KT 10SM CLR 26/22 A3011

2006/10/02 03:53
KOPF 020353Z AUTO 06008KT 10SM SCT031 28/22 A3006

2006/10/02 03:53
KPDK 020353Z AUTO 00000KT 10SM CLR 16/13 A3017

2006/10/02 03:53
KPFN 020353Z AUTO 00000KT 7SM CLR 25/23 A3011

2006/10/02 03:53
KPIE 020353Z 04010KT 10SM CLR 25/21 A3011

2006/10/02 03:53
KPNS 020353Z AUTO 26005KT 10SM CLR 26/22 A3011

2006/10/02 03:53
KRSW 020353Z AUTO 08006KT 10SM CLR 24/21 A3009

2006/10/02 03:53
KSAT 020353Z 16009KT 10SM FEW018 SCT250 26/21 A3011

2006/10/02 03:53
KSAV 020353Z 00000KT 9SM BKN065 21/19 A3012

2006/10/02 03:56
KSHV 020356Z 17003KT 10SM BKN260 23/18 A3009

2006/10/02 03:53
KSSI 020353Z AUTO 14005KT 10SM BKN070 26/20 A3011

2006/10/02 03:53
KTMB 020353Z AUTO 06008KT 10SM CLR 27/22 A3006

2006/10/02 03:53
KTUL 020353Z 16010KT 10SM BKN250 27/16 A2999

2006/10/02 03:53
KTYS 020353Z 00000KT 10SM CLR 16/13 A3020

2006/10/02 04:00
AYMO 020400Z AUTO 15014KT //// // ////// 30/23 Q1005

2006/10/02 03:50
BGMQ 020350Z AUTO 27024KT 6000NDV DZ FEW010/// SCT015/// BKN023/// BKN030/// 03/01 Q1010

2006/10/02 03:50
BGQQ 020350Z AUTO 30001KT 9999U -SN ///021/// M01/M02 Q0998 RMK ///

2006/10/02 03:50
BGSS 020350Z AUTO 22027KT 3100NDV RA FEW004/// BKN006/// OVC012/// 04/03 Q0998

2006/10/02 03:50
BGUK 020350Z AUTO 01008KT 9999NDV ///014/// 01/M02 Q0997 RMK ///

2006/10/02 04:00
BKPR 020400Z 00000KT 0100 R35/P1500 FG BKN002 07/07 Q1020 NOSIG RMK AMB

2006/10/02 03:55
PHHI 020355Z AUTO 09004KT 10SM SCT036 25/20 A2998 RMK AO2 SLP139 T02490203

2006/10/02 03:52
PKWA 020352Z 01003KT 10SM FEW018TCU BKN180 BKN300 29/26 A2973 RMK TCU DSNT W SLP068 T02940262

2006/10/02 04:00
RJOI 020400Z 03009KT 9999 FEW030 BKN050 BKN200 25/16 A2989 RMK SLP122 T02500161

2006/10/02 03:55
RJTY 020355Z 01006KT 9999 BKN030 OVC080 20/16 A2995 RMK AO2A SLP139 VISNO RWY18 CHINO RWY18

2006/10/02 03:55
RKSO 020355Z 34004KT 9999 SCT030 26/12 A2997 RMK SLP151 WND DATA ESTMD

2006/10/02 03:55
RODN 020355Z 03012KT 9999 VCSH FEW025 BKN030 BKN060 29/25 A2978 RMK SLP084 VCSH N SHRA DSNT SW

2006/10/02 03:50
EGXT 020350Z 23016KT 9999 FEW025 BKN060 13/11 Q0998 BLU

2006/10/02 03:50
LTFH 020350Z 31009KT 9999 SCT036 BKN100 18/16 Q1018 NOSIG RMK RWY31 30009KT

2006/10/02 03:50
LTFJ 020350Z 04006KT CAVOK 12/10 Q1019 TEMPO 4000 BR SCT010 RMK RWY24 VRB03KT

2006/10/02 04:00
LZKC 020400Z AUTO 19004KT 080V270 //// ////// 16/12 Q1015

2006/10/02 04:00
LZLU 020400Z AUTO 00000KT //// ////// 11/11 Q1016

2006/10/02 04:00
LZNI 020400Z 00000KT 9999 FEW060 SCT100 13/12 Q1016

2006/10/02 04:00
LZPE 020400Z AUTO 00000KT 3000 BR ////// 13/12 Q1016

2006/10/02 04:00
LZPP 020400Z 00000KT 3500 BR NSC 12/11 Q1016

2006/10/02 04:00
LZSL 020400Z 00000KT 0200 FG OVC002 12/11 Q1016

2006/10/02 04:00
LZZI 020400Z 00000KT 0500 FG OVC001 13/13 Q1015

2006/10/02 04:00
MGTK 020400Z 00000KT 9999 FEW020 BKN090 24/23 Q1017

2006/10/02 03:55
OAHR 020355Z 08004KT 8000 SKC 19/M02 Q1017 RMK VIS MIN 8000 BLU

2006/10/02 04:00
OSKL 020400Z 36006KT CAVOK 18/04 Q1011

2006/10/02 04:00
OYAG 020400Z 00000KT 9999 SCT025 26/23 Q1011

2006/10/02 04:00
OYRN 020400Z 01005KT 9999 FEW015 SCT025 26/23 Q1013

2006/10/02 04:00
OYSQ 020400Z 00000KT 9999 FEW020 BKN250 26/24 Q1008

2006/10/02 04:00
RJBB 020400Z 01006KT 9999 FEW003 SCT015 BKN020 21/19 Q1011 NOSIG

2006/10/02 04:00
RJBH 020400Z 36009KT 330V060 9999 FEW025 SCT035 BKN150 25/17 Q1011

2006/10/02 04:00
RJBT 020400Z 36006KT 340V040 4000 VCFG SCT005 SCT015 OVC070 18/18 Q1012

2006/10/02 04:00
RJFS 020400Z 04012KT 9999 FEW025 BKN/// 26/15 Q1011

2006/10/02 04:00
RJGG 020400Z 36007KT 8000 -RA FEW005 BKN008 BKN020 20/18 Q1010 TEMPO 4000 SHRA BR SCT005 BKN007 BKN015

2006/10/02 04:00
RJNW 020400Z 29007KT 9999 FEW005 SCT008 BKN015 19/16 Q1012

2006/10/02 04:00
RJOW 020400Z 02009KT 9999 FEW015 SCT100 BKN120 22/17 Q1013

2006/10/02 04:00
RJSF 020400Z 35008KT 8000 -RA FEW001 SCT003 BKN005 16/16 Q1013

2006/10/02 04:00
RJSR 020400Z VRB03KT 9999 -RA FEW007 SCT050 BKN090 19/15 Q1013

2006/10/02 04:00
RJSY 020400Z 10010KT 5000 -RA BR FEW010 BKN030 BKN050 18/16 Q1012

2006/10/02 04:00
ROIG 020400Z 03013KT 9999 SCT018 BKN070 30/24 Q1008

2006/10/02 03:58
ROTM 020358Z 07012KT 9999 VCSH BKN025 BKN200 31/22 A2979 RMK SLP067 T2 VCSH NW T0360217 SP29.480

2006/10/02 04:00
GMAD 020400Z 06005KT 8000 FEW020 19/17 Q1015 NOSIG

2006/10/02 04:00
GMFM 020400Z 14004KT CAVOK 24/10 Q1017

2006/10/02 04:00
GMML 020400Z 02008KT 8000 SCT016 SCT200 20/19 Q1014

2006/10/02 04:00
GMMZ 020400Z VRB03KT CAVOK 21/M01 Q1023

2006/10/02 03:50
K4O4 020350Z AUTO 17004KT 10SM CLR 23/17 A3008 RMK AO2

2006/10/02 03:57
KESN 020357Z AUTO 00000KT 10SM CLR 13/10 A3014 RMK AO2

2006/10/02 03:54
KFME 020354Z AUTO 00000KT 7SM CLR 11/10 A3018 RMK AO1

2006/10/02 04:00
LBGO 020400Z 07002MPS 1400 R10/P1500N R28/P1500N BR SKC 11/10 Q1019 NOSIG

2006/10/02 04:00
LFBE 020400Z 09003KT 1800 R28/1000VP1500D MIFG BR SKC 13/12 Q1014 TEMPO BCFG

2006/10/02 04:00
LFCR 020400Z AUTO 15005KT 9999NDV NCD 14/12 Q1017

2006/10/02 04:00
LFJL 020400Z AUTO 20013KT 9999NDV NSC 15/13 Q1013

2006/10/02 04:00
LFLX 020400Z 21009KT 9999 SCT046 BKN100 16/13 Q1014 NOSIG

2006/10/02 04:00
LFMI 020400Z 10004KT 8000 SCT016 20/17 Q1017 NOSIG

2006/10/02 04:00
LFMK 020400Z 09005KT 4000 BR BKN012 18/18 Q1016

2006/10/02 04:00
LFMO 020400Z 00000KT 8000 SKC 17/17 Q1017

2006/10/02 04:00
LFMU 020400Z AUTO 01005KT 5000NDV SCT009 BKN013 19/18 Q1016

2006/10/02 04:00
LFMV 020400Z AUTO 18003KT 9000NDV NSC 18/17 Q1017

2006/10/02 04:00
LFOA 020400Z 24008KT 9999 SCT048 SCT073 BKN120 15/13 Q1014

2006/10/02 04:00
LFOJ 020400Z 20011KT 9999 FEW013 SCT026 BKN130 16/14 Q1012

2006/10/02 04:00
LFOK 020400Z AUTO 20012KT 9999NDV NCD 14/13 Q1012

2006/10/02 04:00
LKCV 020400Z 21004KT 130V270 8000 NSC 17/14 Q1013 NOSIG

2006/10/02 04:00
LKKB 020400Z 21004KT 9999 FEW045 BKN080 OVC220 15/14 Q1013 NOSIG

2006/10/02 04:00
LKKV 020400Z 25006KT 190V310 9999 SCT015 BKN020 14/13 Q1013

2006/10/02 04:00
LKLN 020400Z AUTO 22007KT CAVOK 16/14 Q1014

2006/10/02 04:00
LKNA 020400Z 23007KT 8000 NSC 14/14 Q1015

2006/10/02 04:00
LKPD 020400Z 00000KT 7000 FEW039 BKN070 14/13 Q1013 NOSIG

2006/10/02 04:00
LKPO 020400Z 19005KT 2000 BR NSC 14/14 Q1014

2006/10/02 03:50
LOXA 020350Z VRB02KT 10KM FEW003ST SCT045CU BKN060SC 13/12 Q1019 OVC

2006/10/02 03:50
LOXT 020350Z VRB01KT 10KM -RA FEW030SC SCT050SC BKN080AC 15/13 Q1016 OVC

2006/10/02 03:50
LOXZ 020350Z VRB02KT 2500 BR BKN020SC 11/10 Q1018 BKN

2006/10/02 04:00
LQBK 020400Z 15004KT CAVOK 17/15 Q1017 NOSIG

2006/10/02 03:55
LQTZ 020355Z 00000KT 6000 BR OVC075 13/13 A3008 RMK PK WND 13002/50 SLPNO WHT

2006/10/02 03:50
LTAB 020350Z 19001KT CAVOK 10/10 Q1019 NOSIG

2006/10/02 03:50
LTAE 020350Z 35008KT 9999 SCT040 SCT100 11/09 Q1019 NOSIG RMK RWY21 02007KT

2006/10/02 03:50
LTAZ 020350Z AUTO 25005KT 210V320 9999 // SKC 11/08 Q1018 RMK RWY29 23006KT

2006/10/02 03:50
LTBR 020350Z 00000KT 3000 BR SKC 09/08 Q1020 NOSIG RMK RWY07 00000KT

2006/10/02 03:50
LTBU 020350Z 35007KT CAVOK 13/12 Q1020 RMK RWY23 34008KT

2006/10/02 03:50
LTCD 020350Z 00000KT 9999 BKN038 10/08 Q1018

2006/10/02 03:50
LTFC 020350Z 02005KT CAVOK 10/08 Q1017 NOSIG RMK RWY23 01004KT

2006/10/02 04:00
DTKA 020400Z 11006KT CAVOK 18/13 Q1017 NOSIG

2006/10/02 04:00
DTTF 020400Z 05002KT CAVOK 17/08 Q1019 NOSIG

2006/10/02 03:50
EDDE 020350Z 22012KT 9999 FEW030 BKN300 15/13 Q1010 NOSIG

2006/10/02 03:50
EDFH 020350Z 24009KT 210V280 9999 FEW016 BKN250 13/11 Q1011

2006/10/02 03:50
EDLV 020350Z 20011KT CAVOK 15/12 Q1006

2006/10/02 03:50
EDSB 020350Z 21009KT CAVOK 16/12 Q1014

2006/10/02 03:50
EDTL 020350Z 18009KT 150V210 CAVOK 17/13 Q1014

2006/10/02 03:50
EEKA 020350Z 19004KT 4000 BR SKC 10/10 Q1006

2006/10/02 03:50
EEKE 020350Z 28004KT 0100 FG VV/// 12/12 Q1007

2006/10/02 03:50
EETU 020350Z 23004KT 6000 SCT016 BKN100 12/12 Q1008

2006/10/02 03:50
EFET 020350Z AUTO 11003KT 6000 -RA OVC006 01/01 Q1004

2006/10/02 03:50
EFJO 020350Z 13009KT 9999 -SHRA OVC003 05/05 Q1008

2006/10/02 03:50
EFKA 020350Z 18004KT 140V220 0900 R17/P1500U R35/P1500N -DZ FG OVC001 11/11 Q1003

2006/10/02 03:50
EFKI 020350Z 13006KT 100V170 8000 -RA FEW005 BKN007 OVC012 04/04 Q1005 RERA

2006/10/02 03:50
EFKS 020350Z AUTO 11010KT 9999 -RA FEW023 BKN070 01/01 Q1007

2006/10/02 03:50
EFKT 020350Z 12002KT 7000 -SHRA BKN004 01/01 Q1005

2006/10/02 03:50
EFLP 020350Z 12005KT 090V150 1200 R06/P1500N R24/P1500N BR OVC001 09/09 Q1006

2006/10/02 03:50
EFMI 020350Z AUTO 12006KT 2600 BR OVC002 09/09 Q1006

2006/10/02 03:50
EFSI 020350Z 00000KT 2100 BR OVC001 11/11 Q1003

2006/10/02 03:50
EFUT 020350Z 21006KT 170V230 1300 BR OVC001 11/11 Q1005

2006/10/02 03:50
EFVR 020350Z AUTO 13007KT 2900 -RA OVC003 09/08 Q1006

2006/10/02 03:50
EGCN 020350Z 23012KT 9999 FEW025 BKN030 13/12 Q0997

2006/10/02 03:50
EGDX 020350Z AUTO 23018KT 9999NDV // SCT014/// SCT035/// 14/12 Q1001 RERA

2006/10/02 03:50
EGOM 020350Z AUTO 25005KT 0150NDV -DZ BKN000/// 09/09 Q0994

2006/10/02 03:50
EGUB 020350Z 21013KT CAVOK 13/10 Q1002

2006/10/02 03:50
EGUB 020350Z 21013KT CAVOK 13/10 Q1002 BLU

2006/10/02 03:50
EGUW 020350Z 24017KT 9999 BKN022 BKN060 13/11 Q1000 WHT

2006/10/02 03:50
EGVN 020350Z 23009KT 9999 SHRA SCT020 BKN035 13/11 Q1001 TEMPO 6000

2006/10/02 03:50
EGVN 020350Z 23009KT 9999 SHRA SCT020 BKN035 13/11 Q1001 WHT TEMPO 6000 WHT

2006/10/02 03:50
EGVO 020350Z 21013KT CAVOK 13/11 Q1002 BLU

2006/10/02 03:50
EGVP 020350Z 22009KT CAVOK 12/11 Q1003 BLU

2006/10/02 03:50
EGWU 020350Z AUTO /////KT 9999NDV // SCT021/// 13/10 Q1002

2006/10/02 03:50
EGXC 020350Z 23014KT 9999 SCT023 13/11 Q0997

2006/10/02 03:50
EGXC 020350Z 23014KT 9999 SCT023 13/11 Q0997 WHT

2006/10/02 03:50
EGXD 020350Z 28002KT 9999 FEW025 BKN045 12/12 Q0994 BLU

2006/10/02 03:50
EGXE 020350Z 29005KT 9999 SCT026 BKN045 12/11 Q0994 BLU

2006/10/02 03:50
EGXG 020350Z AUTO 26010KT 9999NDV // BKN044/// BKN080/// 13/11 Q0995

2006/10/02 03:50
EGXJ 020350Z 23018KT 9999 FEW014 SCT065 13/10 Q0998 BLU

2006/10/02 03:50
EGXT 020350Z AUTO 23016KT 9999NDV // BKN070/// 13/11 Q0998 RERA

2006/10/02 03:50
EGXU 020350Z 29006KT 6000 -RA FEW017 BKN035 OVC050 13/12 Q0994 RERA WHT

2006/10/02 03:50
EGXW 020350Z 23014KT 9999 FEW014 BKN022 BKN050 13/11 Q0996 WHT

2006/10/02 03:50
EGYD 020350Z AUTO 23020KT 9999NDV // FEW018/// 13/11 Q0997

2006/10/02 03:50
EGYM 020350Z 23017KT 9999 FEW020 BKN080 13/11 Q0998 BLU

2006/10/02 03:50
EGYW 020350Z AUTO 22016KT 9999NDV // BKN020/// BKN037/// 13/11 Q0997

2006/10/02 03:50
EKGF 020350Z 21016KT CAVOK 16/13 Q0996

2006/10/02 03:50
ENHE 020350Z 02018KT 9999 BKN012 09/06 Q1002

2006/10/02 04:00
EPLL 020400Z 22004KT 2000 BR OVC003 14/13 Q1012

2006/10/02 04:00
EPWR 020400Z 24002KT CAVOK 13/12 Q1011

2006/10/02 03:50
EQBA 020350Z 16007KT 9999 SKC 23/04 Q1015 BLU+

2006/10/02 03:50
EQBF 020350Z VRB01KT 9999 SKC 21/03 Q1022 BLU+

2006/10/02 03:50
ESGR 020350Z AUTO 19003KT 5000NDV BR FEW110/// 11/11 Q1002 RERA REDZ

2006/10/02 03:50
ESGT 020350Z 14007KT 9999 -RA BKN010 12/11 Q1000

2006/10/02 03:50
ESMQ 020350Z 18008KT 2600 RA BKN002 OVC005 16/16 Q1005 RERA

2006/10/02 03:50
ESMT 020350Z 18007KT 9999 SCT010 BKN016 14/13 Q1002

2006/10/02 03:50
ESNG 020350Z 10005KT 5000 -RA BKN002 OVC004 03/02 Q1003 REDZ

2006/10/02 03:50
ESNK 020350Z 33003KT 9999 BKN009 10/10 Q1003

2006/10/02 03:50
ESNL 020350Z 00000KT 0600 R14/1200 FG VV001 05/04 Q1002

2006/10/02 03:50
ESNY 020350Z AUTO 30004KT 0300 R30/0800 FG FEW000 06/06 Q1003

2006/10/02 03:50
ESOE 020350Z 02007KT 0250 R01/0800V1100 R19/0800 FG VV002 06/06 Q1003

2006/10/02 03:50
ESSL 020350Z 12005KT CAVOK 08/08 Q1004

2006/10/02 03:50
ESTA 020350Z VRB03KT CAVOK 12/11 Q1003

2006/10/02 03:50
ESTL 020350Z AUTO 11002KT 9000 BR SKC 12/11 Q1003

2006/10/02 03:50
ESUD 020350Z AUTO 00000KT 9999NDV OVC003/// 06/06 Q1002

2006/10/02 03:50
ESUT 020350Z AUTO 12004KT 9999NDV BKN016/// OVC021/// 07/06 Q1000

2006/10/02 03:55
ETOU 020355Z 22008KT 9999 OVC042 16/13 A2989 RMK AO2A SLP119 T01590129 $

2006/10/02 03:50
ETUO 020350Z 19007KT 9999 SCT030 BKN045 16/11 Q1006 BLU

2006/10/02 03:50
EVLA 020350Z AUTO 05002KT 1000 PRFG FEW022 11/11 Q1008

2006/10/02 03:50
EVVA 020350Z AUTO VRB01KT 0500 FG VV001 08/07 Q1008

2006/10/02 03:50
EYKA 020350Z 20004KT 2000 R08/2000 BR BKN008 OVC100 15/14 Q1010

2006/10/02 03:50
EYPA 020350Z 14001KT 2000 BR BKN011 12/12 Q1008 TEMPO 0400FG SCT003

2006/10/02 04:00
FAGC 020400Z AUTO 28002KT //// // ////// 16/09 Q1015

2006/10/02 04:00
FARG 020400Z AUTO 23003KT //// // ////// 15/// Q1012

2006/10/02 04:00
FASI 020400Z AUTO 30001KT //// // ////// 16/11 Q1015

2006/10/02 04:00
FASR 020400Z AUTO 08003KT //// // ////// 11/08 Q1016

2006/10/02 04:00
FAVV 020400Z AUTO 27002KT //// // ////// 15/05 Q1015

2006/10/02 04:00
FMEP 020400Z 04003KT 320V100 9999 FEW066 24/14 Q1020

2006/10/02 03:50
EDDS 020350Z 21006KT CAVOK 15/12 Q1015

2006/10/02 03:50
EDMA 020350Z 22008KT CAVOK 15/14 Q1016

2006/10/02 03:50
EGPK 020350Z VRB03KT 9999 BKN009 11/11 Q0995

2006/10/02 03:55
ETAD 020355Z 22014G19KT 9999 BKN021 13/11 A2988 RMK AO2A SLP110 T01320113 $ WHT

2006/10/02 03:55
ETAR 020355Z 21009KT 9999 BKN029 16/12 A2990 RMK AO2A SLP121 T01570125 $ BLU

2006/10/02 03:55
KQHT 020355Z 10006KT 9999 FEW130 FEW200 20/04 A3010 RMK SLP177 WND DATA ESTMD

2006/10/02 03:59
KQIR 020359Z 33004KT 9999 SKC 27/21 A2988 RMK SLP120 WND DATA ESTMD ALSTG/SLP ESTMD

2006/10/02 03:50
LIRN 020350Z VRB01KT 6000 SCT030 17/15 Q1020

2006/10/02 03:50
LTAC 020350Z 03007KT CAVOK 11/08 Q1020 NOSIG RMK RWY21L 03010KT

2006/10/02 03:50
LTAG 020350Z 29001KT 9999 SCT035 BKN100 19/17 Q1011 NOSIG

2006/10/02 04:00
UBBN 020400Z 10004KT 9999 BKN100 15/11 Q1015 14CLRD60 NOSIG RMK G/O QFE686

2006/10/02 04:00
UMKK 020400Z 19002MPS 0800 R24/2000 FG VV003 14/14 Q1009 NOSIG RMK QFE 756 SC07

2006/10/02 04:00
ZBHH 020400Z 26002MPS 5000 HZ FEW040 18/07 Q1019 NOSIG

2006/10/02 04:00
ZBSJ 020400Z 23004MPS 3500 HZ SKC 30/09 Q1014 NOSIG

2006/10/02 04:00
ZGHA 020400Z 33003MPS 270V020 9999 SCT033 26/19 Q1017 NOSIG

2006/10/02 04:00
ZGKL 020400Z 04002MPS CAVOK 26/15 Q1015 NOSIG

2006/10/02 04:00
ZGOW 020400Z 09004MPS CAVOK 31/23 Q1011 NOSIG

2006/10/02 04:00
ZJHK 020400Z 08008MPS 2000 SHRA BKN005 FEW020TCU FEW026CB OVC033 25/24 Q1010 NOSIG

2006/10/02 04:00
ZLXY 020400Z VRB02MPS 3000 BR NSC 21/15 Q1019 NOSIG

2006/10/02 04:00
ZSQD 020400Z 24003MPS 5000 FU SKC 27/12 Q1016 NOSIG

2006/10/02 04:00
ZWSH 020400Z 00000MPS CAVOK 22/09 Q1022 NOSIG

2006/10/02 04:00
ZYCC 020400Z 21007MPS 180V240 CAVOK 25/09 Q1012 NOSIG

2006/10/02 04:00
ZYTX 020400Z 20006MPS CAVOK 25/13 Q1013 NOSIG

2006/10/02 03:53
KBFI 020353Z 00000KT 10SM CLR 13/08 A3000

2006/10/02 03:56
KBIL 020356Z 36005KT 10SM CLR 17/00 A2985

2006/10/02 03:53
KBKE 020353Z AUTO 20004KT 10SM CLR 08/M01 A2995

2006/10/02 03:53
KBLI 020353Z 00000KT 10SM CLR 07/06 A3001

2006/10/02 03:53
KBOI 020353Z 18005KT 10SM CLR 15/M04 A2987

2006/10/02 03:53
KCLM 020353Z AUTO 00000KT 10SM OVC060 10/08 A3002

2006/10/02 03:56
KCTB 020356Z AUTO 00000KT 10SM CLR 08/04 A2990

2006/10/02 03:56
KDUG 020356Z AUTO 02003KT 10SM CLR 18/06 A3012

2006/10/02 03:56
KFAT 020356Z 29003KT 8SM BKN085 OVC110 15/13 A2999

2006/10/02 03:55
KGDV 020355Z AUTO 34005KT 10SM CLR 14/M01 A2986

2006/10/02 03:56
KGEG 020356Z 22005KT 10SM SCT200 12/00 A2990

2006/10/02 03:53
KGGW 020353Z AUTO 02007KT 10SM CLR 11/06 A2985

2006/10/02 03:53
KGLH 020353Z AUTO 14007KT 10SM FEW060 24/19 A3010

2006/10/02 03:55
KGPI 020355Z AUTO 00000KT 10SM CLR 09/01 A2989

2006/10/02 03:53
KGTF 020353Z 00000KT 10SM CLR 11/02 A2988

2006/10/02 03:53
KGWO 020353Z AUTO 00000KT 8SM OVC100 24/21 A3011

2006/10/02 03:53
KHLN 020353Z 23004KT 10SM CLR 16/M02 A2991

2006/10/02 03:53
KHQM 020353Z AUTO 26003KT 10SM CLR 12/08 A3002

2006/10/02 03:55
KHVR 020355Z AUTO 06013KT 10SM CLR 11/06 A2988

2006/10/02 03:53
KIPL 020353Z AUTO 27009KT 10SM CLR 31/04 A2977

2006/10/02 03:53
KLBB 020353Z 17012KT 10SM CLR 23/16 A3008

2006/10/02 03:53
KMSO 020353Z 31006KT 10SM CLR 11/M01 A2992

2006/10/02 03:52
KMWH 020352Z 14005KT 10SM CLR 13/03 A2988

2006/10/02 03:55
KNUW 020355Z 00000KT 7SM FEW070 08/06 A3001

2006/10/02 03:53
KOLF 020353Z AUTO 01008KT 10SM CLR 14/06 A2984

2006/10/02 03:54
KOLM 020354Z AUTO 32003KT 10SM CLR 12/06 A3000

2006/10/02 03:54
KOLS 020354Z AUTO 06004KT 10SM CLR 20/04 A3011

2006/10/02 03:53
KPAE 020353Z 01004KT 10SM BKN060 12/08 A3001

2006/10/02 03:55
KPDX 020355Z 30006KT 10SM FEW200 16/09 A2999

2006/10/02 03:53
KPMD 020353Z 00000KT 10SM CLR 20/11 A2998

2006/10/02 03:56
KRNO 020356Z 35005G16KT 8SM RA FEW010 BKN025 OVC035 13/07 A3005

2006/10/02 03:53
KRNT 020353Z AUTO 35006KT 10SM CLR 14/09 A3000

2006/10/02 03:53
KSAC 020353Z 00000KT 10SM CLR 15/08 A3000

2006/10/02 03:55
KSCK 020355Z 36004KT 8SM FEW023 14/12 A2999

2006/10/02 03:53
KSDM 020353Z AUTO 00000KT 9SM CLR 18/16 A2993

2006/10/02 03:53
KSFF 020353Z 00000KT 10SM CLR 11/02 A2991

2006/10/02 03:53
KSJC 020353Z 01003KT 10SM FEW025 SCT037 BKN090 16/11 A3001

2006/10/02 03:56
KSLC 020356Z 13008KT 10SM SCT130 BKN200 18/02 A2995

2006/10/02 03:53
KSMF 020353Z 13003KT 10SM CLR 16/08 A3000

2006/10/02 03:53
KTIW 020353Z AUTO 02006KT 10SM CLR 13/08 A2999

2006/10/02 03:55
KTUS 020355Z 16007KT 10SM CLR 26/02 A3002

2006/10/02 03:56
KYUM 020356Z 16005KT 7SM SCT050 SCT100 BKN180 BKN200 31/13 A2980

2006/10/02 03:54
KACY 020354Z 29008KT 10SM CLR 13/10 A3010

2006/10/02 03:53
KAUG 020353Z AUTO 36005KT 6SM -RA BR SCT031 BKN043 OVC050 09/08 A3004

2006/10/02 03:54
KAVL 020354Z AUTO 34006KT 10SM CLR 12/10 A3026

2006/10/02 03:53
KBGM 020353Z 29006KT 10SM BKN080 10/08 A3010

2006/10/02 03:51
KBKW 020351Z AUTO 20004KT 10SM CLR 09/08 A3025

2006/10/02 03:51
KCON 020351Z AUTO 31003KT 10SM OVC031 10/08 A3003

2006/10/02 03:52
KDCA 020352Z 20003KT 10SM CLR 14/10 A3016

2006/10/02 03:51
KEKN 020351Z AUTO 00000KT 1SM BR VV001 05/04 A3024

2006/10/02 03:57
KESN 020357Z AUTO 00000KT 10SM CLR 13/10 A3014

2006/10/02 03:53
KGFL 020353Z AUTO 00000KT 3/4SM BR OVC001 10/10 A3003

2006/10/02 03:53
KGSP 020353Z AUTO 03003KT 10SM CLR 18/09 A3018

2006/10/02 04:01
KIPJ 020401Z AUTO 00000KT 7SM CLR 13/12 A3019

2006/10/02 03:54
KIPT 020354Z AUTO 27006KT 10SM CLR 11/09 A3012

2006/10/02 03:54
KLYH 020354Z AUTO 00000KT 10SM CLR 11/10 A3021

2006/10/02 03:53
KMHT 020353Z AUTO 35007KT 10SM FEW007 OVC013 11/09 A3001

2006/10/02 03:51
KMPV 020351Z AUTO 00000KT 3SM BR OVC014 09/08 A3007

2006/10/02 03:53
KMWN 020353Z 28020KT 1/16SM FG VV000 00/00 RMK

2006/10/02 03:51
KNYC 020351Z AUTO 28003KT 10SM CLR 14/09 A3008

2006/10/02 03:54
KPNE 020354Z AUTO 30007KT 10SM CLR 14/09 A3009

2006/10/02 03:54
KROA 020354Z 00000KT 10SM CLR 13/09 A3023

2006/10/02 03:53
KSMQ 020353Z AUTO 00000KT 10SM CLR 10/08 A3006

2006/10/02 03:54
KWAL 020354Z AUTO 28003KT 10SM FEW085 13/12 A3013

2006/10/02 03:55
KAST 020355Z AUTO VRB03KT 10SM CLR 11/08 A3002

2006/10/02 03:54
KBFL 020354Z 00000KT 5SM BR SCT070 16/14 A2999

2006/10/02 03:56
KBIH 020356Z AUTO 15017G23KT 10SM OVC100 21/04 A2991

2006/10/02 03:52
KBLU 020352Z AUTO 09004KT 10SM -RA OVC039 08/06 A3010

2006/10/02 03:56
KBZN 020356Z 00000KT 10SM CLR 10/02 A2990

2006/10/02 03:53
KCNY 020353Z AUTO 22010KT 10SM CLR 20/M04 A3002

2006/10/02 03:52
KCZZ 020352Z AUTO 00000KT 17/12 A2999

2006/10/02 03:53
KELY 020353Z AUTO 18008KT 10SM BKN110 16/M06 A3007

2006/10/02 03:54
KEUG 020354Z AUTO 27005KT 10SM CLR 12/06 A2997

2006/10/02 03:56
KFLG 020356Z AUTO 19006KT 10SM FEW080 15/M01 A3029

2006/10/02 03:59
KIGM 020359Z AUTO 18007KT 10SM CLR 27/03 A3000

2006/10/02 03:56
KINW 020356Z AUTO 23011KT 10SM CLR 21/00 A3014

2006/10/02 03:53
KLGB 020353Z 30006KT 10SM CLR 19/12 A2992

2006/10/02 03:56
KLWS 020356Z 16004KT 10SM CLR 15/02 A2990

2006/10/02 03:56
KMEH 020356Z AUTO 00000KT 10SM CLR 04/M01 A2997

2006/10/02 03:53
KMFR 020353Z 04005KT 10SM FEW090 16/05 A2993

2006/10/02 03:56
KMHS 020356Z AUTO VRB03KT 10SM CLR 12/03 A3005

2006/10/02 03:52
KMLF 020352Z AUTO 20010KT 10SM CLR 18/00 A3005

2006/10/02 03:56
KNUQ 020356Z 34004KT 10SM OVC041 16/09 A3002

2006/10/02 03:54
KOLM 020354Z AUTO 32003KT 10SM CLR 12/06 A3000

2006/10/02 03:53
KPDT 020353Z AUTO 15004KT 10SM CLR 14/01 A2990

2006/10/02 03:56
KPGA 020356Z AUTO 18003KT 10SM CLR 23/M01 A3005

2006/10/02 03:53
KPIH 020353Z 09006KT 10SM CLR 14/M01 A2996

2006/10/02 03:53
KPUC 020353Z AUTO 02008KT 10SM CLR 15/M06 A3010

2006/10/02 03:54
KRBL 020354Z AUTO 19005KT 10SM CLR 16/08 A3003

2006/10/02 03:52
KSDB 020352Z AUTO 21006KT 10SM SCT080 14/10 A3006

2006/10/02 03:53
KSHN 020353Z AUTO 00000KT 10SM CLR 12/05 A2999

2006/10/02 03:54
KSJN 020354Z AUTO 23009KT 10SM CLR 19/M03 A3019

2006/10/02 03:56
KSLC 020356Z 13008KT 10SM SCT130 BKN200 18/02 A2995

2006/10/02 03:56
KSMP 020356Z AUTO 30004KT 10SM OVC018 07/03 A3000

2006/10/02 03:51
KSMX 020351Z AUTO 29008KT 10SM -RA SCT100 16/12 A3001

2006/10/02 03:50
KSOW 020350Z AUTO 18009KT 10SM CLR 15/M01 A3026

2006/10/02 03:53
KUIL 020353Z AUTO 00000KT 10SM BKN044 09/07 A3001

2006/10/02 03:56
KYKM 020356Z 21004KT 10SM CLR 12/06 A2990

2006/10/02 03:54
KAPN 020354Z AUTO 00000KT 10SM CLR 04/02 A3009

2006/10/02 03:53
KAZO 020353Z 00000KT 10SM BKN120 12/08 A3010

2006/10/02 03:53
KBDE 020353Z AUTO 19003KT 10SM CLR 13/10 A2968

2006/10/02 03:53
KBTL 020353Z AUTO 00000KT 10SM FEW120 12/08 A3011

2006/10/02 03:53
KBTM 020353Z AUTO 12005KT 10SM CLR 09/M04 A2998

2006/10/02 03:55
KCIU 020355Z AUTO 14006KT 10SM BKN100 OVC120 08/06 A3007

2006/10/02 03:53
KCMX 020353Z AUTO 13008KT 10SM CLR 12/08 A2987

2006/10/02 03:54
KCOS 020354Z 30008KT 10SM FEW120 19/M04 A3013

2006/10/02 03:53
KCPR 020353Z AUTO 24010KT 10SM CLR 14/M04 A2998

2006/10/02 03:53
KDET 020353Z 00000KT 10SM CLR 12/09 A3014

2006/10/02 03:55
KDLH 020355Z 13006KT 10SM CLR 11/08 A2978

2006/10/02 03:54
KDSM 020354Z 18016G20KT 10SM CLR 25/16 A2986

2006/10/02 03:55
KELO 020355Z AUTO 13004KT 10SM CLR 09/06 A2975

2006/10/02 03:53
KFAR 020353Z 25005KT 10SM CLR 16/09 A2970

2006/10/02 03:53
KFNT 020353Z 16003KT 10SM MIFG CLR 05/04 A3012

2006/10/02 03:53
KGFK 020353Z 27004KT 10SM CLR 12/06 A2968

2006/10/02 03:53
KGRB 020353Z 16007KT 10SM CLR 14/10 A2997

2006/10/02 03:56
KGRR 020356Z 00000KT 10SM OVC110 11/08 A3008

2006/10/02 03:56
KICT 020356Z 17014KT 10SM SCT200 26/15 A2993

2006/10/02 03:55
KINL 020355Z AUTO 15004KT 10SM CLR 12/09 A2970

2006/10/02 03:52
KISN 020352Z 03003KT 10SM CLR 11/04 A2983

2006/10/02 03:54
KLEX 020354Z 17005KT 10SM CLR 14/10 A3020

2006/10/02 03:53
KMBS 020353Z 17004KT 10SM CLR 09/06 A3011

2006/10/02 03:51
KMDW 020351Z 20016G27KT 10SM -RA SCT055 BKN080 OVC110 22/12 A2996

2006/10/02 03:54
KMKC 020354Z 19013KT 10SM CLR 27/18 A2994

2006/10/02 03:52
KMKE 020352Z 13017G23KT 10SM -TSRA OVC100 16/11 A3003

2006/10/02 03:52
KMLI 020352Z AUTO 19015G20KT 10SM CLR 23/09 A2995

2006/10/02 03:54
KMOT 020354Z AUTO 28008KT 10SM CLR 14/07 A2979

2006/10/02 03:52
KOMA 020352Z 16011KT 10SM CLR 24/14 A2982

2006/10/02 03:59
KPHN 020359Z AUTO 00000KT 1/2SM FG VV005 05/04 A3014

2006/10/02 03:54
KPIA 020354Z 19010KT 10SM CLR 20/10 A3003

2006/10/02 03:53
KPTK 020353Z 00000KT 9SM FEW250 09/07 A3012

2006/10/02 03:53
KPUB 020353Z AUTO 27006KT 10SM CLR 16/02 A3004

2006/10/02 03:59
KSAW 020359Z AUTO 18009KT 10SM CLR 11/09 A2996

2006/10/02 03:56
KSDF 020356Z 13003KT 10SM CLR 16/14 A3016

2006/10/02 03:52
KSGF 020352Z 16011KT 10SM CLR 23/16 A3007

2006/10/02 03:53
KSTP 020353Z 13003KT 10SM CLR 19/12 A2977

2006/10/02 03:54
KSUS 020354Z 00000KT 10SM CLR 21/12 A3006

2006/10/02 03:52
KTOL 020352Z 00000KT 10SM CLR 09/08 A3013

2006/10/02 03:56
KAAF 020356Z AUTO 00000KT 9SM CLR 22/20 A3012

2006/10/02 03:53
KABR 020353Z AUTO 00000KT 10SM CLR 12/09 A2975

2006/10/02 03:51
KACT 020351Z 15009KT 10SM CLR 27/19 A3006

2006/10/02 03:53
KAGS 020353Z 00000KT 10SM CLR 17/15 A3013

2006/10/02 03:51
KAHN 020351Z AUTO 29007KT 10SM CLR 19/13 A3016

2006/10/02 03:53
KALI 020353Z AUTO 11007KT 10SM CLR 26/23 A3007

2006/10/02 03:53
KAUS 020353Z 17009KT 10SM SCT120 25/19 A3008

2006/10/02 04:00
KAYS 020400Z AUTO 17004KT 10SM SCT065 23/18 A3011

2006/10/02 03:51
KBVE 020351Z AUTO 00000KT 5SM BR CLR 23/22 A3014

2006/10/02 03:53
KCAO 020353Z AUTO A3005

2006/10/02 03:53
KCDS 020353Z AUTO 16009KT 10SM CLR 22/16 A3001

2006/10/02 03:53
KCLL 020353Z AUTO 17006KT 10SM CLR 26/21 A3009

2006/10/02 03:53
KCNM 020353Z AUTO 21008KT 10SM CLR 18/06 A3004

2006/10/02 03:53
KCOT 020353Z AUTO 12009KT 10SM OVC020 26/23 A3007

2006/10/02 03:51
KCSG 020351Z AUTO 00000KT 5SM HZ CLR 22/19 A3013

2006/10/02 03:53
KCTY 020353Z AUTO 00000KT 18/16 A3012

2006/10/02 03:53
KDAB 020353Z 00000KT 8SM CLR 22/19 A3013

2006/10/02 03:53
KDHT 020353Z AUTO 18011KT 10SM CLR 18/05 A3003

2006/10/02 03:53
KELD 020353Z AUTO 00000KT 10SM CLR 21/19 A3009

2006/10/02 03:51
KELP 020351Z 00000KT 10SM FEW250 24/03 A3009

2006/10/02 03:53
KESF 020353Z AUTO 00000KT 7SM CLR 21/19 A3012

2006/10/02 03:53
KFSM 020353Z 04003KT 10SM CLR 22/18 A3005

2006/10/02 03:53
KFYV 020353Z AUTO 14004KT 10SM CLR 21/18 A3008

2006/10/02 03:53
KGAG 020353Z AUTO 18016G22KT 10SM CLR 24/13 A2996

2006/10/02 03:51
KGDP 020351Z AUTO 28011KT 10SM CLR 23/M03 A3022

2006/10/02 03:53
KHBR 020353Z AUTO 17011KT 10SM CLR 23/13 A3000

2006/10/02 03:51
KHDO 020351Z AUTO 13012KT 10SM CLR 26/21 A3011

2006/10/02 03:53
KHOT 020353Z AUTO 06004KT 10SM CLR 23/19 A3010

2006/10/02 03:53
KHRO 020353Z AUTO 13005KT 10SM CLR 21/17 A3011

2006/10/02 03:53
KINK 020353Z AUTO 13011KT 10SM CLR 27/16 A3005

2006/10/02 03:54
KIPT 020354Z AUTO 27006KT 10SM CLR 11/09 A3012

2006/10/02 03:54
KJAN 020354Z 00000KT 10SM FEW070 22/18 A3013

2006/10/02 03:53
KJBR 020353Z AUTO 00000KT 10SM CLR 19/14 A3012

2006/10/02 03:51
KJCT 020351Z AUTO 15007KT 10SM CLR 25/14 A3009

2006/10/02 04:01
KJQF 020401Z AUTO 00000KT 7SM CLR 13/12 A3018

2006/10/02 03:53
KLFK 020353Z AUTO 15004KT 10SM CLR 23/19 A3011

2006/10/02 03:53
KLFT 020353Z AUTO 00000KT 8SM CLR 24/22 A3012

2006/10/02 03:53
KMCN 020353Z AUTO 27003KT 5SM BR CLR 19/17 A3013

2006/10/02 03:53
KMEI 020353Z AUTO 20003KT 10SM CLR 23/21 A3013

2006/10/02 03:53
KMLC 020353Z AUTO 18007KT 10SM CLR 27/14 A3005

2006/10/02 03:53
KMLU 020353Z 00000KT 5SM HZ CLR 22/19 A3011

2006/10/02 03:53
KMWL 020353Z AUTO 17008KT 10SM CLR 26/14 A3003

2006/10/02 03:53
KPBF 020353Z AUTO 00000KT 9SM CLR 23/21 A3010

2006/10/02 03:53
KPNC 020353Z AUTO 15011G18KT 10SM CLR 28/16 A2995

2006/10/02 03:53
KPSX 020353Z AUTO 15006KT 8SM CLR 25/22 A3010

2006/10/02 03:53
KPWA 020353Z 17013KT 10SM CLR 26/16 A3000

2006/10/02 03:53
KRMG 020353Z AUTO 00000KT 3SM BR CLR 14/13 A3017

2006/10/02 03:53
KRSL 020353Z AUTO 18014KT 10SM CLR 26/12 A2985

2006/10/02 03:56
KSHV 020356Z 17003KT 10SM BKN260 23/18 A3009

2006/10/02 03:52
KSPS 020352Z AUTO 15008KT 10SM 25/15 A2999

2006/10/02 03:53
KTLH 020353Z 27003KT 10SM CLR 23/18 A3012

2006/10/02 03:53
KTOP 020353Z AUTO 17012G16KT 10SM CLR 27/18 A2991

2006/10/02 03:53
KTRI 020353Z 00000KT 10SM CLR 11/10 A3024

2006/10/02 03:53
KTUP 020353Z AUTO 02004KT 10SM CLR 19/16 A3015

2006/10/02 03:51
KVCT 020351Z AUTO 13005KT 10SM CLR 23/22 A3010

2006/10/02 03:53
KVGT 020353Z AUTO 22007KT 10SM CLR 29/M01 A2987

2006/10/02 04:02
KVUJ 020402Z AUTO 00000KT 10SM CLR 13/12 A3022

2006/10/02 03:55
KWRB 020355Z 00000KT 10SM CLR 19/18 A3013

2006/10/02 03:53
KAIA 020353Z AUTO 17003KT 10SM CLR 13/06 A2991

2006/10/02 03:54
KALO 020354Z 17011KT 10SM CLR 22/11 A2985

2006/10/02 03:52
KALS 020352Z AUTO 27005KT 10SM CLR 14/M04 A3027

2006/10/02 03:51
KANW 020351Z AUTO 30003KT 10SM CLR 17/09 A2984

2006/10/02 03:53
KBBW 020353Z AUTO 00000KT 10SM CLR 13/09 A2983

2006/10/02 03:54
KBFF 020354Z AUTO 09006KT 10SM CLR 16/00 A2993

2006/10/02 03:50
KBIE 020350Z AUTO 18015G22KT 10SM CLR 26/12 A2984

2006/10/02 03:52
KBIS 020352Z 32005KT 10SM CLR 14/03 A2980

2006/10/02 03:53
KBPI 020353Z AUTO 31008KT 10SM CLR 09/M06 A3013

2006/10/02 03:53
KBRL 020353Z AUTO 19013KT 10SM CLR 23/10 A2998

2006/10/02 03:53
KCAG 020353Z AUTO 13005KT 10SM CLR 04/00 A3015

2006/10/02 03:53
KCGI 020353Z AUTO 18006KT 10SM CLR 16/12 A3014

2006/10/02 03:52
KCID 020352Z 19013G19KT 10SM CLR 22/10 A2989

2006/10/02 03:55
KCNK 020355Z AUTO 18018G25KT 10SM CLR 26/14 A2985

2006/10/02 03:52
KCNU 020352Z AUTO 16010KT 10SM CLR 25/17 A2998

2006/10/02 03:54
KCOU 020354Z AUTO 16010KT 10SM CLR 22/12 A3005

2006/10/02 03:53
KCYS 020353Z AUTO 27011KT 10SM CLR 14/M07 A3009

2006/10/02 03:55
KDBQ 020355Z AUTO 20014KT 10SM CLR 21/09 A2991

2006/10/02 03:52
KDDC 020352Z AUTO 18010KT 10SM CLR 23/13 A2993

2006/10/02 03:55
KDVL 020355Z AUTO 30008KT 10SM CLR 14/04 A2974

2006/10/02 03:55
KEAR 020355Z AUTO 00000KT 10SM CLR 14/08 A2982

2006/10/02 03:54
KEVV 020354Z AUTO 00000KT 10SM CLR 15/13 A3016

2006/10/02 03:53
KFNB 020353Z AUTO 16007KT 10SM CLR 24/15 A2987

2006/10/02 03:56
KFSD 020356Z 00000KT 10SM CLR 14/12 A2976

2006/10/02 03:54
KFWA 020354Z 16003KT 10SM CLR 11/08 A3014

2006/10/02 03:53
KGCC 020353Z AUTO 00000KT 10SM CLR 11/03 A2987

2006/10/02 03:54
KGCK 020354Z AUTO 16007KT 10SM CLR 17/03 A2993

2006/10/02 03:53
KGJT 020353Z AUTO 10011KT 10SM CLR 19/M01 A3007

2006/10/02 03:53
KGLD 020353Z AUTO 21005KT 9SM CLR 20/01 A2993

2006/10/02 03:55
KGPZ 020355Z AUTO 16005KT 10SM CLR 16/09 A2974

2006/10/02 03:53
KGRI 020353Z AUTO 00000KT 10SM CLR 20/09 A2980

2006/10/02 03:55
KHON 020355Z AUTO 00000KT 10SM CLR 13/12 A2976

2006/10/02 03:53
KHSI 020353Z AUTO 19008KT 10SM CLR 23/11 A2981

2006/10/02 03:53
KHTL 020353Z AUTO 13004KT 10SM CLR 04/03 A3007

2006/10/02 03:53
KIML 020353Z AUTO 27003KT 10SM CLR 16/04 A2989

2006/10/02 03:55
KIRK 020355Z AUTO 19010G17KT 10SM CLR 22/12 A2997

2006/10/02 03:55
KJAC 020355Z AUTO 12004KT 10SM CLR 07/M04 A3009

2006/10/02 03:53
KJKL 020353Z AUTO 19003KT 10SM CLR 16/11 A3022

2006/10/02 03:53
KJLN 020353Z 18011KT 10SM CLR 24/18 A3002

2006/10/02 03:55
KLAN 020355Z 00000KT 10SM CLR 08/07 A3011

2006/10/02 03:53
KLBF 020353Z AUTO 00000KT 10SM CLR 12/08 A2987

2006/10/02 03:53
KLND 020353Z AUTO 23011KT 10SM CLR 18/M05 A3000

2006/10/02 03:54
KLNK 020354Z 18013KT 10SM CLR 26/14 A2981

2006/10/02 03:53
KLXV 020353Z AUTO 07005KT 10SM CLR 05/M08 A3039

2006/10/02 03:53
KMCK 020353Z AUTO 00000KT 10SM CLR 16/08 A2986

2006/10/02 03:53
KMCW 020353Z AUTO 18009KT 10SM CLR 20/12 A2982

2006/10/02 03:52
KMFD 020352Z AUTO 21005KT 10SM CLR 09/07 A3016

2006/10/02 03:52
KMHK 020352Z AUTO 19013G21KT 10SM CLR 27/14 A2988

2006/10/02 03:55
KMKG 020355Z 15009KT 10SM CLR 13/08 A3005

2006/10/02 03:53
KMSN 020353Z 13005KT 10SM FEW050 15/11 A2995

2006/10/02 03:53
KODX 020353Z AUTO 00000KT 10SM CLR 13/11 A2979

2006/10/02 03:55
KONL 020355Z AUTO 25003KT 10SM CLR 18/13 A2980

2006/10/02 03:53
KOTM 020353Z AUTO 18015G20KT 10SM CLR 24/11 A2992

2006/10/02 03:53
KPAH 020353Z AUTO 00000KT 10SM CLR 15/12 A3015

2006/10/02 03:53
KPKD 020353Z AUTO 15004KT 10SM CLR 13/10 A2972

2006/10/02 03:52
KRAP 020352Z 00000KT 10SM CLR 17/04 A2985

2006/10/02 03:54
KRFD 020354Z 18012KT 10SM CLR 19/11 A2998

2006/10/02 03:53
KRIW 020353Z AUTO 29008KT 10SM CLR 13/M04 A3000

2006/10/02 03:54
KRST 020354Z AUTO 19010KT 10SM CLR 22/10 A2984

2006/10/02 03:54
KSBN 020354Z 16003KT 10SM FEW110 15/08 A3011

2006/10/02 03:53
KSHR 020353Z AUTO 00000KT 10SM CLR 12/05 A2989

2006/10/02 03:53
KSLN 020353Z 18017G29KT 10SM CLR 28/15 A2986

2006/10/02 03:52
KSPI 020352Z AUTO 19012G17KT 10SM CLR 21/11 A3006

2006/10/02 03:53
KSTC 020353Z 00000KT 10SM CLR 16/12 A2973

2006/10/02 03:52
KSUX 020352Z 13007KT 10SM CLR 19/13 A2979

2006/10/02 03:53
KTCS 020353Z AUTO 03003KT 10SM CLR 21/00 A3012

2006/10/02 04:01
KTDF 020401Z AUTO 00000KT 4SM CLR 12/12 A3019

2006/10/02 03:55
KUDG 020355Z AUTO 00000KT 10SM CLR 16/14 A3018

2006/10/02 03:54
KUIN 020354Z AUTO 18010G16KT 10SM CLR 22/11 A3002

2006/10/02 03:53
KVIH 020353Z AUTO 18012KT 10SM CLR 22/12 A3008

2006/10/02 03:52
KVTN 020352Z AUTO 29004KT 10SM CLR 12/09 A2984

2006/10/02 03:51
KYNG 020351Z 00000KT 10SM CLR 07/06 A3016

2006/10/02 03:56
KWMC 020356Z AUTO 26004KT 10SM SCT100 18/M12 A2995

2006/10/02 04:03
KMPV 020403Z AUTO 00000KT 2 1/2SM BR OVC016 09/08 A3006 RMK AO2

2006/10/02 04:03
KMSS 020403Z AUTO 00000KT 3SM BR CLR 09/09 A3003 RMK AO2

2006/10/02 04:01
K3J7 020401Z AUTO 00000KT 10SM CLR 18/16 A3012 RMK AO2

2006/10/02 04:03
K4A9 020403Z AUTO 00000KT 4SM BR CLR 16/15 A3018 RMK AO2

2006/10/02 04:04
KBQP 020404Z AUTO 00000KT 10SM CLR 23/21 A3010 RMK AO2

2006/10/02 04:02
KDQH 020402Z AUTO 00000KT 10SM CLR 21/16 A3010 RMK AO1

2006/10/02 04:02
KFDK 020402Z AUTO 00000KT 7SM CLR 08/07 A3018 RMK AO2

2006/10/02 04:00
KL75 020400Z AUTO 00000KT 10SM CLR 22/21 A3011 RMK AO2

2006/10/02 04:00
KLGC 020400Z AUTO 8SM CLR 17/17 A3016 RMK AO1

2006/10/02 04:02
KLKU 020402Z AUTO 00000KT 10SM CLR 14/12 A3017 RMK AO2

2006/10/02 04:00
KMGR 020400Z AUTO 00000KT 7SM CLR 22/18 A3012 RMK AO2

2006/10/02 04:00
KMLJ 020400Z AUTO 00000KT 10SM CLR 18/18 A3013 RMK AO2

2006/10/02 03:55
KNFG 020355Z 00000KT 7SM FEW050 BKN150 BKN200 17/16 A2993 RMK SLP133 T01720156 PA+80 DA+400

2006/10/02 04:00
KPSK 020400Z AUTO 22004KT 10SM CLR 12/08 A3026 RMK AO2

2006/10/02 04:00
KRMN 020400Z AUTO 32006KT 10SM CLR 09/08 A3016 RMK AO2

2006/10/02 04:00
KRSN 020400Z AUTO 18005KT 10SM CLR 22/20 A3011 RMK AO2

2006/10/02 04:00
KSIF 020400Z AUTO 00000KT 10SM CLR 12/11 A3019 RMK AO2

2006/10/02 04:00
KSUT 020400Z AUTO 00000KT 10SM CLR 20/16 A3016 RMK AO2

2006/10/02 03:55
KUKT 020355Z AUTO 00000KT 10SM CLR 11/08 A3010 RMK A01 P000

2006/10/02 04:00
KVDF 020400Z AUTO 00000KT 7SM CLR 22/20 A3011 RMK AO2

2006/10/02 04:00
KVJI 020400Z AUTO 00000KT 10SM CLR 11/09 A3026 RMK AO2

2006/10/02 03:55
KWRB 020355Z 00000KT 10SM CLR 19/18 A3013 RMK AO2A SLP201 T01880177 $

2006/10/02 03:59
K6V3 020359Z AUTO 00000KT 10SM CLR 13/09 A3026 RMK

2006/10/02 04:05
KCTZ 020405Z AUTO 00000KT 10SM CLR 14/13 A3016 RMK AO2

2006/10/02 04:02
KHBI 020402Z AUTO 00000KT 10SM CLR 14/12 A3021 RMK AO2

2006/10/02 04:01
KHQU 020401Z AUTO 00000KT 4SM CLR 17/13 A3017 RMK AO1

2006/10/02 04:01
KHRJ 020401Z AUTO 00000KT 10SM CLR 13/12 A3017 RMK AO2

2006/10/02 04:02
KJNX 020402Z AUTO 00000KT 7SM CLR 13/12 A3016 RMK AO1

2006/10/02 04:01
KMQI 020401Z AUTO 00000KT 5SM BR 16/14 A3014 RMK AO2

2006/10/02 04:02
KMRN 020402Z AUTO 02004KT 10SM CLR 14/11 A3024 RMK AO2

2006/10/02 04:04
KMWK 020404Z AUTO 00000KT 10SM CLR 13/10 A3020 RMK AO2

2006/10/02 04:03
KMWO 020403Z AUTO 00000KT 10SM CLR 13/13 A3018 RMK AO2

2006/10/02 04:03
KOCW 020403Z AUTO 00000KT 10SM CLR 15/11 A3016 RMK AO2

2006/10/02 04:00
KOPN 020400Z AUTO 01003KT 7SM CLR 19/19 A3015 RMK AO1

2006/10/02 04:01
KPGV 020401Z AUTO 00000KT 4SM BR CLR 15/13 A3015 RMK AO2

2006/10/02 04:03
KRHP 020403Z AUTO 00000KT 4SM BR CLR 12/10 A3025 RMK AO2

2006/10/02 04:00
KTBR 020400Z AUTO 00000KT 10SM CLR 21/21 A3011 RMK AO1

2006/10/02 04:06
KTNB 020406Z AUTO 00000KT 10SM CLR 12/08 A3027 RMK AO2

2006/10/02 04:00
KUTA 020400Z AUTO 09005KT 10SM CLR 21/15 A3012 RMK AO2

2006/10/02 04:00
KW22 020400Z AUTO 00000KT 10SM CLR 09/09 A3023 RMK A02 P000

2006/10/02 03:59
KDMA 020359Z 00000KT 20SM SCT250 25/03 A2999 RMK SLP118

2006/10/02 04:02
KEDE 020402Z AUTO 00000KT 10SM CLR 13/12 A3014 RMK AO2

2006/10/02 03:55
KFBG 020355Z 00000KT 7SM SKC 15/14 A3016 RMK SLP212 FIRST

2006/10/02 04:01
KFFA 020401Z AUTO 00000KT 10SM CLR 19/16 A3013 RMK AO2

2006/10/02 04:04
KGAO 020404Z AUTO 00000KT 4SM BR CLR 23/21 A3012 RMK AO2

2006/10/02 03:55
KHRT 020355Z 00000KT 7SM CLR 26/24 A3011 RMK AO2A SLP197 T02580239 $

2006/10/02 03:52
KNBG 020352Z 00000KT 6SM BR SCT200 22/19 A3013 RMK AO2 SLP200 T02170194 $

2006/10/02 04:02
KSHD 020402Z AUTO 00000KT 10SM CLR 11/09 A3021 RMK AO2

2006/10/02 03:55
KTTA 020355Z AUTO 00000KT 10SM CLR 12/12 A3017 RMK AO2

2006/10/02 04:03
KUKF 020403Z AUTO 00000KT 10SM CLR 14/13 A3023 RMK AO1

2006/10/02 04:00
KVDI 020400Z AUTO 00000KT 10SM CLR 21/18 A3010 RMK AO1

2006/10/02 04:02
KW99 020402Z AUTO 00000KT 1SM BR VV007 08/07 A3021 RMK AO2

2006/10/02 04:00
KWDR 020400Z AUTO 35004KT 10SM CLR 15/15 A3020 RMK AO1

2006/10/02 04:00
FNLU 020400Z VRB03KT 9999 BKN023 21/18 Q1014 NSG

2006/10/02 04:01
DAAG 020401Z 00000KT 0050 FG VV000 21/21 Q1017

2006/10/02 04:00
FALA 020400Z 00000KT 9999 NSC 16/// Q1015

2006/10/02 04:00
GCLP 020400Z 35005KT CAVOK 22/18 Q1015 NOSIG

2006/10/02 04:00
GCTS 020400Z VRB02KT CAVOK 22/17 Q1015 NOSIG

2006/10/02 04:00
GEML 020400Z 00000KT 8000 FEW003 BKN004 22/21 Q1015

2006/10/02 04:00
GMMN 020400Z 14004KT 0200 FG BKN006 18/18 Q1016 NOSIG

2006/10/02 04:00
RKPC 020400Z 05007KT 010V070 7000 FEW025 SCT200 23/17 Q1015 NOSIG

2006/10/02 04:00
RKPK 020400Z 04008KT 9999 SCT030 SCT200 25/13 Q1014 NOSIG

2006/10/02 04:00
RKSS 020400Z 33007KT 290V350 9999 FEW030 26/12 Q1015 NOSIG

2006/10/02 04:00
ETAD 020400Z 22015G19KT 9999 SCT021 13/11 A2988 RMK AO2A SCT021 V BKN SLP110 $ BLU

2006/10/02 04:04
KAUG 020404Z AUTO 35005KT 7SM RA FEW006 BKN035 OVC044 09/08 A3004 RMK AO2 P0002

2006/10/02 04:04
KHFD 020404Z AUTO 31004KT 10SM SCT023 13/11 A3002 RMK AO2

2006/10/02 04:04
KORH 020404Z AUTO VRB05KT 7SM OVC003 10/09 A3000 RMK AO2 $

2006/10/02 04:04
KYIP 020404Z 00000KT 3/4SM BR CLR 08/07 A3013 RMK AO2

2006/10/02 04:00
LYBE 020400Z 22006KT CAVOK 16/13 Q1018 NOSIG

2006/10/02 04:00
LYNI 020400Z 00000KT CAVOK 10/09 Q1020

2006/10/02 04:00
LYPG 020400Z 35004KT CAVOK 16/15 Q1019 NOSIG

2006/10/02 04:00
LYTV 020400Z 00000KT CAVOK 13/13 Q1019

2006/10/02 04:01
K3J7 020401Z AUTO 00000KT 10SM CLR 18/16 A3012 RMK AO2

2006/10/02 04:03
K4A9 020403Z AUTO 00000KT 4SM BR CLR 16/15 A3018 RMK AO2

2006/10/02 04:04
KBQP 020404Z AUTO 00000KT 10SM CLR 23/21 A3010 RMK AO2

2006/10/02 04:02
KDQH 020402Z AUTO 00000KT 10SM CLR 21/16 A3010 RMK AO1

2006/10/02 04:02
KFDK 020402Z AUTO 00000KT 7SM CLR 08/07 A3018 RMK AO2

2006/10/02 04:02
KLKU 020402Z AUTO 00000KT 10SM CLR 14/12 A3017 RMK AO2

2006/10/02 04:05
KCTZ 020405Z AUTO 00000KT 10SM CLR 14/13 A3016 RMK AO2

2006/10/02 04:02
KHBI 020402Z AUTO 00000KT 10SM CLR 14/12 A3021 RMK AO2

2006/10/02 04:01
KHQU 020401Z AUTO 00000KT 4SM CLR 17/13 A3017 RMK AO1

2006/10/02 04:01
KHRJ 020401Z AUTO 00000KT 10SM CLR 13/12 A3017 RMK AO2

2006/10/02 04:01
KMQI 020401Z AUTO 00000KT 5SM BR 16/14 A3014 RMK AO2

2006/10/02 04:02
KMRN 020402Z AUTO 02004KT 10SM CLR 14/11 A3024 RMK AO2

2006/10/02 04:04
KMWK 020404Z AUTO 00000KT 10SM CLR 13/10 A3020 RMK AO2

2006/10/02 04:03
KMWO 020403Z AUTO 00000KT 10SM CLR 13/13 A3018 RMK AO2

2006/10/02 04:03
KOCW 020403Z AUTO 00000KT 10SM CLR 15/11 A3016 RMK AO2

2006/10/02 04:01
KPGV 020401Z AUTO 00000KT 4SM BR CLR 15/13 A3015 RMK AO2

2006/10/02 04:03
KRHP 020403Z AUTO 00000KT 4SM BR CLR 12/10 A3025 RMK AO2

2006/10/02 04:06
KTNB 020406Z AUTO 00000KT 10SM CLR 12/08 A3027 RMK AO2

2006/10/02 04:02
KEDE 020402Z AUTO 00000KT 10SM CLR 13/12 A3014 RMK AO2

2006/10/02 04:01
KFFA 020401Z AUTO 00000KT 10SM CLR 19/16 A3013 RMK AO2

2006/10/02 04:04
KGAO 020404Z AUTO 00000KT 4SM BR CLR 23/21 A3012 RMK AO2

2006/10/02 04:02
KSHD 020402Z AUTO 00000KT 10SM CLR 11/09 A3021 RMK AO2

2006/10/02 04:03
KUKF 020403Z AUTO 00000KT 10SM CLR 14/13 A3023 RMK AO1

2006/10/02 04:02
KW99 020402Z AUTO 00000KT 1SM BR VV007 08/07 A3021 RMK AO2

2006/10/02 04:00
WMKJ 020400Z 22006KT 9999 SCT020 BKN300 31/23 Q1011

2006/10/02 04:00
WMKK 020400Z 28006KT 9999 FEW018 BKN280 32/23 Q1010 NOSIG

2006/10/02 04:00
WMKP 020400Z 15003KT 9999 FEW017CB SCT140 BKN270 30/24 Q1011 NOSIG

2006/10/02 04:00
WMSA 020400Z 21006KT 9999 SCT018 BKN280 32/23 Q1011 NOSIG

2006/10/02 04:02
KJNX 020402Z AUTO 00000KT 7SM CLR 13/12 A3016 RMK AO1

2006/10/02 04:02
EGVA 020402Z AUTO 23012KT 9999 -RA BKN016 12/10 A2956 RMK AO2 SLP010 $

2006/10/02 04:01
UKBB 020401Z 19002MPS 0600 R36R/0800VP1500D R36L/P1500D PRFG SCT040 08/07 Q1018 88CLRD70 TEMPO 1000 BR

2006/10/02 04:00
OMAA 020400Z VRB02KT 8000 SKC 30/24 Q1011 A2986 NOSIG

2006/10/02 04:00
OMAL 020400Z 17011KT CAVOK 29/21 Q1012 A2989

2006/10/02 04:00
OMDB 020400Z 06005KT 010V110 7000 SKC 30/26 Q1010 NOSIG

2006/10/02 04:00
OMFJ 020400Z 15001KT CAVOK 32/24 Q1011 A2986

2006/10/02 04:00
OMRK 020400Z 00000KT CAVOK 30/20 Q1009

2006/10/02 04:00
OMSJ 020400Z VRB02KT 8000 SKC 29/24 Q1010

2006/10/02 04:00
OOSA 020400Z 23002KT 9999 FEW025 28/21 Q1012 NOSIG

2006/10/02 04:00
LFSF 020400Z 19008KT 9999 FEW016 BKN250 15/12 Q1013

2006/10/02 03:55
LIBA 020355Z 00000KT 7000 NSC 17/17 Q1018 RMK FEW FEW200 VIS MIN 7000 WIND THR29 00000KT WHT

2006/10/02 03:55
LIBV 020355Z 00000KT 2000 BR FEW001 13/13 Q1017 RMK FEW VIS MIN 2000 WIND THR14 00000KT YLO

2006/10/02 03:50
LICD 020350Z 18007KT CAVOK 24/22 Q1019 RMK QUK2 QUL1 VIS MAR 20 KM

2006/10/02 03:55
LICZ 020355Z 29006KT CAVOK 16/15 Q1019 RMK VIS MIN 9999 WIND THR28 /////KT BLU

2006/10/02 03:55
LIED 020355Z 36003KT 6000 SCT010 22/20 Q1018 RMK SCT VIS MIN 6000 WIND THR35 /////KT WHT

2006/10/02 03:55
KNFG 020355Z 00000KT 7SM FEW050 BKN150 BKN200 17/16 A2993 RMK SLP133 T01720156 PA+80 DA+400

2006/10/02 03:55
KWRB 020355Z 00000KT 10SM CLR 19/18 A3013 RMK AO2A SLP201 T01880177 $

2006/10/02 03:46
PMDY 020346Z AUTO 03004KT 10SM FEW023 26/21 A2992 RMK A02 $

2006/10/02 03:59
KDMA 020359Z 00000KT 20SM SCT250 25/03 A2999 RMK SLP118

2006/10/02 03:55
KFBG 020355Z 00000KT 7SM SKC 15/14 A3016 RMK SLP212 FIRST

2006/10/02 03:55
KHRT 020355Z 00000KT 7SM CLR 26/24 A3011 RMK AO2A SLP197 T02580239 $

2006/10/02 03:52
KNBG 020352Z 00000KT 6SM BR SCT200 22/19 A3013 RMK AO2 SLP200 T02170194 $

2006/10/02 03:50
LIBP 020350Z 21004KT 5000 BR SKC 14/11 Q1019

2006/10/02 03:55
LIBR 020355Z 00000KT 8000 SKC 19/16 Q1018 NOSIG RMK VIS MIN 8000 WIND THR14 /////KT WIND THR32 /////KT BLU

2006/10/02 03:50
LICA 020350Z VRB03KT 8000 SCT025 17/14 Q1019

2006/10/02 03:55
LICG 020355Z 19010KT CAVOK 23/23 Q1019 RMK VIS MIN 9999 WIND THR08 18008KT WIND THR21 19011KT BLU

2006/10/02 03:55
LICT 020355Z 12004KT 9999 FEW005 19/16 Q1019 RMK FEW VIS MIN 9999 WIND THR13 07005KT BLU

2006/10/02 04:04
KORH 020404Z AUTO VRB05KT 7SM OVC003 10/09 A3000 RMK AO2 $

2006/10/02 03:55
LIMK 020355Z 00000KT 3000 BR SCT020 SCT030 16/15 Q1017 RMK OVC VAL FOSCHIA VIS MIN 3000

2006/10/02 03:55
LIMU 020355Z ///23KT 6000 SCT013 SCT015 20/20 Q1017 RMK OVC QUK / QUL / VIS MAR 6 KM VIS MIN 6000

2006/10/02 03:55
LIPC 020355Z 00000KT CAVOK 18/18 Q1018 RMK VIS MIN 9999 WIND THR12 00000KT BLU

2006/10/02 03:55
LIPL 020355Z 30001KT 2000 BR SCT040 SCT080 18/18 Q1017 RMK OVC VIS MIN 2000 YLO

2006/10/02 03:55
LIPS 020355Z 00000KT 1500 BR SCT020 18/17 Q1017 RMK SCT VIS MIN 1500 AMB

2006/10/02 04:00
LFSC 020400Z 19010KT 9999 FEW002 BKN160 16/14 Q1015

2006/10/02 03:55
LIPH 020355Z 00000KT 0800 R07/P2000 FG SCT001 17/17 Q1016 RMK SCT VIS MIN 0800 WIND THR07 /////KT AMB

2006/10/02 03:55
LIPR 020355Z 19003KT CAVOK 19/17 Q1017 RMK VIS MIN 9999 WIND THR31 16005KT BLU

2006/10/02 03:55
LIPX 020355Z 35001KT 9999 BKN060 18/18 Q1017 RMK BKN VIS MIN 9999 BLU

2006/10/02 03:50
LIPY 020350Z 00000KT CAVOK 15/11 Q1018

2006/10/02 04:00
LIRZ 020400Z 21003KT 9999 SCT035 17/15 Q1020

2006/10/02 03:55
LIPX 020355Z 35001KT 9999 BKN060 18/18 Q1017 RMK BKN VIS MIN 9999 BLU

2006/10/02 03:55
LIQO 020355Z /////KT 0000 FG VV000 17/17 Q1019 RMK VAL INVIS NC VIS MIN 0000

2006/10/02 03:55
LIRE 020355Z 00000KT 6000 SKC 16/16 Q1019 RMK VIS MIN 6000 WIND TH31 /////KT WHT

2006/10/02 03:55
LIRS 020355Z 09004KT 9999 SCT035 18/16 Q1019 RMK SCT VIS MIN 9999 WIND THR21 /////KT BLU

2006/10/02 03:55
LIRT 020355Z 29011KT CAVOK 14/11 Q1021 RMK MON INVIS VAL INVIS VIS MIN 9999

2006/10/02 03:50
LIRU 020350Z AUTO 00000KT //// // ////// 13/12 Q1020

2006/10/02 04:00
LIRZ 020400Z 21003KT 9999 SCT035 17/15 Q1020

2006/10/02 03:55
LIVC 020355Z 22010KT 0000 FG VV000 09/08 Q1023 RMK MON INVIS VAL INVIS VIS MIN 0000

2006/10/02 03:55
LIVE 020355Z 00000KT 2000 BR SCT010 SCT020 12/11 Q1020 RMK OVC VIS MIN 2000

2006/10/02 03:55
LIVP 020355Z 20006KT 0000 -RA FG VV000 09/09 Q1021 RMK MON INVIS VAL INVIS VIS MIN 0000

2006/10/02 03:55
LIVR 020355Z 00000KT 0300 FG VV001 09/07 Q1021 RMK MON INVIS VIS MIN 0300

2006/10/02 03:55
LIVT 020355Z ///02KT 9999 FEW030 BKN083 22/17 Q1017 RMK BKN QUK / QUL / VIS MAR 25 KM VIS MIN 9999

2006/10/02 03:46
PMDY 020346Z AUTO 03004KT 10SM FEW023 26/21 A2992 RMK A02 $

2006/10/02 04:00
LPLA 020400Z 36009G19KT 9999 FEW022 18/13 Q1019 BLU CNTR RWY WND 03015KT XWND14KT

2006/10/02 04:00
RKNY 020400Z 08005KT CAVOK 21/14 Q1016 NOSIG

2006/10/02 04:00
RKPC 020400Z 05007KT 010V070 7000 FEW025 SCT200 23/17 Q1015 NOSIG

2006/10/02 04:00
RKPK 020400Z 04008KT 9999 SCT030 SCT200 25/13 Q1014 NOSIG

2006/10/02 04:00
RKSI 020400Z 29008KT 7000 SKC 23/16 Q1015 NOSIG

2006/10/02 04:00
RKSS 020400Z 33007KT 290V350 9999 FEW030 26/12 Q1015 NOSIG

2006/10/02 04:00
RKTN 020400Z 23003KT 9999 SCT030 25/12 Q1015 NOSIG

2006/10/02 04:00
RKTU 020400Z 36007KT 9999 FEW030 27/11 Q1014 NOSIG

2006/10/02 03:50
PTSA 020350Z 04010KT 10SM SCT018 BKN130 OVC300 29/25 A2972 LAST

2006/10/02 04:00
UMBB 020400Z 18002MPS 2600 BR SCT030CB SCT100 14/13 Q1012 NOSIG

2006/10/02 04:00
UMMG 020400Z 20002MPS 5000 BR OVC026 14/14 Q1011 NOSIG

2006/10/02 04:00
UMMM 020400Z 15002MPS 5000 BR BKN200 10/09 Q1012 NOSIG RMK QFE738

2006/10/02 04:00
UMMS 020400Z VRB01MPS 8000 BKN166 11/10 Q1013 31000070 NOSIG

2006/10/02 04:00
UTAK 020400Z 32003MPS 3000 BR BKN005 SCT100 19/19 Q1016 NOSIG

2006/10/02 04:00
UTSB 020400Z 07002MPS CAVOK 17/M00 Q1016 NOSIG RMK 01CLRD70

2006/10/02 04:00
SKBO 020400Z 04003KT 9999 BKN017 12/10 A3033 NOSIG

2006/10/02 04:00
SKCG 020400Z 03003KT 9999 NSC 28/27 A2981

2006/10/02 04:00
SKCL 020400Z 04006KT 8000 TS FEW017CB FEW020 BKN090 23/19 A2993 RMK CB/W

2006/10/02 03:55
LICZ 020355Z 29006KT CAVOK 16/15 Q1019 RMK VIS MIN 9999 WIND THR28 /////KT BLU

2006/10/02 04:00
LPLA 020400Z 36009G19KT 9999 FEW022 18/13 Q1019 BLU CNTR RWY WND 03015KT XWND14KT

2006/10/02 04:00
LEAL 020400Z VRB02KT CAVOK 17/12 Q1016 NOSIG

2006/10/02 04:00
LEAM 020400Z 35009KT CAVOK 22/11 Q1015

2006/10/02 04:00
LEAS 020400Z 30007KT 9999 SCT004 BKN008 17/16 Q1013 TEMPO SCT010

2006/10/02 04:00
LEBB 020400Z 09004KT CAVOK 15/13 Q1013 NOSIG

2006/10/02 04:00
LECO 020400Z 16003KT 130V200 7000 -RA FEW001 BKN028 14/13 Q1013

2006/10/02 04:00
LEGE 020400Z 00000KT 0100 R20/0750V2000U FG FEW020 17/17 Q1017

2006/10/02 04:00
LEGR 020400Z 00000KT CAVOK 14/10 Q1018

2006/10/02 04:00
LEIB 020400Z 00000KT 9000 FEW010 20/19 Q1017 NOSIG

2006/10/02 04:00
LEMD 020400Z 35003KT CAVOK 12/07 Q1017 NOSIG

2006/10/02 04:00
LEMG 020400Z 31007KT CAVOK 18/15 Q1016 NOSIG

2006/10/02 04:00
LEMH 020400Z 23003KT 8000 FEW009 20/19 Q1017

2006/10/02 04:00
LEPA 020400Z VRB02KT 0050 R24R/0325N R06L/P2000 R06R/0800V2000D R24L/0350V0650D FG VV001 19/18 Q1017 NOSIG

2006/10/02 04:00
LESO 020400Z 21003KT 170V240 CAVOK 16/15 Q1013

2006/10/02 04:00
LEST 020400Z 00000KT 5000 BR BKN009 13/13 Q1013 NOSIG

2006/10/02 04:00
LEVC 020400Z 30003KT CAVOK 19/17 Q1016 NOSIG

2006/10/02 04:00
LEVT 020400Z VRB02KT 9999 FEW050 BKN170 11/10 Q1016

2006/10/02 04:00
LEVX 020400Z 21006KT 9999 FEW005 SCT010 BKN040 15/14 Q1013

2006/10/02 04:00
LEZG 020400Z 14004KT 9999 FEW040 16/14 Q1016

2006/10/02 04:00
CYMX 020400Z CCA 33002KT 2SM BR OVC011 11/10 A3000 RMK SF8 SLP162

2006/10/02 04:00
CYBG 020400Z 10010KT 8SM -RA OVC054 08/06 A3012 RMK SC8 SLP206

2006/10/02 04:00
CYEG 020400Z 28003KT 15SM FEW080 BKN120 06/M00 A2993 RMK AC2AC5 SLP156

2006/10/02 04:00
CYFB 020400Z 14003KT 15SM SCT027 BKN070 01/M01 A3000 RMK SC4AC3 SLP160

2006/10/02 04:00
CYFC 020400Z 06009KT 15SM BKN037 OVC120 11/09 A3007 RMK SC5AC3 SLP183

2006/10/02 04:00
CYGL 020400Z 21004KT 3/4SM -DZ BR VV001 08/08 A2996 RMK FG8 VIS VRB 1/2-1 SLP154

2006/10/02 04:00
CYHZ 020400Z 10014G20KT 3SM -RA BR OVC003 13/13 A3000 RMK SF8 SLP162

2006/10/02 04:00
CYJT 020400Z 08006KT 15SM SCT100 09/06 A3030 RMK AC3 SLP263

2006/10/02 04:00
CYKL 020400Z AUTO 16005KT 9SM BKN099 03/01 A3016 RMK SLP238

2006/10/02 04:00
CYMH 020400Z AUTO 18004KT 9SM CLR 03/02 A3037 RMK SLP286

2006/10/02 04:00
CYMX 020400Z 33002KT 3SM BR OVC011 11/10 A3000 RMK SF8 SLP162

2006/10/02 04:00
CYOW 020400Z 29004KT 10SM BKN033 11/10 A3003 RMK SC7 SLP172

2006/10/02 04:00
CYQB 020400Z 07009KT 10SM -RA FEW020 OVC037 10/09 A3010 RMK SF1SC7 SLP196

2006/10/02 04:00
CYQG 020400Z 10002KT 15SM SKC 10/08 A3014 RMK SLP206

2006/10/02 04:00
CYQM 020400Z 05010KT 8SM SHRA BKN018 OVC080 12/10 A3008 RMK SC7AC1 SLP187

2006/10/02 04:00
CYQQ 020400Z 27002KT 20SM FEW040 BKN200 10/05 A3002 RMK SC1CI2 SLP166

2006/10/02 04:00
CYQX 020400Z 09005KT 20SM FEW180 OVC240 09/07 A3036 RMK AC2CS6 SLP285

2006/10/02 04:00
CYQY 020400Z 07010KT 15SM -RA OVC027 11/10 A3018 RMK SC8 SLP222

2006/10/02 04:00
CYRB 020400Z 34019KT 15SM DRSN SCT055 BKN069 M07/M09 A2980 RMK SC3AC3 SLP099

2006/10/02 04:00
CYSJ 020400Z 06006KT 12SM BKN012 OVC070 12/10 A3003 RMK SC6AC2 SLP173

2006/10/02 04:00
CYTE 020400Z AUTO 36002KT 9SM -SN OVC006 OVC028 01/ A2987 RMK SLP121

2006/10/02 04:00
CYTL 020400Z AUTO 14012KT 9SM OVC058 A2967

2006/10/02 04:00
CYTR 020400Z 32007KT 15SM FEW068 11/09 A3006 RMK AC2 SLP181

2006/10/02 04:00
CYUL 020400Z 23005KT 12SM VCFG FEW005 SCT008 OVC026 13/12 A3000 RMK SF1SC3SC5 SLP160

2006/10/02 04:00
CYUY 020400Z 00000KT 1/4SM FG SKC 06/06 A3005 RMK FG4 SLP185

2006/10/02 04:00
CYVP 020400Z 00000KT 10SM -RA OVC029 05/04 A3009 RMK SC8 SLP192

2006/10/02 04:00
CYVR 020400Z 31008KT 30SM FEW240 11/08 A3001 RMK CI2 SLP162

2006/10/02 04:00
CYWG 020400Z 00000KT 15SM SKC 11/08 A2971 RMK SLP066

2006/10/02 04:00
CYWK 020400Z 16005KT 15SM BKN086 OVC140 04/01 A3020 RMK AC5AS2 SLP252

2006/10/02 04:00
CYXU 020400Z 00000KT 15SM SKC 06/05 A3014 RMK SLP211

2006/10/02 04:00
CYXX 020400Z 25004KT 15SM FEW030 FEW230 08/04 A3002 RMK SC1CI1 SLP166

2006/10/02 04:00
CYXY 020400Z 15006KT 40SM SKC 04/M04 A2989 RMK SLP154

2006/10/02 04:00
CYYC 020400Z 03006KT 15SM OVC035 06/03 A2994 RMK SC8 SLP166

2006/10/02 04:00
CYYJ 020400Z 23002KT 30SM FEW250 09/05 A3001 RMK CI1 SLP164

2006/10/02 04:00
CYYQ 020400Z 04012KT 2SM -RA BR OVC001 07/07 A2953 RMK FG5SF3 VIS VRB 1-3 SLP003

2006/10/02 04:00
CYYR 020400Z 25004KT 15SM FEW120 FEW220 00/M03 A3035 RMK AC1CI0 AURBO SLP279

2006/10/02 04:00
CYYT 020400Z 10004KT 12SM -SHRA FEW010 SCT058 OVC084 10/09 A3036 RMK SF2SC2AC5 SLP283

2006/10/02 04:00
CYYZ 020400Z 27007KT 15SM SKC 08/06 A3012 RMK SLP203

2006/10/02 04:00
CYZF 020400Z 31004KT 15SM FEW025 BKN096 OVC220 04/02 A2979 RMK SC1AC6CI1 SLP100

2006/10/02 04:00
CYZV 020400Z 03008KT 15SM BKN140 OVC210 04/00 A3027 RMK AC6CI1 SLP254

2006/10/02 04:00
CYZX 020400Z 05008KT 3SM -SHRA BR BKN005 OVC014 12/12 A2999 RMK SF5SC3 WNDY HILL 07013KT SLP157

2006/10/02 04:00
CYZY 020400Z AUTO 12003KT 9SM BKN015 01/00 A3002 RMK SLP197

2006/10/02 04:00
CZBF 020400Z 09002KT 15SM SCT040 OVC100 09/06 A3019 RMK SC3AC5 SLP226

2006/10/02 04:00
LPLA 020400Z 36009G19KT 9999 FEW022 18/13 Q1019 BLU CNTR RWY WND 03015KT XWND14KT

2006/10/02 04:03
KMPV 020403Z AUTO 00000KT 2 1/2SM BR OVC016 09/08 A3006

2006/10/02 04:00
FSIA 020400Z 11009KT 9999 BKN015 27/25 Q1013 NOSIG

2006/10/02 04:00
WBGG 020400Z 17009KT 0800 HZ VV/// 32/21 Q1009 NOSIG

2006/10/02 04:00
WBKK 020400Z 12009KT 5000 FEW014 SCT140 BKN260 29/21 Q1008 NOSIG

2006/10/02 04:00
CWCA 020400Z 21005KT 15SM FEW200 02/01 A3038 RMK CI2 AURBO SLP289

2006/10/02 04:00
CWCL 020400Z AUTO 31004KT 9SM FEW052 FEW089 07/M00 A2999 RMK SLP174

2006/10/02 04:00
CWHN 020400Z AUTO 30006KT 9SM SCT032 SCT047 SCT092 04/ A2984 RMK SLP127

2006/10/02 04:00
CWIL 020400Z AUTO 21011KT 01/ A2986 RMK SLP121

2006/10/02 04:00
CWKM 020400Z AUTO 00000KT M01/ A2974 RMK SLP075

2006/10/02 04:00
CWKW 020400Z AUTO ///// A2953

2006/10/02 04:00
CWLX 020400Z AUTO 27009KT M00/ A2971 RMK SLP075

2006/10/02 04:00
CWLY 020400Z AUTO 15012G18KT 9SM CLR 15/05 A2993 RMK SLP139

2006/10/02 04:00
CWRH 020400Z AUTO 27017KT 01/ A3004 RMK SLP204

2006/10/02 04:00
CWRX 020400Z AUTO ///// M00/ A2971 RMK SLP069

2006/10/02 04:00
CWSA 020400Z AUTO 07017KT 5SM OVC003 16/14 A2999 RMK PCPN 8.0MM PAST HR PRESFR SLP157

2006/10/02 04:00
CWTU 020400Z AUTO 31008KT A3028

2006/10/02 04:00
CWUP 020400Z AUTO 25032KT M02/ A2965 RMK SLP070

2006/10/02 04:00
CWUW 020400Z AUTO 22011KT 1/8SM M04/ A2970 RMK SLP102

2006/10/02 04:00
CWVD 020400Z AUTO ///// M03/ A2968 RMK SLP097

2006/10/02 04:00
CWVH 020400Z AUTO 15011KT 00/ A2973 RMK SLP088

2006/10/02 04:00
CWXR 020400Z AUTO ///// M01/ A2987 RMK SLP127

2006/10/02 04:00
CWYK 020400Z AUTO 20014KT 01/ A3015 RMK SLP251

2006/10/02 04:00
CWYM 020400Z AUTO ///// M03/ A2980 RMK SLP135

2006/10/02 04:00
CWZZ 020400Z AUTO 26014KT 9SM CLR 04/ A3014 RMK SLP236

2006/10/02 04:00
CYAH 020400Z AUTO 18010KT 9SM FEW076 08/04 A3000 RMK SLP173

2006/10/02 04:00
CYAM 020400Z 09001KT 12SM -SHRA OVC100 10/07 A3008 RMK AC8 ACCASOCTD SLP190

2006/10/02 04:00
CYBC 020400Z AUTO 06013KT 9SM FEW060 FEW095 09/03 A3020 RMK SLP227

2006/10/02 04:00
CYBK 020400Z 06010KT 15SM -SN BKN020 OVC075 01/01 A2979 RMK SC6AC2 SLP090

2006/10/02 04:00
CYBL 020400Z 27003KT 15SM BKN250 10/03 A3003 RMK CI6 LAST OBS/NEXT 021300UTC SLP170

2006/10/02 04:00
CYBN 020400Z AUTO 23004KT 9SM CLR 05/04 A3011 RMK SLP199

2006/10/02 04:00
CYBR 020400Z 34006KT 15SM FEW260 11/08 A2977 RMK CI0 SLP088

2006/10/02 04:00
CYBU 020400Z AUTO 30008KT 9SM CLR 08/02 A2977 RMK SLP092

2006/10/02 04:00
CYBW 020400Z 03002KT 15SM OVC015 05/03 A2993 RMK SC8 LAST OBS/NEXT 021100Z SLP164

2006/10/02 04:00
CYBX 020400Z 05004KT 15SM SCT100 04/03 A3037 RMK AC3 SLP287

2006/10/02 04:00
CYCB 020400Z 03011KT 15SM FEW012 BKN040 OVC140 M03/M04 A2987 RMK SC1SC6AC1 SLP117

2006/10/02 04:00
CYCD 020400Z 27002KT 30SM SCT230 09/06 A3002 RMK CI2 SLP165

2006/10/02 04:00
CYCG 020400Z 00000KT 15SM SKC 10/03 A2989 RMK LAST OBS/NEXT 021300 UTC SLP127

2006/10/02 04:00
CYCO 020400Z 04005KT 15SM OVC023 M00/M03 A2991 RMK SC8 SLP129

2006/10/02 04:00
CYCX 020400Z AUTO 05007KT 9SM SCT017 BKN032 11/09 A3006 RMK SLP181

2006/10/02 04:00
CYCY 020400Z AUTO 29008KT 9SM OVC044 OVC074 M01/M04 A2968 RMK SLP054

2006/10/02 04:00
CYDB 020400Z AUTO 00000KT 9SM CLR M02/M02 A2985 RMK SLP158

2006/10/02 04:00
CYDF 020400Z 00000KT 15SM FEW030 BKN210 04/03 A3035 RMK SC1CI6 SLP276

2006/10/02 04:00
CYDN 020400Z AUTO 25006KT 9SM CLR 11/08 A2975 RMK SLP079

2006/10/02 04:00
CYED 020400Z AUTO 27006KT 9SM BKN089 05/M02 A2991 RMK SLP150

2006/10/02 04:00
CYEK 020400Z AUTO 20008KT 9SM OVC005 OVC018 05/05 A2961 RMK SLP028

2006/10/02 04:00
CYEN 020400Z 33007KT 15SM SKC 09/07 A2984 RMK SLP113

2006/10/02 04:00
CYET 020400Z AUTO 24005KT 9SM FEW062 FEW080 04/M03 A2995 RMK SLP169

2006/10/02 04:00
CYEV 020400Z 07006KT 15SM FEW030 FEW230 01/M00 A2976 RMK SC1CI1 SLP083

2006/10/02 04:00
CYFS 020400Z 00000KT 15SM SCT075 03/02 A2989 RMK AC2 SLP133

2006/10/02 04:00
CYGP 020400Z 27002KT 15SM BKN050 OVC220 04/04 A3026 RMK SC6CI2 SLP249

2006/10/02 04:00
CYGQ 020400Z 19004KT 15SM FEW120 FEW250 07/04 A2988 RMK AC1CI1 SLP130

2006/10/02 04:00
CYGV 020400Z AUTO 01004KT 9SM CLR 03/02 A3029 RMK SLP259

2006/10/02 04:00
CYGW 020400Z 13004KT 15SM FEW015 BKN025 08/07 A2994 RMK SC1SC6 SLP138

2006/10/02 04:00
CYGX 020400Z 20006KT 15SM OVC016 08/08 A2952 RMK ST8 SLP005

2006/10/02 04:00
CYHD 020400Z AUTO 18008KT 9SM CLR 13/09 A2967 RMK SLP048

2006/10/02 04:00
CYHE 020400Z AUTO 23002KT 9SM FEW065 11/08 A2999 RMK SLP158

2006/10/02 04:00
CYHK 020400Z AUTO 30003KT 9SM OVC009 OVC032 OVC085 M01/M01 A2986 RMK SLP118

2006/10/02 04:00
CYHM 020400Z 26003KT 15SM SKC 08/07 A3013 RMK SLP207

2006/10/02 04:00
CYHU 020400Z AUTO 16004KT 9SM OVC011 OVC024 11/10 A3000 RMK SLP161

2006/10/02 04:03
KMSS 020403Z AUTO 00000KT 3SM BR CLR 09/09 A3003

2006/10/02 03:46
PMDY 020346Z AUTO 03004KT 10SM FEW023 26/21 A2992 RMK A02 $

2006/10/02 04:00
KL75 020400Z AUTO 00000KT 10SM CLR 22/21 A3011 RMK AO2

2006/10/02 04:00
KLGC 020400Z AUTO 8SM CLR 17/17 A3016 RMK AO1

2006/10/02 04:00
KMGR 020400Z AUTO 00000KT 7SM CLR 22/18 A3012 RMK AO2

2006/10/02 04:00
KMLJ 020400Z AUTO 00000KT 10SM CLR 18/18 A3013 RMK AO2

2006/10/02 04:00
KPSK 020400Z AUTO 22004KT 10SM CLR 12/08 A3026 RMK AO2

2006/10/02 04:00
KRMN 020400Z AUTO 32006KT 10SM CLR 09/08 A3016 RMK AO2

2006/10/02 04:00
KRSN 020400Z AUTO 18005KT 10SM CLR 22/20 A3011 RMK AO2

2006/10/02 04:00
KSIF 020400Z AUTO 00000KT 10SM CLR 12/11 A3019 RMK AO2

2006/10/02 04:00
KSUT 020400Z AUTO 00000KT 10SM CLR 20/16 A3016 RMK AO2

2006/10/02 03:55
KUKT 020355Z AUTO 00000KT 10SM CLR 11/08 A3010 RMK A01 P000

2006/10/02 04:00
KVDF 020400Z AUTO 00000KT 7SM CLR 22/20 A3011 RMK AO2

2006/10/02 04:00
KVJI 020400Z AUTO 00000KT 10SM CLR 11/09 A3026 RMK AO2

2006/10/02 03:59
K6V3 020359Z AUTO 00000KT 10SM CLR 13/09 A3026 RMK

2006/10/02 04:00
KOPN 020400Z AUTO 01003KT 7SM CLR 19/19 A3015 RMK AO1

2006/10/02 04:00
KTBR 020400Z AUTO 00000KT 10SM CLR 21/21 A3011 RMK AO1

2006/10/02 04:00
KUTA 020400Z AUTO 09005KT 10SM CLR 21/15 A3012 RMK AO2

2006/10/02 04:00
KW22 020400Z AUTO 00000KT 10SM CLR 09/09 A3023 RMK A02 P000

2006/10/02 03:55
KTTA 020355Z AUTO 00000KT 10SM CLR 12/12 A3017 RMK AO2

2006/10/02 04:00
KVDI 020400Z AUTO 00000KT 10SM CLR 21/18 A3010 RMK AO1

2006/10/02 04:00
KWDR 020400Z AUTO 35004KT 10SM CLR 15/15 A3020 RMK AO1

2006/10/02 04:02
ENHD 020402Z 10007KT 9999 -RA FEW008 SCT015 BKN025 13/12 Q0996

2006/10/02 04:00
UMMM 020400Z 15002MPS 5000 BR BKN200 10/09 Q1012 NOSIG RMK QFE738

2006/10/02 04:00
UMMS 020400Z VRB01MPS 8000 BKN166 11/10 Q1013 31000070 NOSIG

2006/10/02 04:00
CYHY 020400Z 33010KT 15SM FEW045 SCT070 06/01 A2985 RMK SC1AC2 SLP118

2006/10/02 04:00
CYIO 020400Z AUTO 19006KT 9SM OVC024 OVC037 M02/M02 A2964 RMK SLP043

2006/10/02 04:00
CYIV 020400Z 23002KT 12SM FEW050 FEW120 SCT250 07/07 A2960 RMK SC1AC1CI0 SLP032

2006/10/02 04:00
CYKA 020400Z 06004KT 40SM SCT080 11/03 A2995 RMK AC3 SLP148

2006/10/02 04:00
CYKF 020400Z AUTO 00000KT 1/8SM CLR 05/05 A3012 RMK SLP206

2006/10/02 04:00
CYKJ 020400Z AUTO 26007KT 9SM BKN017 OVC034 06/04 A2965 RMK SLP060

2006/10/02 04:00
CYKY 020400Z 30003KT 15SM FEW040 04/00 A2991 RMK SC1 SLP146

2006/10/02 04:00
CYKZ 020400Z 28005KT 15SM SKC 09/06 A3012 RMK SLP201

2006/10/02 04:00
CYLL 020400Z 28010KT 15SM FEW240 04/M01 A2989 RMK CI1 SLP144

2006/10/02 04:00
CYLW 020400Z AUTO 04002KT 9SM CLR 07/02 A2993 RMK SLP141

2006/10/02 04:00
CYMA 020400Z 00000KT 20SM FEW030 00/M01 A2985 RMK SC1 SLP136

2006/10/02 04:00
CYMM 020400Z 24005KT 6SM -SHRA OVC017 06/05 A2981 RMK SC8 CIG RAG SLP109

2006/10/02 04:00
CYMO 020400Z AUTO 21006KT 9SM OVC039 09/09 A2998 RMK SLP152

2006/10/02 04:00
CYMT 020400Z 12003KT 12SM FEW003 SCT004 BKN006 OVC015 07/07 A3003 RMK SF2SF2SF2SC3 SLP183

2006/10/02 04:00
CYNA 020400Z AUTO 05005KT 9SM CLR 04/03 A3030 RMK SLP261

2006/10/02 04:00
CYNE 020400Z AUTO 30004KT 9SM CLR 10/06 A2964 RMK SLP046

2006/10/02 04:00
CYNM 020400Z AUTO 00000KT 8SM OVC017 09/09 A3001 RMK SLP173

2006/10/02 04:00
CYOD 020400Z 27004KT 15SM FEW250 06/M01 A2988 RMK CI0 SLP135

2006/10/02 04:00
CYOJ 020400Z 35004KT 15SM -RA SCT035 BKN250 04/04 A2990 RMK SC3CI1 SLP139

2006/10/02 04:00
CYOY 020400Z AUTO 03005KT 9SM OVC032 09/08 A3008 RMK SLP192

2006/10/02 04:00
CYPA 020400Z 26005KT 15SM SKC 07/02 A2981 RMK SLP107

2006/10/02 04:00
CYPE 020400Z 27003KT 15SM SCT075 03/M01 A2992 RMK AC3 SLP153

2006/10/02 04:00
CYPH 020400Z AUTO 08003KT 9SM BKN068 04/01 A2994 RMK SLP142

2006/10/02 04:00
CYPQ 020400Z AUTO 27002KT 9SM CLR 09/06 A3009 RMK SLP194

2006/10/02 04:00
CYPR 020400Z AUTO 06005KT 9SM CLR 06/04 A3012 RMK SLP203

2006/10/02 04:00
CYPY 020400Z AUTO 28002KT 9SM OVC035 06/03 A2979 RMK SLP101

2006/10/02 04:00
CYQA 020400Z AUTO 00000KT 3/8SM CLR 04/04 A3010 RMK SLP200

2006/10/02 04:00
CYQD 020400Z 31006KT 15SM FEW050 10/07 A2971 RMK SC1 SLP069

2006/10/02 04:00
CYQF 020400Z 02003KT 15SM FEW040 BKN080 04/01 A2995 RMK SC2AC3 SLP171

2006/10/02 04:00
CYQH 020400Z 00000KT 30SM FEW040 01/M02 A2992 RMK SC1 SLP159

2006/10/02 04:00
CYQI 020400Z 03005KT 4SM -RA BR OVC005 13/13 A2993 RMK SF8 CIG RAG SLP137

2006/10/02 04:00
CYQK 020400Z 31011KT 15SM SKC 16/10 A2969 RMK SLP058

2006/10/02 04:00
CYQL 020400Z 12006KT 15SM FEW260 05/04 A2988 RMK CI0 LAST STFD OBS/NXT 021200Z SLP136

2006/10/02 04:00
CYQR 020400Z 32008KT 15SM SCT050 BKN085 11/06 A2986 RMK SC3AC2 SLP126

2006/10/02 04:00
CYQT 020400Z 05004KT 15SM SKC 07/07 A2983 RMK SLP108

2006/10/02 04:00
CYQU 020400Z 26008KT 25SM FEW100 04/M02 A2995 RMK AC2 SLP169

2006/10/02 04:00
CYQV 020400Z AUTO 27008KT 9SM SCT086 11/08 A2980 RMK SLP105

2006/10/02 04:00
CYQW 020400Z AUTO 31004KT 9SM CLR 03/M02 A2986 RMK SLP129

2006/10/02 04:00
CYQZ 020400Z AUTO 00000KT 9SM CLR 03/02 A3005 RMK SLP204

2006/10/02 04:00
CYRJ 020400Z 14004KT 3SM -RADZ BR OVC001 09/09 A3009 RMK SF8 SLP195

2006/10/02 04:00
CYRT 020400Z 10013G19KT 4SM -RA BR BKN006 OVC012 04/04 A2965 RMK SC6SC2 SLP042

2006/10/02 04:00
CYRV 020400Z AUTO 00000KT 9SM FEW079 10/01 A2994 RMK SLP146

2006/10/02 04:00
CYSB 020400Z 29002KT 15SM SKC 07/06 A3007 RMK SLP193

2006/10/02 04:00
CYSC 020400Z AUTO 07003KT 9SM OVC039 08/08 A3004 RMK SLP177

2006/10/02 04:00
CYSF 020400Z 00000KT 12SM -RA OVC036 05/04 A2970 RMK SC8 SLP070

2006/10/02 04:00
CYSM 020400Z 30006KT 15SM SCT027 BKN050 06/04 A2980 RMK SC2SC6 SLP100

2006/10/02 04:00
CYTH 020400Z 25008KT 15SM BKN033 08/07 A2957 RMK SC5 SLP024

2006/10/02 04:00
CYTS 020400Z 00000KT 15SM R03/1100V4500FT/U SCT038 05/05 A3003 RMK SC2 SLP179

2006/10/02 04:00
CYTZ 020400Z AUTO 23004KT 9SM CLR 08/07 A3012 RMK SLP202

2006/10/02 04:00
CYUA 020400Z AUTO ///// 9SM CLR 03/ A2970 RMK ICG PAST HR SLP063

2006/10/02 04:00
CYUB 020400Z 13005KT 15SM FEW020 M01/M01 A2978 RMK SC1 SLP084

2006/10/02 04:00
CYUS 020400Z AUTO 28007KT 9SM OVC011 OVC019 M00/ A2985 RMK SLP113

2006/10/02 04:00
CYUX 020400Z AUTO 29008KT 9SM CLR M01/M02 A2975 RMK SLP078

2006/10/02 04:00
CYVC 020400Z 24003KT 15SM SKC 05/04 A2976 RMK SLP093

2006/10/02 03:50
PTSA 020350Z 04010KT 10SM SCT018 BKN130 OVC300 29/25 A2972 LAST

2006/10/02 04:00
RKPK 020400Z 04008KT 9999 SCT030 SCT200 25/13 Q1014 NOSIG

2006/10/02 04:01
KRCA 020401Z 00000KT 7SM CLR 19/05 A2986 RMK AO2A SLP088 $

2006/10/02 03:50
LTBA 020350Z 34008KT CAVOK 15/13 Q1019 NOSIG RMK RWY18L 35006KT RWY06 35007KT 280V020 RWY24 34005KT

2006/10/02 04:00
CYVM 020400Z AUTO 21007KT 9SM FEW062 02/M03 A2976 RMK SLP079

2006/10/02 04:00
CYVO 020400Z AUTO 24002KT 7SM OVC023 OVC043 09/09 A3003 RMK SLP183

2006/10/02 04:00
CYVQ 020400Z 11004KT 30SM SCT080 04/00 A2984 RMK AC3 SLP109

2006/10/02 04:00
CYVT 020400Z 26008KT 230V300 15SM SCT020 BKN040 06/05 A2980 RMK SC3SC2 LAST STFD OBS/NEXT 021200UTC SLP106

2006/10/02 04:00
CYVV 020400Z 00000KT 15SM FEW030 04/03 A3011 RMK SC1 SLP200

2006/10/02 04:00
CYWA 020400Z AUTO 00000KT 6SM BKN040 10/10 A3004 RMK SLP177

2006/10/02 04:00
CYWH 020400Z 00000KT 15SM FEW030 FEW260 12/09 A3002 RMK CU1CI1 LAST OB/NEXT 021300 UTC SLP164

2006/10/02 04:00
CYWL 020400Z 34004KT 15SM FEW050 OVC100 06/M04 A3001 RMK SC2AC6 SLP189

2006/10/02 04:00
CYXC 020400Z 21003KT 25SM SKC 13/M01 A2987 RMK SLP120

2006/10/02 04:00
CYXD 020400Z AUTO 27004KT 9SM OVC090 07/M03 A2992 RMK SLP150

2006/10/02 04:00
CYXE 020400Z 29007KT 15SM SKC 04/01 A2986 RMK SLP128

2006/10/02 04:00
CYXH 020400Z AUTO 06003KT 9SM CLR 07/03 A2991 RMK SLP139

2006/10/02 04:00
CYXJ 020400Z 34010KT 15SM BKN100 05/M01 A2996 RMK AC6 SLP173

2006/10/02 04:00
CYXL 020400Z 15010G15KT 15SM FEW070 FEW250 12/07 A2968 RMK AC1CI0 SLP061

2006/10/02 04:00
CYXR 020400Z AUTO 26004KT 9SM CLR 07/07 A3004 RMK SLP179

2006/10/02 04:00
CYXS 020400Z 18003KT 15SM BCFG SKC 01/01 A3004 RMK SLP206

2006/10/02 04:00
CYXT 020400Z 00000KT 20SM FEW240 05/03 A3012 RMK CI0 SLP206

2006/10/02 04:00
CYYB 020400Z 00000KT 15SM MIFG FEW025 09/09 A3006 RMK SC1 SLP190

2006/10/02 04:00
CYYD 020400Z 00000KT 25SM FEW060 02/00 A3008 RMK SC1 SLP203

2006/10/02 04:00
CYYE 020400Z 19004KT 15SM BKN055 06/04 A2994 RMK SC6 SLP155

2006/10/02 04:00
CYYF 020400Z 35008KT 15SM SKC 12/02 A2993 RMK SLP138

2006/10/02 04:00
CYYG 020400Z 05010KT 15SM -SHRA OVC024 11/09 A3011 RMK SC8 SLP197

2006/10/02 04:00
CYYH 020400Z 27009KT 15SM -SN OVC038 M02/M03 A2985 RMK SC7 SLP111

2006/10/02 04:00
CYYL 020400Z AUTO 32003KT 9SM OVC004 OVC032 07/06 A2962 RMK SLP050

2006/10/02 04:00
CYYN 020400Z AUTO 27002KT 9SM CLR 07/02 A2989 RMK SLP136

2006/10/02 04:00
CYYU 020400Z 14002KT 15SM MIFG FEW030 06/06 A3000 RMK SC1 SLP166

2006/10/02 04:00
CYYY 020400Z 14013KT 10SM -RA BKN045 OVC100 11/07 A3017 RMK SC5AC3 SLP218

2006/10/02 04:00
CYZE 020400Z AUTO 10002KT 9SM CLR 06/06 A3010 RMK SLP199

2006/10/02 04:00
CYZH 020400Z AUTO 27006KT 9SM -RA CLR 04/M01 A2989 RMK SLP142

2006/10/02 04:00
CYZR 020400Z AUTO 00000KT 9SM CLR 08/07 A3013 RMK SLP205

2006/10/02 04:00
CYZT 020400Z 29010KT 15SM FEW040 FEW180 SCT220 OVC250 11/06 A3008 RMK SC1AC2CI2CI4 SLP186

2006/10/02 04:00
CYZU 020400Z 22005KT 15SM FEW075 04/M04 A2995 RMK AC2 LAST OBS/NEXT 021200Z SLP168

2006/10/02 04:00
CZCP 020400Z AUTO 25006KT 9SM OVC023 M02/ A2984 RMK SLP112

2006/10/02 04:00
CZPC 020400Z AUTO 24005KT 9SM CLR 07/04 A2989 RMK SLP141

2006/10/02 04:00
CZUM 020400Z AUTO 12004KT 9SM CLR 02/M02 A3025 RMK SLP265

2006/10/02 04:00
FAKM 020400Z 20004KT CAVOK 05/M00 Q1015

2006/10/02 04:00
FAMM 020400Z 12010KT 9999 FEW025 SCT100 14/00 Q1014

2006/10/02 04:00
FAPP 020400Z 15002KT 8000 NSC 16/03 Q1014

2006/10/02 04:00
LEBZ 020400Z 00000KT CAVOK 14/13 Q1014

2006/10/02 04:00
LESA 020400Z VRB01KT CAVOK 09/08 Q1016

2006/10/02 04:00
LETO 020400Z 03004KT CAVOK 12/06 Q1017

2006/10/02 04:00
LIMP 020400Z VRB03KT 6000 SCT100 16/14 Q1017

2006/10/02 04:00
LIMZ 020400Z 20004KT 3000 BR BKN027 17/16 Q1017

2006/10/02 03:55
LIRM 020355Z 07002KT 3000 BR SKC 17/15 Q1019 RMK VIS MIN 3000 WIND THR06 /////KT YLO

2006/10/02 04:03
KMPV 020403Z AUTO 00000KT 2 1/2SM BR OVC016 09/08 A3006 RMK AO2

2006/10/02 04:03
KMSS 020403Z AUTO 00000KT 3SM BR CLR 09/09 A3003 RMK AO2

2006/10/02 04:04
KAUG 020404Z AUTO 35005KT 7SM RA FEW006 BKN035 OVC044 09/08 A3004 RMK AO2 P0002

2006/10/02 04:04
KHFD 020404Z AUTO 31004KT 10SM SCT023 13/11 A3002 RMK AO2

2006/10/02 04:04
KYIP 020404Z 00000KT 3/4SM BR CLR 08/07 A3013 RMK AO2

2006/10/02 04:01
UKBB 020401Z 19002MPS 0600 R36R/0800VP1500D R36L/P1500D PRFG SCT040 08/07 Q1018 88CLRD70 TEMPO 1000 BR

2006/10/02 04:08
K11R 020408Z AUTO 16004KT 10SM CLR 25/23 A3010 RMK AO2

2006/10/02 04:04
K3LF 020404Z AUTO 16008KT 10SM CLR 18/12 A3008 RMK AO2

2006/10/02 04:04
KALN 020404Z AUTO 14003KT 10SM CLR 20/12 A3009 RMK AO2

2006/10/02 04:03
KDNV 020403Z AUTO 22007KT 10SM CLR 19/13 A3007 RMK AO2

2006/10/02 04:04
KERV 020404Z AUTO 14009KT 10SM CLR 24/19 A3012 RMK AO2

2006/10/02 04:07
KFEP 020407Z AUTO 17009KT 10SM 21/12 A2996 RMK AO2 LTG DSNT N THRU E

2006/10/02 04:05
KGBG 020405Z AUTO 18009G14KT 10SM CLR 21/11 A2998 RMK AO2

2006/10/02 04:03
KGLE 020403Z AUTO 15007KT 10SM CLR 26/18 A3006 RMK AO2

2006/10/02 04:05
KJSO 020405Z AUTO 18006KT 10SM CLR 26/22 A3012 RMK AO2

2006/10/02 04:03
KPPQ 020403Z AUTO 17009KT 10SM CLR 22/12 A3005 RMK AO2

2006/10/02 04:05
K1H2 020405Z AUTO 18006KT 10SM CLR 19/12 A3010 RMK AO2 TSNO

2006/10/02 04:05
KAAA 020405Z AUTO 18008KT 10SM CLR 20/13 A3006 RMK AO2

2006/10/02 04:05
KLWB 020405Z AUTO 00000KT 10SM CLR 10/10 A3024 RMK AO2

2006/10/02 04:05
KRPJ 020405Z AUTO 18009KT 10SM CLR 24/11 A3000 RMK AO2 LTG DSNT N AND NE

2006/10/02 04:06
KRSV 020406Z AUTO 10SM CLR 17/13 A3013 RMK AO2 TSNO

2006/10/02 03:55
PGUA 020355Z 26013KT 7SM -RA SCT020 BKN080 OVC100 27/25 A2958 RMK AO2A SLP999 WR// BLU

2006/10/02 04:05
KAQO 020405Z AUTO 11003KT 10SM 25/17 A3011 RMK AO2

2006/10/02 04:03
KARM 020403Z AUTO 12003KT 10SM CLR 20/20 A3011 RMK AO2

2006/10/02 04:05
KASW 020405Z AUTO 00000KT 10SM SCT120 12/08 A3012 RMK AO2

2006/10/02 04:04
KBBD 020404Z AUTO 14006KT 10SM CLR 24/14 A3010 RMK

2006/10/02 04:05
KBKS 020405Z AUTO 13005KT 10SM CLR 23/22 A3006 RMK AO1

2006/10/02 04:05
KBPG 020405Z AUTO 17009KT 10SM CLR 22/14 A3009 RMK AO1

2006/10/02 04:05
KBWD 020405Z AUTO 16005KT 10SM CLR 24/16 A3007 RMK AO1

2006/10/02 04:05
KBYY 020405Z AUTO 12003KT 10SM CLR 21/20 A3010 RMK AO2

2006/10/02 04:05
KCIR 020405Z AUTO 00000KT 10SM CLR 15/14 A3015 RMK AO2

2006/10/02 04:06
KLHZ 020406Z AUTO 00000KT 10SM CLR 12/12 A3016 RMK AO2

2006/10/02 04:05
KLOT 020405Z AUTO 21009KT 10SM SCT029 SCT041 SCT050 18/13 A2999 RMK AO2 LTG DSNT N AND NE

2006/10/02 04:05
KOLY 020405Z AUTO 00000KT 10SM CLR 18/15 A3012 RMK AO2

2006/10/02 04:05
KPNT 020405Z AUTO 19009G14KT 10SM CLR 21/11 A3004 RMK AO2 LTG DSNT NE

2006/10/02 04:04
KPYX 020404Z AUTO 19012KT 10SM CLR 23/14 A2998 RMK AO2

2006/10/02 04:07
KRPH 020407Z AUTO 16007KT 10SM CLR 27/13 A3001 RMK AO2

2006/10/02 04:05
KRZN 020405Z AUTO 17008KT 10SM CLR 17/10 A2977 RMK AO2

2006/10/02 04:07
KSEP 020407Z AUTO 16005KT 10SM CLR 25/16 A3007 RMK AO1

2006/10/02 03:50
PTSA 020350Z 04010KT 10SM SCT018 BKN130 OVC300 29/25 A2972 LAST

2006/10/02 04:00
KLGC 020400Z AUTO 8SM CLR 17/17 A3016

2006/10/02 04:05
KCTZ 020405Z AUTO 00000KT 10SM CLR 14/13 A3016

2006/10/02 04:02
KFDK 020402Z AUTO 00000KT 7SM CLR 08/07 A3018

2006/10/02 04:00
KWDR 020400Z AUTO 35004KT 10SM CLR 15/15 A3020

2006/10/02 04:04
KAUG 020404Z AUTO 35005KT 7SM RA FEW006 BKN035 OVC044 09/08 A3004

2006/10/02 04:05
KGFL 020405Z AUTO 00000KT 1 1/4SM BR OVC001 11/11 A3002 RMK AO2 CIG 001V005

2006/10/02 04:05
KHYA 020405Z AUTO 30005KT 9SM SCT005 SCT009 BKN015 12/12 A2992 RMK AO2

2006/10/02 04:05
KARB 020405Z AUTO 00000KT 2SM BR CLR 06/05 A3012 RMK AO2

2006/10/02 04:05
PACM 020405Z AUTO 13003KT 2SM -RA BR FEW008 SCT013 OVC026 08/07 A2951 RMK AO2 TSNO RAB04 P0000

2006/10/02 04:05
PAMB 020405Z AUTO 07011KT 1 1/2SM BR FEW008 OVC012 08/07 A2943 RMK AO2 PWINO TSNO P0001 $

2006/10/02 04:06
KCQX 020406Z AUTO 00000KT 1 1/2SM BR SCT001 BKN019 14/13 A2992 RMK AO2

2006/10/02 04:06
KENW 020406Z AUTO 06015G21KT 10SM VCTS SCT090 BKN110 16/12 A3005 RMK AO2 LTG DSNT N-SE TSB00

2006/10/02 04:05
PACM 020405Z AUTO 13003KT 2SM -RA BR FEW008 SCT013 OVC026 08/07 A2951 RMK AO2 TSNO RAB04 P0000

2006/10/02 04:04
KORH 020404Z AUTO VRB05KT 7SM OVC003 10/09 A3000

2006/10/02 04:00
KLGC 020400Z AUTO 8SM CLR 17/17 A3016

2006/10/02 04:00
KOPN 020400Z AUTO 01003KT 7SM CLR 19/19 A3015

2006/10/02 04:02
KJNX 020402Z AUTO 00000KT 7SM CLR 13/12 A3016

2006/10/02 04:02
KJNX 020402Z AUTO 00000KT 7SM CLR 13/12 A3016

2006/10/02 04:05
KAJG 020405Z AUTO 00000KT 10SM 16/12 A3014 RMK AO2

2006/10/02 04:05
KC09 020405Z AUTO 16007KT 10SM SCT100 BKN120 18/12 A3003 RMK AO2 LTG DSNT N

2006/10/02 04:03
KC75 020403Z AUTO 20009KT 10SM CLR 21/11 A3000 RMK AO2

2006/10/02 04:05
KCUL 020405Z AUTO 00000KT 10SM CLR 12/10 A3014 RMK AO2

2006/10/02 04:05
KDKB 020405Z AUTO 18014KT 10SM CLR 17/12 A2999 RMK AO2 LTG DSNT N AND NE

2006/10/02 04:05
KDKR 020405Z AUTO 16005KT 10SM CLR 24/22 A3013 RMK AO2

2006/10/02 04:07
KDUX 020407Z AUTO 16010KT 10SM CLR 20/11 A3002 RMK AO2

2006/10/02 04:05
KE38 020405Z AUTO 17006KT 10SM CLR 21/12 A3017 RMK AO2

2006/10/02 04:02
KEBG 020402Z AUTO 14005KT 10SM CLR 25/22 A3006 RMK AO2

2006/10/02 04:05
KECU 020405Z AUTO 14011G19KT 10SM CLR 24/18 A3018 RMK AO2

2006/10/02 04:05
KENL 020405Z AUTO 17005KT 10SM CLR 18/12 A3012 RMK AO2

2006/10/02 04:05
KF05 020405Z AUTO 18006KT 10SM CLR 24/16 A2999 RMK AO2

2006/10/02 04:03
KFWS 020403Z AUTO 17008G14KT 10SM CLR A3006 RMK AO2

2006/10/02 04:04
KGNC 020404Z AUTO 18006KT 10SM CLR 21/17 A3010 RMK AO2

2006/10/02 03:56
KNTU 020356Z 00000KT 7SM BKN100 18/14 A3013 RMK SLP206 T01780139

2006/10/02 04:05
KSAR 020405Z AUTO 14006KT 10SM CLR 19/13 A3011 RMK AO2

2006/10/02 04:05
KSFY 020405Z AUTO 16009KT 10SM CLR 20/10 A2994 RMK AO2 LTG DSNT N AND NE

2006/10/02 04:04
KSLO 020404Z AUTO 16003KT 10SM CLR 18/12 A3013 RMK AO2

2006/10/02 04:05
KTAZ 020405Z AUTO 18009KT 10SM CLR 19/13 A3007 RMK AO2 LTG DSNT N

2006/10/02 04:05
KTIP 020405Z AUTO 21008KT 10SM CLR 22/11 A3008 RMK AO2

2006/10/02 04:05
KVYS 020405Z AUTO 17009KT 10SM CLR 20/11 A3000 RMK AO2 LTG DSNT NE

2006/10/02 04:05
K3T5 020405Z AUTO 00000KT 7SM CLR 24/22 A3009 RMK AO2

2006/10/02 04:05
KETB 020405Z AUTO 17006KT 10SM +RA 15/12 A2997 RMK AO2

2006/10/02 04:05
KFOA 020405Z AUTO 18003KT 10SM CLR 16/12 A3013 RMK AO2

2006/10/02 04:03
KGBG 020403Z AUTO 18008G14KT 10SM CLR 21/11 A2998 RMK AO2

2006/10/02 04:05
KGOP 020405Z AUTO 17008KT 10SM CLR 27/19 A3009 RMK AO2 TSNO

2006/10/02 04:05
KGPM 020405Z AUTO 17007KT 10SM CLR 26/18 A3005 RMK AO1

2006/10/02 04:05
KGVT 020405Z AUTO 16006KT 10SM CLR 24/18 A3007 RMK AO2

2006/10/02 04:05
KGYB 020405Z AUTO 19005KT 10SM CLR 25/22 A3012 RMK AO2

2006/10/02 04:00
KGYI 020400Z AUTO 15010KT 10SM CLR 27/17 A3005 RMK AO2

2006/10/02 04:05
KHBV 020405Z AUTO 12009KT 10SM CLR 25/22 A3009 RMK AO2

2006/10/02 04:07
KHHF 020407Z AUTO 18015G21KT 10SM CLR 24/15 A2994 RMK AO2

2006/10/02 04:05
KJAS 020405Z AUTO 00000KT 10SM SCT110 21/20 A3014 RMK AO2

2006/10/02 04:00
KJDD 020400Z AUTO 16003KT 10SM CLR 26/19 A3010 RMK AO2

2006/10/02 04:00
KJWY 020400Z AUTO 16007KT 10SM CLR 26/19 A3006 RMK AO2

2006/10/02 04:07
KJYL 020407Z AUTO 00000KT 10SM CLR 20/18 A3012 RMK AO2

2006/10/02 04:04
KLNC 020404Z AUTO 17006KT 10SM CLR 26/19 A3006 RMK AO2

2006/10/02 04:01
KMDD 020401Z AUTO 17010KT 10SM CLR 24/16 A3008 RMK AO2

2006/10/02 04:07
KMEZ 020407Z AUTO 20004KT 10SM CLR 28/17 A3011 RMK AO2

2006/10/02 04:05
KVVG 020405Z AUTO 00000KT 9SM 22/22 A3012 RMK AO2

2006/10/02 04:07
KXBP 020407Z AUTO 17009KT 10SM CLR 27/15 A3004 RMK AO2 PWINO

2006/10/02 04:08
K11R 020408Z AUTO 16004KT 10SM CLR 25/23 A3010 RMK AO2

2006/10/02 04:04
K3LF 020404Z AUTO 16008KT 10SM CLR 18/12 A3008 RMK AO2

2006/10/02 04:04
KALN 020404Z AUTO 14003KT 10SM CLR 20/12 A3009 RMK AO2

2006/10/02 04:03
KDNV 020403Z AUTO 22007KT 10SM CLR 19/13 A3007 RMK AO2

2006/10/02 04:04
KERV 020404Z AUTO 14009KT 10SM CLR 24/19 A3012 RMK AO2

2006/10/02 04:07
KFEP 020407Z AUTO 17009KT 10SM 21/12 A2996 RMK AO2 LTG DSNT N THRU E

2006/10/02 04:05
KGBG 020405Z AUTO 18009G14KT 10SM CLR 21/11 A2998 RMK AO2

2006/10/02 04:03
KGLE 020403Z AUTO 15007KT 10SM CLR 26/18 A3006 RMK AO2

2006/10/02 04:05
KJSO 020405Z AUTO 18006KT 10SM CLR 26/22 A3012 RMK AO2

2006/10/02 04:03
KPPQ 020403Z AUTO 17009KT 10SM CLR 22/12 A3005 RMK AO2

2006/10/02 04:05
K1H2 020405Z AUTO 18006KT 10SM CLR 19/12 A3010 RMK AO2 TSNO

2006/10/02 04:05
KAAA 020405Z AUTO 18008KT 10SM CLR 20/13 A3006 RMK AO2

2006/10/02 04:05
KLWB 020405Z AUTO 00000KT 10SM CLR 10/10 A3024 RMK AO2

2006/10/02 04:05
KRPJ 020405Z AUTO 18009KT 10SM CLR 24/11 A3000 RMK AO2 LTG DSNT N AND NE

2006/10/02 04:06
KRSV 020406Z AUTO 10SM CLR 17/13 A3013 RMK AO2 TSNO

2006/10/02 04:05
KAQO 020405Z AUTO 11003KT 10SM 25/17 A3011 RMK AO2

2006/10/02 04:03
KARM 020403Z AUTO 12003KT 10SM CLR 20/20 A3011 RMK AO2

2006/10/02 04:05
KASW 020405Z AUTO 00000KT 10SM SCT120 12/08 A3012 RMK AO2

2006/10/02 04:04
KBBD 020404Z AUTO 14006KT 10SM CLR 24/14 A3010 RMK

2006/10/02 04:05
KBKS 020405Z AUTO 13005KT 10SM CLR 23/22 A3006 RMK AO1

2006/10/02 04:05
KBPG 020405Z AUTO 17009KT 10SM CLR 22/14 A3009 RMK AO1

2006/10/02 04:05
KBWD 020405Z AUTO 16005KT 10SM CLR 24/16 A3007 RMK AO1

2006/10/02 04:05
KBYY 020405Z AUTO 12003KT 10SM CLR 21/20 A3010 RMK AO2

2006/10/02 04:06
KLHZ 020406Z AUTO 00000KT 10SM CLR 12/12 A3016 RMK AO2

2006/10/02 04:05
KLOT 020405Z AUTO 21009KT 10SM SCT029 SCT041 SCT050 18/13 A2999 RMK AO2 LTG DSNT N AND NE

2006/10/02 04:05
KOLY 020405Z AUTO 00000KT 10SM CLR 18/15 A3012 RMK AO2

2006/10/02 04:05
KPNT 020405Z AUTO 19009G14KT 10SM CLR 21/11 A3004 RMK AO2 LTG DSNT NE

2006/10/02 04:04
KPYX 020404Z AUTO 19012KT 10SM CLR 23/14 A2998 RMK AO2

2006/10/02 04:07
KRPH 020407Z AUTO 16007KT 10SM CLR 27/13 A3001 RMK AO2

2006/10/02 04:05
KRZN 020405Z AUTO 17008KT 10SM CLR 17/10 A2977 RMK AO2

2006/10/02 04:05
KAJG 020405Z AUTO 00000KT 10SM 16/12 A3014 RMK AO2

2006/10/02 04:05
KC09 020405Z AUTO 16007KT 10SM SCT100 BKN120 18/12 A3003 RMK AO2 LTG DSNT N

2006/10/02 04:03
KC75 020403Z AUTO 20009KT 10SM CLR 21/11 A3000 RMK AO2

2006/10/02 04:05
KDKB 020405Z AUTO 18014KT 10SM CLR 17/12 A2999 RMK AO2 LTG DSNT N AND NE

2006/10/02 04:05
KDKR 020405Z AUTO 16005KT 10SM CLR 24/22 A3013 RMK AO2

2006/10/02 04:07
KDUX 020407Z AUTO 16010KT 10SM CLR 20/11 A3002 RMK AO2

2006/10/02 04:05
KE38 020405Z AUTO 17006KT 10SM CLR 21/12 A3017 RMK AO2

2006/10/02 04:02
KEBG 020402Z AUTO 14005KT 10SM CLR 25/22 A3006 RMK AO2

2006/10/02 04:05
KECU 020405Z AUTO 14011G19KT 10SM CLR 24/18 A3018 RMK AO2

2006/10/02 04:05
KENL 020405Z AUTO 17005KT 10SM CLR 18/12 A3012 RMK AO2

2006/10/02 04:05
KF05 020405Z AUTO 18006KT 10SM CLR 24/16 A2999 RMK AO2

2006/10/02 04:03
KFWS 020403Z AUTO 17008G14KT 10SM CLR A3006 RMK AO2

2006/10/02 04:04
KGNC 020404Z AUTO 18006KT 10SM CLR 21/17 A3010 RMK AO2

2006/10/02 04:05
KSAR 020405Z AUTO 14006KT 10SM CLR 19/13 A3011 RMK AO2

2006/10/02 04:04
KSLO 020404Z AUTO 16003KT 10SM CLR 18/12 A3013 RMK AO2

2006/10/02 04:05
KTAZ 020405Z AUTO 18009KT 10SM CLR 19/13 A3007 RMK AO2 LTG DSNT N

2006/10/02 04:05
KTIP 020405Z AUTO 21008KT 10SM CLR 22/11 A3008 RMK AO2

2006/10/02 04:05
KVYS 020405Z AUTO 17009KT 10SM CLR 20/11 A3000 RMK AO2 LTG DSNT NE

2006/10/02 04:05
K3T5 020405Z AUTO 00000KT 7SM CLR 24/22 A3009 RMK AO2

2006/10/02 04:05
KETB 020405Z AUTO 17006KT 10SM +RA 15/12 A2997 RMK AO2

2006/10/02 04:05
KFOA 020405Z AUTO 18003KT 10SM CLR 16/12 A3013 RMK AO2

2006/10/02 04:03
KGBG 020403Z AUTO 18008G14KT 10SM CLR 21/11 A2998 RMK AO2

2006/10/02 04:05
KGOP 020405Z AUTO 17008KT 10SM CLR 27/19 A3009 RMK AO2 TSNO

2006/10/02 04:05
KGPM 020405Z AUTO 17007KT 10SM CLR 26/18 A3005 RMK AO1

2006/10/02 04:05
KGVT 020405Z AUTO 16006KT 10SM CLR 24/18 A3007 RMK AO2

2006/10/02 04:05
KGYB 020405Z AUTO 19005KT 10SM CLR 25/22 A3012 RMK AO2

2006/10/02 04:05
KHBV 020405Z AUTO 12009KT 10SM CLR 25/22 A3009 RMK AO2

2006/10/02 04:07
KHHF 020407Z AUTO 18015G21KT 10SM CLR 24/15 A2994 RMK AO2

2006/10/02 04:05
KJAS 020405Z AUTO 00000KT 10SM SCT110 21/20 A3014 RMK AO2

2006/10/02 04:07
KJYL 020407Z AUTO 00000KT 10SM CLR 20/18 A3012 RMK AO2

2006/10/02 04:00
FEFF 020400Z VRB01KT CAVOK 20/20 Q1013 NOSIG

2006/10/02 04:07
KALB 020407Z 07003KT 3/4SM BR OVC075 09/09 A3004 RMK AO2 TWR VIS 10 VIS S 7

2006/10/02 04:07
PACD 020407Z 26027G34KT 9SM -RA BKN009 OVC015 08/07 A2955 RMK AO2 PK WND 26034/0407 CIG 007V012 P0000

2006/10/02 04:05
KGFL 020405Z AUTO 00000KT 1 1/4SM BR OVC001 11/11 A3002 RMK AO2 CIG 001V005

2006/10/02 04:05
KHYA 020405Z AUTO 30005KT 9SM SCT005 SCT009 BKN015 12/12 A2992 RMK AO2

2006/10/02 04:05
KARB 020405Z AUTO 00000KT 2SM BR CLR 06/05 A3012 RMK AO2

2006/10/02 04:05
PACM 020405Z AUTO 13003KT 2SM -RA BR FEW008 SCT013 OVC026 08/07 A2951 RMK AO2 TSNO RAB04 P0000

2006/10/02 04:05
PAMB 020405Z AUTO 07011KT 1 1/2SM BR FEW008 OVC012 08/07 A2943 RMK AO2 PWINO TSNO P0001 $

2006/10/02 04:06
KCQX 020406Z AUTO 00000KT 1 1/2SM BR SCT001 BKN019 14/13 A2992 RMK AO2

2006/10/02 04:06
KENW 020406Z AUTO 06015G21KT 10SM VCTS SCT090 BKN110 16/12 A3005 RMK AO2 LTG DSNT N-SE TSB00

2006/10/02 04:05
PACM 020405Z AUTO 13003KT 2SM -RA BR FEW008 SCT013 OVC026 08/07 A2951 RMK AO2 TSNO RAB04 P0000

2006/10/02 04:07
KMMK 020407Z AUTO 00000KT 3/4SM BR VV001 10/09 A3002 RMK AO2

2006/10/02 04:07
KOVS 020407Z AUTO 23004KT 10SM TS CLR 18/11 A2988 RMK AO2 TSB01

2006/10/02 04:07
PACD 020407Z 26027G34KT 9SM -RA BKN009 OVC015 08/07 A2955 RMK AO2 PK WND 26034/0407 CIG 007V012 P0000

2006/10/02 04:07
KMMK 020407Z AUTO 00000KT 3/4SM BR VV001 10/09 A3002 RMK AO2

2006/10/02 04:07
KOVS 020407Z AUTO 23004KT 10SM TS CLR 18/11 A2988 RMK AO2 TSB01

2006/10/02 04:05
KCIR 020405Z AUTO 00000KT 10SM CLR 15/14 A3015 RMK AO2

2006/10/02 04:07
KSEP 020407Z AUTO 16005KT 10SM CLR 25/16 A3007 RMK AO1

2006/10/02 04:05
KCUL 020405Z AUTO 00000KT 10SM CLR 12/10 A3014 RMK AO2

2006/10/02 04:05
KSFY 020405Z AUTO 16009KT 10SM CLR 20/10 A2994 RMK AO2 LTG DSNT N AND NE

2006/10/02 04:00
KGYI 020400Z AUTO 15010KT 10SM CLR 27/17 A3005 RMK AO2

2006/10/02 04:00
KJDD 020400Z AUTO 16003KT 10SM CLR 26/19 A3010 RMK AO2

2006/10/02 04:00
KJWY 020400Z AUTO 16007KT 10SM CLR 26/19 A3006 RMK AO2

2006/10/02 04:00
FCBB 020400Z 23003KT 8000 FEW010 BKN030 23/20 Q1014 NOSIG

2006/10/02 04:00
FCPP 020400Z 18004KT 150V210 8000 FEW010 BKN030 25/22 Q1013 NOSIG

2006/10/02 04:00
FGSL 020400Z 30007KT 9000 TS SCT013 FEW020CB BKN130 25/23 Q1013 NOSIG

2006/10/02 04:00
FKKD 020400Z 00000KT 6000 -TSRA SCT003 BKN013 FEW016CB 22/22 Q1012 NOSIG

2006/10/02 04:00
FOOL 020400Z 20011KT 170V230 5000 -RA BKN008 OVC030 25/24 Q1013 TEMPO 3000

2006/10/02 04:00
DAAG 020400Z VRB03KT 0150 FG VV000 21/21 Q1017

2006/10/02 04:00
DAAT 020400Z VRB01KT 9999 SCT050 BKN100 19/15 Q1023

2006/10/02 04:00
DABB 020400Z 10002KT CAVOK 16/14 Q1016

2006/10/02 04:00
DABC 020400Z 00000KT CAVOK 18/10 Q1021

2006/10/02 04:00
DABS 020400Z 14010KT CAVOK 16/11 Q1022

2006/10/02 04:00
DAON 020400Z 00000KT CAVOK 17/15 Q1017

2006/10/02 04:00
DAOO 020400Z 20001KT CAVOK 18/14 Q1016

2006/10/02 04:00
DAUA 020400Z 16016KT 5000 HZ SKC 28/08 Q1015

2006/10/02 04:00
DAUG 020400Z 00000KT CAVOK 21/08 Q1021

2006/10/02 04:00
DAUH 020400Z 04010KT CAVOK 24/08 Q1018

2006/10/02 04:00
DAUZ 020400Z 34006KT CAVOK 21/06 Q1016

2006/10/02 04:00
WSAP 020400Z 18010KT 5000 HZ FEW020 BKN300 31/25 Q1011

2006/10/02 03:55
PGUA 020355Z 26013KT 7SM -RA SCT020 BKN080 OVC100 27/25 A2958 RMK AO2A SLP999 WR// BLU

2006/10/02 03:56
KNTU 020356Z 00000KT 7SM BKN100 18/14 A3013 RMK SLP206 T01780139

2006/10/02 03:56
PHNG 020356Z COR 00000KT 7SM 7SM FEW012 SCT020 BKN030 OVC050 26/24 A2996 RMK SLP143 T02610239

2006/10/02 03:46
PMDY 020346Z AUTO 03004KT 10SM FEW023 26/21 A2992 RMK A02 $

2006/10/02 04:04
KLNC 020404Z AUTO 17006KT 10SM CLR 26/19 A3006 RMK AO2

2006/10/02 04:01
KMDD 020401Z AUTO 17010KT 10SM CLR 24/16 A3008 RMK AO2

2006/10/02 04:07
KMEZ 020407Z AUTO 20004KT 10SM CLR 28/17 A3011 RMK AO2

2006/10/02 04:05
KVVG 020405Z AUTO 00000KT 9SM 22/22 A3012 RMK AO2

2006/10/02 04:07
KXBP 020407Z AUTO 17009KT 10SM CLR 27/15 A3004 RMK AO2 PWINO

2006/10/02 04:00
SAEZ 020400Z 11003KT CAVOK 17/14 Q1013

2006/10/02 04:00
SARP 020400Z 07004KT CAVOK 19/17 Q1013

2006/10/02 04:00
SASJ 020400Z 32006KT 9999 SKC 20/14 Q1013

2006/10/02 04:00
SAWE 020400Z 29002KT 0200 FG SCT010 03/02 Q1017

2006/10/02 04:00
SAZS 020400Z 27009KT 9999 BKN020 FEW060 04/02 Q1022

2006/10/02 04:00
OBBI 020400Z VRB02KT CAVOK 28/24 Q1010 NOSIG

2006/10/02 04:07
KALB 020407Z 07003KT 3/4SM BR OVC075 09/09 A3004

2006/10/02 03:55
OIII 020355Z 00000KT CAVOK 23/06 Q1019 A3011 884.1

2006/10/02 04:00
OTBD 020400Z VRB02KT CAVOK 30/24 Q1011 NOSIG

2006/10/02 04:00
MDSD 020400Z 36006KT 9999-TS FEW018CB FEW02025/24 Q1014 CB/SE/SW

2006/10/02 04:00
MDST 020400Z 11006KT 9999 SCT020 26/25 Q1015

2006/10/02 04:00
OLBA 020400Z 12004KT 8000 FEW026 23/13 Q1012 NOSIG

2006/10/02 04:00
MNMG 020400Z 08004KT 9999 FEW020 26723 Q1011 A2986 V/P 09004KT

2006/10/02 04:00
MNMG 020400Z 08004KT 9999 FEW020 26723 Q1011 A2986 V.P 09004KT

2006/10/02 04:00
OPKC 020400Z 29007KTS 8000M FEW020 FEW200 30/24 1009 NOSIG

2006/10/02 04:00
OPNH 020400Z 18004KT 5000M HZ FEW200 29/22 Q1007

2006/10/02 04:00
UAAA 020400Z 33002MPS 300V360 5000 DRDU FEW050 BKN100 18/09 Q1018 05CLRD65 NOSIG RMK QFE705/0940

2006/10/02 04:00
UACC 020400Z 20003MPS 180V240 9000 FEW233 13/M03 Q1016 NOSIG RMK QFE731/0975 220/0070

2006/10/02 04:00
UAKK 020400Z 12002MPS 070V160 9999 SCT/// 16/M03 Q1017 050///70 NOSIG RMK QFE716/0954

2006/10/02 04:00
UATE 020400Z 34006MPS CAVOK 19/16 Q1014 RMK NOSIG 300///70 QFE 758/1011

2006/10/02 04:00
UATG 020400Z 27004MPS 9999 -SHRA BKN033CB BKN100 15/13 Q1010 320///70 NOSIG RMK QFE760/1013

2006/10/02 04:00
UATT 020400Z 10004MPS CAVOK 11/M06 Q1009 NOSIG RMK QFE737/0983 13 LRD70

2006/10/02 04:00
UAUU 020400Z 18007MPS 9999 SCT033 BKN100 11/M01 Q1009 NOSIG 150///70 RMK QFE741/0988

2006/10/02 04:00
OBBI 020400Z VRB02KT CAVOK 28/24 Q1010 NOSIG

2006/10/02 04:00
FNLU 020400Z VRB03KT 9999 BKN023 21/18 Q1014 NOSIG

2006/10/02 04:08
PGUM 020408Z 25012G20KT 9SM TSRA FEW015CB BKN100 26/24 A2959 RMK AO2 TSB02 TS S CB SE-SW AND NW MOV NE OCNL LTGIC S MOV NE P0000

2006/10/02 03:50
OIAW 020350Z 16004KT 5000 BR SKC 25/22 Q1010 A2983

2006/10/02 03:50
OIFM 020350Z 30004KT 8000 SKC 12/01 Q1022 A3019

2006/10/02 03:50
OIKB 020350Z 36004KT 3000 BR SCT030 BKN100 29/26 Q1010 A2984

2006/10/02 03:50
OIKK 020350Z 00000KT CAVOK 16/00 Q1024 A3026

2006/10/02 03:50
OIMM 020350Z 00000KT CAVOK 19/03 Q1020 A3012

2006/10/02 03:50
OITT 020350Z 00000KT 8000 FEW035CB SCT040 SCT090 18/05 Q1020 A3013

2006/10/02 04:00
TNCM 020400Z 07007KT 040V110 9999 BKN018TCU SCT300 26/22 Q1015 RERA

2006/10/02 03:50
EDQM 020350Z 23009KT 190V270 9999 BKN010 14/14 Q1013

2006/10/02 04:08
PGUM 020408Z 25012G20KT 9SM TSRA FEW015CB BKN100 26/24 A2959 RMK AO2 TSB02 TS S CB SE-SW AND NW MOV NE OCNL LTGIC S MOV NE P0000

2006/10/02 04:00
FMCZ 020400Z 06005KT 9999 FEW020 26/21 Q1015

2006/10/02 04:00
FMEE 020400Z 10013KT 9999 VCSH SCT023 SCT040 21/16 Q1021 TEMPO 6000 -SHRA

2006/10/02 04:00
FMMI 020400Z VRB01KT 9999 R11/1300V1400D FEW016 16/14 Q1022 NOS IG

2006/10/02 04:00
UKBB 020400Z 19002MPS 1600 BR SCT040 08/07 Q1018 88CLRD70 TEMPO 1000 BR

2006/10/02 04:00
UKKK 020400Z 00000MPS 0400 FG SCT200 09/09 Q1018 26CLRD70 NOSIG

2006/10/02 04:00
UKLL 020400Z 18003MPS CAVOK 15/11 Q1015 13090070 NOSIG

2006/10/02 04:00
UKOO 020400Z 00000MPS 4000 BR SCT100 10/09 Q1019 16090070 NOSIG

2006/10/02 04:00
MNMG 020400Z 08004KT 9999 FEW020 26723 Q1011 A2986 V/P 09004KT

2006/10/02 04:00
MNMG 020400Z 08004KT 9999 FEW020 26723 Q1011 A2986 V.P 09004KT

2006/10/02 04:00
UUEE 020400Z 09002MPS 9999 BKN016 BKN100 07/05 Q1017 NOSIG

2006/10/02 04:00
UUWW 020400Z 13003MPS 9999 SCT007 BKN016 07/05 Q1017 NOSIG RMK 06000070

2006/10/02 04:00
RJOO 020400Z VRB02KT 9999 FEW008 SCT015 BKN025 22/19 Q1011 RMK 1ST008 3ST015 5CU025 A2985

2006/10/02 04:00
RJTT 020400Z 35010KT 9999 SCT015 BKN028 20/16 Q1012 RMK 3SC015 7SC028 A2988

2006/10/02 04:00
SPHI 020400Z 18009KT CAVOK 18/15 Q1014 RMK PP000

2006/10/02 04:00
SPRU 020400Z 15005KT 9999 FEW013 SCT100 17/15 Q1013 RMK PP000

2006/10/02 04:00
UAAA 020400Z 33002MPS 300V360 5000 DRDU FEW050 BKN100 18/09 Q1018 05CLRD65 NOSIG RMK QFE705/0940

2006/10/02 04:00
UACC 020400Z 20003MPS 180V240 9000 FEW233 13/M03 Q1016 NOSIG RMK QFE731/0975 220/0070

2006/10/02 04:00
UATE 020400Z 34006MPS CAVOK 19/16 Q1014 RMK NOSIG 300///70 QFE 758/1011

2006/10/02 04:00
UATG 020400Z 27004MPS 9999 -SHRA BKN033CB BKN100 15/13 Q1010 320///70 NOSIG RMK QFE760/1013

2006/10/02 04:00
UATT 020400Z 10004MPS CAVOK 11/M06 Q1009 NOSIG RMK QFE737/0983 13 LRD70

2006/10/02 04:00
UBBG 020400Z 00000KT 9999 SCT083 18/12 Q1016 30CLRD70 NOSIG

2006/10/02 04:00
UUEE 020400Z 09002MPS 9999 BKN016 BKN100 07/05 Q1017 NOSIG

2006/10/02 04:00
URKA 020400Z 06002MPS 9999 FEW026 11/10 Q1019 TEMPO 1200 BR RMK  c 07

2006/10/02 04:00
URKK 020400Z 00000MPS 2600 BR FEW100 10/10 Q1018 TEMPO 0800 FG RMK QFE761 SC07

2006/10/02 04:00
URKM 020400Z 18002MPS 9999 SCT033 BKN106 11/09 Q1019 NOSIG RMK QFE746 8.5 wlavnyj

2006/10/02 04:00
URMM 020400Z 27004MPS 9999 BKN036 14/11 Q1018 NOSIG RMK g/o SC070

2006/10/02 04:00
URMN 020400Z 00000MPS 9999 OVC032CB 13/12 Q1018 NOSIG RMK g/o QFE726 SC055

2006/10/02 04:00
URMT 020400Z 28005G08MPS 0440 R250700 FG VV002 12/12 Q1018 NOSIG RMK QBB070 SC07

2006/10/02 04:00
URRR 020400Z 34003MPS 4000 BR SKC 11/09 Q1017 NOSIG RMK SC070

2006/10/02 04:00
URSS 020400Z 08002MPS 9999 FEW300 13/12 Q1017 NOSIG RMK g/o QFE762 88CLRD70

2006/10/02 04:00
URWA 020400Z 26006MPS CAVOK 14/11 Q1012 NOSIG RMK  uh SC07

2006/10/02 04:00
URWI 020400Z 31007G10MPS 9999 BKN015CB 13/11 Q1014 NOSIG

2006/10/02 04:00
URWW 020400Z 34008G11MPS 9999 OVC010 10/08 Q1013 NOSIG RMK SC070

2006/10/02 04:00
NZAA 020400Z 04007KT 350V070 4000 SHRA FEW008 SCT025 BKN040 13/11 Q1005 TEMPO 20KM -SHRA RMK VIS 20KM SW-NW

2006/10/02 04:00
NZCH 020400Z 07006KT 5000 -DZ SCT009 BKN013 10/08 Q1013 TEMPO 15KM SCT008 BKN018

2006/10/02 04:00
NZWN 020400Z 19018KT 4000 -RADZ SCT002 OVC003 12/10 Q1010 TEMPO 10KM SCT003 BKN006 RMK KAUKAU 17025KT

2006/10/02 04:00
UKBB 020400Z 19002MPS 1600 BR SCT040 08/07 Q1018 88CLRD70 TEMPO 1000 BR

2006/10/02 04:00
UKCC 020400Z 00000MPS 0150 R08/0175N FG BKN083 06/06 Q1019 08190060 NOSIG

2006/10/02 04:00
UKCW 020400Z 00000MPS 3000 BR BKN020 07/07 Q1018 2719//60 BECMG 0700 FG VV003

2006/10/02 04:00
UKDD 020400Z 00000MPS 1300 R09/1200N BR FEW100 11/11 Q1019 09090070 TEMPO 0400 FG

2006/10/02 04:00
UKDE 020400Z 30001MPS 5000 BR BKN050 13/12 Q1019 02CLRD70 NOSIG

2006/10/02 04:00
UKDR 020400Z 00000MPS 0250 R36/P2000N FG SKC 09/09 Q1019 3609//70 NOSIG

2006/10/02 04:00
UKFF 020400Z 14003MPS CAVOK 10/09 Q1020 19010070 NOSIG

2006/10/02 04:00
UKHH 020400Z 00000MPS 0150 FG BKN200 09/08 Q1019 080///65 NOSIG

2006/10/02 04:00
UKKK 020400Z 00000MPS 0400 FG SCT200 09/09 Q1018 26CLRD70 NOSIG

2006/10/02 04:00
UKKM 020400Z 17002MPS 2000 BR SCT100 09/09 Q1017

2006/10/02 04:00
UKLI 020400Z 00000MPS 9999 OVC033 11/10 Q1016 TEMPO -SHRA BKN020CB

2006/10/02 04:00
UKLL 020400Z 18003MPS CAVOK 15/11 Q1015 13090070 NOSIG

2006/10/02 04:00
UKLN 020400Z 00000MPS 3000 MIFG FEW100 09/09 Q1017 1509//70 TEMPO 0500 FG VV002

2006/10/02 04:00
UKLR 020400Z 20005MPS 9999 -SHRA BKN016CB OVC100 13/11 Q1015 TEMPO -TSRA SCT013CB

2006/10/02 04:00
UKLU 020400Z 14003MPS 9999 SCT040 OVC100 17/12 Q1016

2006/10/02 04:00
UKON 020400Z 00000MPS 9999 SCT033 OVC100 14/11 Q1019 NOSIG

2006/10/02 04:00
UKOO 020400Z 00000MPS 4000 BR SCT100 10/09 Q1019 16090070 NOSIG

2006/10/02 04:00
ULLI 020400Z 14002MPS 080V180 2100 BR OVC002 11/10 Q1008 60290052 TEMPO 1500 VV002 RMK QBB080 MS OBSC

2006/10/02 04:00
UUDD 020400Z 16002MPS 130V210 5000 BR BKN010 06/05 Q1018 NOSIG

2006/10/02 04:00
UUEE 020400Z 09002MPS 9999 BKN016 BKN100 07/05 Q1017 NOSIG

2006/10/02 04:00
UUWW 020400Z 13003MPS 9999 SCT007 BKN016 07/05 Q1017 NOSIG RMK 06000070

2006/10/02 04:00
SULS 020400Z 05006KT 9999 FEW020 SCT200 16/16 Q1014

2006/10/02 04:00
SUMU 020400Z 04008KT CAVOK 17/16 Q1013

2006/10/02 04:00
LEMO 020400Z 18002KT CAVOK 21/18 Q1014 NOSIG

2006/10/02 04:00
LERT 020400Z 27005KT CAVOK 19/17 Q1014 NOSIG

2006/10/02 04:00
LEBL 020400Z 35008KT CAVOK 18/14 Q1016 NOSIG

2006/10/02 04:00
LEJR 020400Z 24005KT 200V270 CAVOK 20/16 Q1014

2006/10/02 04:00
LEPP 020400Z 30004KT CAVOK 13/11 Q1016

2006/10/02 04:00
LEXJ 020400Z VRB01KT CAVOK 15/14 Q1012

2006/10/02 03:56
PHNG 020356Z COR 00000KT 7SM 7SM FEW012 SCT020 BKN030 OVC050 26/24 A2996 RMK SLP143 T02610239

2006/10/02 04:00
SEGU 020400Z 25007KT 9999 BKN020 SCT100 24/18 Q1012 NOSIG

2006/10/02 04:00
SEQU 020400Z 00000KT 9999 VCFG FEW030 11/09 Q1028 TEMPO 8000

2006/10/02 04:00
SKRG 020400Z 00000KT 9999 SCT012 BKN080 15/15 A3038

2006/10/02 04:00
SKSP 020400Z 07005KT 9999 FEW023 29/26 A2991

2006/10/02 04:00
FACT 020400Z 26005KT 9999 FEW030 06/05 Q1018 NOSIG

2006/10/02 04:00
FADN 020400Z 22012KT 9999 FEW018 BKN025 19/13 Q1013 NOSIG

2006/10/02 04:00
FAEL 020400Z 29006KT 9999 FEW030 SCT120 13/06 Q1015

2006/10/02 04:00
FAGG 020400Z 29007KT 9999 VCRA FEW010 BKN025 11/09 Q1017 RERA

2006/10/02 04:00
FAJS 020400Z 28003KT 8000 NSC 17/07 Q1016 RERA NOSIG

2006/10/02 04:00
FAPE 020400Z 27014KT 9999 FEW025 SCT040 BKN100 13/08 Q1014 NOSIG

2006/10/02 04:00
FAUP 020400Z 19003KT CAVOK 07/M02 Q1016

2006/10/02 04:00
SKBG 020400Z 00000KT 9999 FEW020 BKN100 21/19 A2998

2006/10/02 04:05
KGFL 020405Z AUTO 00000KT 1 1/4SM BR OVC001 11/11 A3002

2006/10/02 04:00
CMRU 020400Z AUTO 26001KT 10/10 RMK AO1 T01010101 50010

2006/10/02 04:00
CWMT 020400Z AUTO 33005KT 02/01 RMK AO1 SLP112 T00190005 51013

2006/10/02 04:00
DAAE 020400Z 00000KT CAVOK 19/15 Q1016

2006/10/02 04:00
DAAJ 020400Z 30011KT 8000 SCT046 SCT100 23/14 Q1020

2006/10/02 04:00
DAAP 020400Z 28010KT 9999 BKN046 28/13 Q1017

2006/10/02 04:00
DAAS 020400Z 34004KT CAVOK 17/09 Q1024

2006/10/02 04:00
DAAV 020400Z 00000KT 9999 SCT023 20/18 Q1016

2006/10/02 04:00
DABT 020400Z 10008KT CAVOK 16/06 Q1022

2006/10/02 04:00
DAOF 020400Z 06008KT CAVOK 21/04 Q1013

2006/10/02 04:00
DAOR 020400Z 12005KT CAVOK 22/06 Q1022

2006/10/02 04:00
DAOV 020400Z 00000KT CAVOK 20/10 Q1019

2006/10/02 04:00
DAUB 020400Z 01004KT CAVOK 21/08 Q1019

2006/10/02 04:00
DAUE 020400Z 00000KT CAVOK 22/13 Q1020

2006/10/02 04:00
DAUI 020400Z 35003KT CAVOK 24/09 Q1017

2006/10/02 04:00
DAUK 020400Z 00000KT CAVOK 19/09 Q1019

2006/10/02 04:00
DAUL 020400Z 00000KT CAVOK 17/10 Q1022

2006/10/02 04:00
DAUO 020400Z 00000KT CAVOK 20/12 Q1018

2006/10/02 04:00
DAUT 020400Z 12006KT 8000 NSC 22/07 Q1016

2006/10/02 04:00
DAUU 020400Z 00000KT CAVOK 20/10 Q1018

2006/10/02 03:55
ETOU 020355Z COR 22008KT 9999 OVC042 16/13 A2989 RMK AO2A SLP119 WR// T01590129 BLU COR 0403

2006/10/02 04:00
FAJB 020400Z AUTO 23001KT //// // ////// 14/// Q1014

2006/10/02 04:00
FAPS 020400Z AUTO 23006KT //// // ////// 13/00 Q1015

2006/10/02 04:00
FAVE 020400Z AUTO 16010KT //// // ////// 11/01 Q1015

2006/10/02 04:00
GMMC 020400Z 20002KT 2000 BR BKN010 20/20 Q1014

2006/10/02 04:00
LEAB 020400Z 15006KT CAVOK 17/13 Q1018 NOSIG

2006/10/02 04:00
UDYZ 020400Z 00000MPS 9999 FEW043 11/10 Q1016 NOSIG RMK SC070

2006/10/02 04:00
URML 020400Z 31003MPS 9999 BKN100 18/13 Q1015 NOSIG RMK QFE761 g/0  c07

2006/10/02 04:00
WBGB 020400Z 17004KT 2000 HZ FEW016 SCT150 BKN300 31/23 Q1008

2006/10/02 04:00
WBGR 020400Z 13005KT 4000 HZ FEW014 SCT150 BKN300 30/23 Q1008

2006/10/02 04:00
WBGS 020400Z 17005KT 0800 HZ FEW018 BKN300 31/23 Q1009

2006/10/02 04:00
WBGY 020400Z 15004KT 0400 HZ SCT020 SCT150 BKN300 32/20 Q1008

2006/10/02 04:00
WBKL 020400Z 05003KT 3000 HZ FEW012 SCT140 OVC270 27/22 Q1008

2006/10/02 04:00
WBKS 020400Z 16003KT 4000 HZ SCT015 SCT140 OVC260 29/24 Q1009

2006/10/02 04:00
WBKT 020400Z 23006KT 9000 FEW017 SCT034 OVC260 27/22 Q1008

2006/10/02 04:00
WBKW 020400Z 24004KT 2500 FEW017 BKN280 29/24 Q1009

2006/10/02 04:00
YSTW 020400Z AUTO 23011KT 9999NDV // NCD 27/M01 Q1017

2006/10/02 04:00
YSWG 020400Z 25014KT CAVOK 28/04 Q1016

2006/10/02 04:00
YTEF 020400Z AUTO 09006KT //// // ////// 36/06 Q1012

2006/10/02 04:00
YTNK 020400Z 36009KT CAVOK 34/09 Q1013

2006/10/02 04:00
YTRE 020400Z AUTO /////KT //// // ////// 27/08 Q1015

2006/10/02 04:00
YWGT 020400Z AUTO 22014KT //// // ////// 24/01 Q1017

2006/10/02 04:00
YWHA 020400Z AUTO 18013KT 9999NDV // NCD 20/05 Q1021

2006/10/02 04:00
YWLM 020400Z 13008KT CAVOK 28/M03 Q1015 NOSIG

2006/10/02 04:08
KPQL 020408Z AUTO 00000KT 1/2SM FG VV001 21/19 A3012 RMK AO2

2006/10/02 04:00
KCPT 020400Z AUTO 17007KT 10SM CLR 27/17 A3007 RMK AO2

2006/10/02 04:00
KGDJ 020400Z AUTO 15008KT 10SM CLR 27/16 A3005 RMK AO2

2006/10/02 04:05
KIGQ 020405Z AUTO 20011KT 10SM RA SCT036 BKN085 OVC110 17/13 A3005 RMK AO2 LTG DSNT N

2006/10/02 04:05
KIJX 020405Z AUTO 19008KT 10SM CLR 21/12 A3005 RMK AO2

2006/10/02 04:05
KIKK 020405Z AUTO 00000KT 10SM 19/12 A3010 RMK AO2 LTG DSNT N

2006/10/02 04:05
KJOT 020405Z AUTO 00000KT 10SM -RA SCT019 SCT046 BKN060 16/13 A3002 RMK AO2 P0000 LTG DSNT N

2006/10/02 04:05
KJXI 020405Z AUTO 00000KT 10SM CLR 25/19 A3010 RMK AO2

2006/10/02 04:05
KLBR 020405Z AUTO 00000KT 10SM CLR 22/15 A3007 RMK AO1

2006/10/02 04:05
KLUD 020405Z AUTO 16012KT 10SM CLR 27/16 A3004 RMK AO2

2006/10/02 04:05
KORG 020405Z AUTO 00000KT 3SM BR CLR 21/21 A3012 RMK AO2

2006/10/02 04:04
KOSA 020404Z AUTO 13004KT 10SM CLR 23/19 A3009 RMK AO1

2006/10/02 04:05
KPCM 020405Z AUTO 01003KT 10SM CLR 20/18 A3013 RMK AO2

2006/10/02 04:06
KPPA 020406Z AUTO 19016G22KT 10SM 22/16 A3002 RMK AO2

2006/10/02 04:05
KPSN 020405Z AUTO 13003KT 10SM CLR 26/21 A3010 RMK AO2

2006/10/02 04:05
KPVW 020405Z AUTO 18010KT 10SM CLR 21/15 A3006 RMK AO2

2006/10/02 04:05
KRAS 020405Z AUTO 14010KT 10SM CLR 28/26 A3011 RMK AO2

2006/10/02 04:05
KRWV 020405Z AUTO 14006KT 10SM CLR 25/21 A3012 RMK AO2

2006/10/02 04:05
KSOA 020405Z AUTO 20003KT 10SM CLR 23/14 A3009 RMK AO2

2006/10/02 04:08
PGUM 020408Z 25012G20KT 9SM TSRA FEW015CB BKN100 26/24 A2959 RMK AO2 TSB02 TS S CB SE-SW AND NW MOV NE OCNL LTGIC S MOV NE P0000

2006/10/02 04:07
PACD 020407Z 26027G34KT 9SM -RA BKN009 OVC015 08/07 A2955

2006/10/02 04:08
PGUM 020408Z 25012G20KT 9SM TSRA FEW015CB BKN100 26/24 A2959

2006/10/02 04:08
PGUM 020408Z 25012G20KT 9SM TSRA FEW015CB BKN100 26/24 A2959

2006/10/02 03:58
KALB 020358Z COR 00000KT 3/4SM BR FEW029 BKN070 OVC080 09/08 A3005

2006/10/02 04:07
PACM 020407Z AUTO 13004KT 1 1/4SM RA BR FEW008 SCT013 BKN017 08/07 A2951 RMK AO2 TSNO BKN V SCT RAB04 P0000

2006/10/02 04:08
PASO 020408Z AUTO 00000KT 6SM -RA BR FEW002 BKN029 OVC050 09/08 A2966 RMK AO2 P0000 TSNO

2006/10/02 04:08
KARB 020408Z AUTO 00000KT 1SM BR CLR 05/04 A3012 RMK AO2

2006/10/02 04:08
KFWN 020408Z AUTO 00000KT 1 1/4SM BR SCT001 08/07 A3008 RMK AO2

2006/10/02 04:08
KYIP 020408Z 00000KT 2 1/2SM BR CLR 08/07 A3013 RMK AO2

2006/10/02 04:07
PACM 020407Z AUTO 13004KT 1 1/4SM RA BR FEW008 SCT013 BKN017 08/07 A2951 RMK AO2 TSNO BKN V SCT RAB04 P0000

2006/10/02 04:09
KPOU 020409Z AUTO 11003KT 3SM BR SCT080 OVC095 09/09 A3004 RMK AO2

2006/10/02 04:09
PATQ 020409Z AUTO 28006KT 4SM BR OVC006 M01/M02 A2968 RMK AO2 TSNO $

2006/10/02 04:08
PGUM 020408Z 25012G20KT 9SM TSRA FEW015CB BKN100 26/24 A2959

2006/10/02 04:05
KPSN 020405Z AUTO 13003KT 10SM CLR 26/21 A3010 RMK AO2

2006/10/02 04:05
KSOA 020405Z AUTO 20003KT 10SM CLR 23/14 A3009 RMK AO2

2006/10/02 04:05
KMKN 020405Z AUTO 17008KT 10SM 26/16 A3008 RMK AO2

2006/10/02 04:00
KCPT 020400Z AUTO 17007KT 10SM CLR 27/17 A3007 RMK AO2

2006/10/02 04:00
KGDJ 020400Z AUTO 15008KT 10SM CLR 27/16 A3005 RMK AO2

2006/10/02 03:46
KBJC 020346Z 26008KT 25SM SCT120 BKN200 20/M04 A3009

2006/10/02 04:00
SAVC 020400Z 32004KT 9999 FEW040 SCT100 11/02 Q1016

2006/10/02 03:58
KALB 020358Z COR 00000KT 3/4SM BR FEW029 BKN070 OVC080 09/08 A3005 RMK AO2 TWR VIS 10

2006/10/02 04:08
PGUM 020408Z 25012G20KT 9SM TSRA FEW015CB BKN100 26/24 A2959

2006/10/02 04:00
HKJK 020400Z 03003KT 9999 SCT016 SCT080 15/13 Q1022 NOSIG

2006/10/02 04:08
KHQZ 020408Z AUTO 15008KT 10SM CLR 26/18 A3006 RMK AO2

2006/10/02 04:06
KHSB 020406Z AUTO 00000KT 10SM CLR 13/12 A3015 RMK AO2

2006/10/02 04:05
KM30 020405Z AUTO 00000KT 10SM CLR 13/13 A3015 RMK AO2

2006/10/02 04:05
KMKN 020405Z AUTO 17008KT 10SM 26/16 A3008 RMK AO2

2006/10/02 04:05
KMQB 020405Z AUTO 18009G14KT 10SM CLR 23/11 A3001 RMK AO2

2006/10/02 04:05
KMWA 020405Z AUTO 16006KT 10SM CLR 17/13 A3015 RMK AO2

2006/10/02 04:07
KPEQ 020407Z AUTO 14009G14KT 10SM CLR 26/16 A3003 RMK AO2

2006/10/02 04:05
KRBO 020405Z AUTO 12007KT 10SM CLR 25/23 A3007 RMK AO2

2006/10/02 04:03
KSLR 020403Z AUTO 17005KT 10SM CLR 26/18 A3009 RMK AO2

2006/10/02 04:05
KSNK 020405Z AUTO 20008KT 10SM CLR 22/17 A3007 RMK AO2

2006/10/02 04:05
KT65 020405Z AUTO 13006KT 10SM CLR 27/24 A3008 RMK AO2

2006/10/02 04:07
KT82 020407Z AUTO 15004KT 10SM CLR 24/18 A3013 RMK AO1

2006/10/02 03:46
KBJC 020346Z 26008KT 25SM SCT120 BKN200 20/M04 A3009

2006/10/02 03:50
LTBS 020350Z 06005KT 360V080 CAVOK 19/12 Q1011 NOSIG RMK RWY19 34010KT

2006/10/02 04:00
VIDP 020400Z 22002KT 2500 HZ SCT200 30/19 Q1009 NOSIG

2006/10/02 04:00
SABE 020400Z 11009KT CAVOK 18/15 Q1013

2006/10/02 04:00
SAME 020400Z 18006KT 9999 SKC 20/07 Q1014

2006/10/02 04:00
SARE 020400Z 05006KT 9999 SKC 23/20 Q1011

2006/10/02 04:00
SARI 020400Z 09002KT CAVOK 16/16 Q1015

2006/10/02 04:00
SAWG 020400Z 23005KT 9999 SCT035 04/02 Q1017

2006/10/02 04:05
KIGQ 020405Z AUTO 20011KT 10SM RA SCT036 BKN085 OVC110 17/13 A3005 RMK AO2 LTG DSNT N

2006/10/02 04:05
KIJX 020405Z AUTO 19008KT 10SM CLR 21/12 A3005 RMK AO2

2006/10/02 04:05
KIKK 020405Z AUTO 00000KT 10SM 19/12 A3010 RMK AO2 LTG DSNT N

2006/10/02 04:05
KJOT 020405Z AUTO 00000KT 10SM -RA SCT019 SCT046 BKN060 16/13 A3002 RMK AO2 P0000 LTG DSNT N

2006/10/02 04:05
KJXI 020405Z AUTO 00000KT 10SM CLR 25/19 A3010 RMK AO2

2006/10/02 04:05
KLBR 020405Z AUTO 00000KT 10SM CLR 22/15 A3007 RMK AO1

2006/10/02 04:05
KLUD 020405Z AUTO 16012KT 10SM CLR 27/16 A3004 RMK AO2

2006/10/02 04:05
KORG 020405Z AUTO 00000KT 3SM BR CLR 21/21 A3012 RMK AO2

2006/10/02 04:04
KOSA 020404Z AUTO 13004KT 10SM CLR 23/19 A3009 RMK AO1

2006/10/02 04:05
KPCM 020405Z AUTO 01003KT 10SM CLR 20/18 A3013 RMK AO2

2006/10/02 04:06
KPPA 020406Z AUTO 19016G22KT 10SM 22/16 A3002 RMK AO2

2006/10/02 04:05
KPVW 020405Z AUTO 18010KT 10SM CLR 21/15 A3006 RMK AO2

2006/10/02 04:05
KRAS 020405Z AUTO 14010KT 10SM CLR 28/26 A3011 RMK AO2

2006/10/02 04:05
KRWV 020405Z AUTO 14006KT 10SM CLR 25/21 A3012 RMK AO2

2006/10/02 04:08
KHQZ 020408Z AUTO 15008KT 10SM CLR 26/18 A3006 RMK AO2

2006/10/02 04:06
KHSB 020406Z AUTO 00000KT 10SM CLR 13/12 A3015 RMK AO2

2006/10/02 04:05
KM30 020405Z AUTO 00000KT 10SM CLR 13/13 A3015 RMK AO2

2006/10/02 04:05
KMQB 020405Z AUTO 18009G14KT 10SM CLR 23/11 A3001 RMK AO2

2006/10/02 04:05
KMWA 020405Z AUTO 16006KT 10SM CLR 17/13 A3015 RMK AO2

2006/10/02 04:07
KPEQ 020407Z AUTO 14009G14KT 10SM CLR 26/16 A3003 RMK AO2

2006/10/02 04:05
KRBO 020405Z AUTO 12007KT 10SM CLR 25/23 A3007 RMK AO2

2006/10/02 04:03
KSLR 020403Z AUTO 17005KT 10SM CLR 26/18 A3009 RMK AO2

2006/10/02 04:05
KSNK 020405Z AUTO 20008KT 10SM CLR 22/17 A3007 RMK AO2

2006/10/02 04:05
KT65 020405Z AUTO 13006KT 10SM CLR 27/24 A3008 RMK AO2

2006/10/02 04:07
KT82 020407Z AUTO 15004KT 10SM CLR 24/18 A3013 RMK AO1

2006/10/02 04:00
LCLK 020400Z 32004KT 280V340 9999 FEW020 FEW030TCU 22/17 Q1010 NOSIG

2006/10/02 04:00
LCPH 020400Z 03006KT CAVOK 21/17 Q1010

2006/10/02 04:08
KPQL 020408Z AUTO 00000KT 1/2SM FG VV001 21/19 A3012 RMK AO2

2006/10/02 04:07
PACM 020407Z AUTO 13004KT 1 1/4SM RA BR FEW008 SCT013 BKN017 08/07 A2951 RMK AO2 TSNO BKN V SCT RAB04 P0000

2006/10/02 04:08
PASO 020408Z AUTO 00000KT 6SM -RA BR FEW002 BKN029 OVC050 09/08 A2966 RMK AO2 P0000 TSNO

2006/10/02 04:08
KARB 020408Z AUTO 00000KT 1SM BR CLR 05/04 A3012 RMK AO2

2006/10/02 04:08
KFWN 020408Z AUTO 00000KT 1 1/4SM BR SCT001 08/07 A3008 RMK AO2

2006/10/02 04:08
KYIP 020408Z 00000KT 2 1/2SM BR CLR 08/07 A3013 RMK AO2

2006/10/02 04:07
PACM 020407Z AUTO 13004KT 1 1/4SM RA BR FEW008 SCT013 BKN017 08/07 A2951 RMK AO2 TSNO BKN V SCT RAB04 P0000

2006/10/02 04:09
KPOU 020409Z AUTO 11003KT 3SM BR SCT080 OVC095 09/09 A3004 RMK AO2

2006/10/02 04:09
PATQ 020409Z AUTO 28006KT 4SM BR OVC006 M01/M02 A2968 RMK AO2 TSNO $

2006/10/02 04:00
UARR 020400Z 24004MPS 2000 BR OVC004 12/12 Q1004 22////70 TEMPO 0800 FG VV002 RMK QFE750/1000 QBB120

2006/10/02 04:00
UATT 020400Z 10004MPS CAVOK 11/M06 Q1009 NOSIG RMK QFE737/0983 13SLRD70

2006/10/02 04:00
UTNU 020400Z 12003MPS CAVOK 17/01 Q1014 NOSIG RMK QFE752 31CLRD60

2006/10/02 04:00
RPLL 020400 29008KT 260/330 9999 FEW025 SCT100 BKN300 31/26 Q1006 A2971 NOSIG

2006/10/02 04:00
UACP 020400Z 15003MPS 9999 FEW033CB SCT050 BKN100 07/05 Q1010 230/0060 NOSIG RMK QFE745/0994

2006/10/02 04:00
UAII 020400Z 17003MPS CAVOK 17/08 Q1017 NOSIG RMK QFE725/0967 280///65

2006/10/02 04:00
UARR 020400Z 24004MPS 2000 BR OVC004 12/12 Q1004 22////70 TEMPO 0800 FG VV002 RMK QFE750/1000 QBB120

2006/10/02 04:00
UATT 020400Z 10004MPS CAVOK 11/M06 Q1009 NOSIG RMK QFE737/0983 13SLRD70

2006/10/02 03:50
ORMM 020350Z 15003KT 9000 HZ SKC 24/08 Q1010 BLU NOSIG

2006/10/02 04:03
KGLE 020403Z AUTO 15007KT 10SM CLR 26/18 A3006

2006/10/02 04:08
K11R 020408Z AUTO 16004KT 10SM CLR 25/23 A3010

2006/10/02 04:05
KBPG 020405Z AUTO 17009KT 10SM CLR 22/14 A3009

2006/10/02 04:05
KBYY 020405Z AUTO 12003KT 10SM CLR 21/20 A3010

2006/10/02 04:05
K1H2 020405Z AUTO 18006KT 10SM CLR 19/12 A3010

2006/10/02 04:05
KAAA 020405Z AUTO 18008KT 10SM CLR 20/13 A3006

2006/10/02 04:05
KC09 020405Z AUTO 16007KT 10SM SCT100 BKN120 18/12 A3003

2006/10/02 04:03
KC75 020403Z AUTO 20009KT 10SM CLR 21/11 A3000

2006/10/02 04:05
KDKB 020405Z AUTO 18014KT 10SM CLR 17/12 A2999

2006/10/02 04:03
KDNV 020403Z AUTO 22007KT 10SM CLR 19/13 A3007

2006/10/02 04:05
KENL 020405Z AUTO 17005KT 10SM CLR 18/12 A3012

2006/10/02 04:07
KFEP 020407Z AUTO 17009KT 10SM 21/12 A2996

2006/10/02 04:05
KFOA 020405Z AUTO 18003KT 10SM CLR 16/12 A3013

2006/10/02 04:05
KGBG 020405Z AUTO 18009G14KT 10SM CLR 21/11 A2998

2006/10/02 04:03
KGBG 020403Z AUTO 18008G14KT 10SM CLR 21/11 A2998

2006/10/02 04:05
KIGQ 020405Z AUTO 20011KT 10SM RA SCT036 BKN085 OVC110 17/13 A3005

2006/10/02 04:05
KIJX 020405Z AUTO 19008KT 10SM CLR 21/12 A3005

2006/10/02 04:05
KIKK 020405Z AUTO 00000KT 10SM 19/12 A3010

2006/10/02 04:05
KJOT 020405Z AUTO 00000KT 10SM -RA SCT019 SCT046 BKN060 16/13 A3002

2006/10/02 04:05
KLOT 020405Z AUTO 21009KT 10SM SCT029 SCT041 SCT050 18/13 A2999

2006/10/02 04:05
KOLY 020405Z AUTO 00000KT 10SM CLR 18/15 A3012

2006/10/02 04:05
KPNT 020405Z AUTO 19009G14KT 10SM CLR 21/11 A3004

2006/10/02 04:03
KPPQ 020403Z AUTO 17009KT 10SM CLR 22/12 A3005

2006/10/02 04:05
KSAR 020405Z AUTO 14006KT 10SM CLR 19/13 A3011

2006/10/02 04:04
KSLO 020404Z AUTO 16003KT 10SM CLR 18/12 A3013

2006/10/02 04:05
KTAZ 020405Z AUTO 18009KT 10SM CLR 19/13 A3007

2006/10/02 04:05
KTIP 020405Z AUTO 21008KT 10SM CLR 22/11 A3008

2006/10/02 04:05
KVYS 020405Z AUTO 17009KT 10SM CLR 20/11 A3000

2006/10/02 04:00
URKA 020400Z 06002MPS 9999 FEW026 11/10 Q1019 TEMPO 1200 BR RMK SC 07

2006/10/02 04:00
URKM 020400Z 18002MPS 9999 SCT033 BKN106 11/09 Q1019 NOSIG RMK QFE746 8.5 WLAVNYJ

2006/10/02 04:00
URMM 020400Z 27004MPS 9999 BKN036 14/11 Q1018 NOSIG RMK G/O SC070

2006/10/02 04:00
URMN 020400Z 00000MPS 9999 OVC032CB 13/12 Q1018 NOSIG RMK G/O QFE726 SC055

2006/10/02 04:00
URSS 020400Z 08002MPS 9999 FEW300 13/12 Q1017 NOSIG RMK G/O QFE762 88CLRD70

2006/10/02 04:00
URWA 020400Z 26006MPS CAVOK 14/11 Q1012 NOSIG RMK SUH SC07

2006/10/02 04:04
KLNC 020404Z AUTO 17006KT 10SM CLR 26/19 A3006

2006/10/02 04:00
DAOL 020400Z 00000KT CAVOK 16/14 Q1016

2006/10/02 04:00
LKHO 020400Z VRB04KT 5000 BR NSC 14/13 Q1015

2006/10/02 04:00
LKKU 020400Z VRB01KT 3700 BR SCT036 OVC083 12/12 Q1015

2006/10/02 04:03
LKLB 020403Z 13006KT 070V180 9999 -RA SCT009 BKN014 14/14 Q1012

2006/10/02 04:00
UACK 020400Z 24006MPS CAVOK 14/M03 Q1013 20010070 NOSIG RMK QFE736

2006/10/02 04:00
URML 020400Z 31003MPS 9999 BKN100 18/13 Q1015 NOSIG RMK QFE761 G/0 SC07

2006/10/02 04:07
KSEP 020407Z AUTO 16005KT 10SM CLR 25/16 A3007

2006/10/02 04:09
PATQ 020409Z AUTO 28006KT 4SM BR OVC006 M01/M02 A2968 RMK AO2 TSNO $

2006/10/02 04:09
PATQ 020409Z AUTO 28006KT 4SM BR OVC006 M01/M02 A2968

2006/10/02 04:11
K04V 020411Z AUTO 36011KT 10SM CLR 12/M06 A3029 RMK AO2

2006/10/02 04:11
K20V 020411Z AUTO 00000KT 10SM CLR 08/M05 A3025 RMK AO2

2006/10/02 04:10
KLCG 020410Z AUTO 00000KT 10SM CLR 15/12 A2978 RMK AO2

2006/10/02 04:10
KOGA 020410Z AUTO 00000KT 10SM CLR 14/07 A2989 RMK AO2

2006/10/02 04:07
KTRK 020407Z AUTO 00000KT 10SM SCT040 BKN049 OVC060 10/05 A3010 RMK AO1

2006/10/02 04:00
FBFT 020400Z 02005KT CAVOK 18/06 Q1012

2006/10/02 04:00
FBGZ 020400Z 00000KT CAVOK 17/13 Q1013

2006/10/02 04:00
FBJW 020400Z 18004KT CAVOK 13/03 Q1018

2006/10/02 04:00
FBKE 020400Z 36007KT 9999 SCT025 SCT065 24/15 Q1014

2006/10/02 04:00
FBMN 020400Z 00000KT CAVOK 21/12 Q1012

2006/10/02 04:00
FBMP 020400Z 32003KT CAVOK 18/09

2006/10/02 04:00
FBSP 020400Z 00000KT CAVOK 17/07 Q1011

2006/10/02 04:00
FBSW 020400Z 00000KT CAVOK 17/12

2006/10/02 04:00
FBTE 020400Z 24004KT CAVOK 12/02

2006/10/02 04:00
FBTS 020400Z /////KT CAVOK 11/03 Q1015

2006/10/02 04:00
SANT 020400Z 36008KT 8000 FU BKN040 26/16 Q1009

2006/10/02 04:09
EGVA 020409Z AUTO 23011KT 9999 -RA BKN013 12/10 A2956 RMK AO2 SLP011 $

2006/10/02 04:00
SACO 020400Z 29003KT CAVOK 20/16 Q1013

2006/10/02 04:00
SARF 020400Z 09008KT CAVOK 22/19 Q1012

2006/10/02 04:00
LGKF 020400Z 00000KT 9999 FEW020 17/16 Q1017

2006/10/02 04:00
UAFM 020400Z 11004MPS CAVOK 21/04 Q1018 NOSIG

2006/10/02 04:00
UTNN 020400Z 14005MPS CAVOK 18/00 Q1013 NOSIG 33CLRD70

2006/10/02 04:00
UTSS 020400Z 00000MPS 9999 SKC 19/02 Q1018 NOSIG RMK QFE941 88CLRD70

2006/10/02 04:00
UTST 020400Z 12002MPS CAVOK 21/07 Q1016 NOSIG RMK QFE 735

2006/10/02 04:00
OEMK 020400Z 00000KT CAVOK 27/16 Q1009

2006/10/02 04:00
OERR 020400Z 29006KT CAVOK 23/03 Q1011

2006/10/02 04:00
OESH 020400Z 00000KT CAVOK 25/05 Q1015 NOSIG

2006/10/02 04:00
OESK 020400Z 24013KT CAVOK 21/13 Q1011

2006/10/02 04:00
HUEN 020400Z 35006KT 9999 FEW020 FEW022CB BKN120 18/17 Q1018

2006/10/02 04:00
FIMP 020400Z 09008KT 9999 SCT018 BKN050 23/18 Q1021

2006/10/02 04:00
WBKK 020400Z 12009KT 5000 FEW014 SCT140 BKN260 29/21 Q1008 NOSI G

2006/10/02 03:55
LIVD 020355Z 00000KT 6000 OVC020 12/12 Q1020 RMK OVC VIS MIN 6000

2006/10/02 04:00
OEAB 020400Z 17003KT CAVOK 16/M05 Q1026 NOSIG

2006/10/02 04:00
OEAH 020400Z 00000KT CAVOK 25/22 Q1011

2006/10/02 04:00
OEBA 020400Z 00000KT CAVOK 22/02 Q1022

2006/10/02 04:00
OEGN 020400Z 00000KT 8000 SKC 27/24 Q1010 NOSIG

2006/10/02 04:00
WMKP 020400Z 15003KT 9999 FEW017CB SCT140 BKN270 30/24 Q1011 NO SIG

2006/10/02 04:09
K4BM 020409Z AUTO 22005KT 10SM CLR 08/M08 A3048 RMK AO1

2006/10/02 04:10
KAFK 020410Z AUTO 20013G17KT 10SM CLR 25/13 A2985 RMK AO2

2006/10/02 04:11
KAQR 020411Z AUTO 17006KT 10SM CLR 26/17 A3004 RMK AO2

2006/10/02 04:10
KATS 020410Z AUTO 24008KT 10SM CLR 22/01 A3006 RMK AO2

2006/10/02 04:10
KAUH 020410Z AUTO 20007KT 10SM CLR 22/12 A2980 RMK AO2

2006/10/02 04:13
KAVK 020413Z AUTO 19015G20KT 10SM CLR 26/14 A2992 RMK AO2

2006/10/02 04:12
KDUA 020412Z AUTO 17007KT 10SM CLR 26/17 A3005 RMK AO2

2006/10/02 04:00
LIPO 020400Z 14002KT 5000 BR FEW020 SCT040 BKN070 17/17 Q1017

2006/10/02 04:00
BIKF 020400Z 00000KT 9999 FEW019 OVC023 04/03 Q1011

2006/10/02 04:11
K04V 020411Z AUTO 36011KT 10SM CLR 12/M06 A3029 RMK AO2

2006/10/02 04:11
K20V 020411Z AUTO 00000KT 10SM CLR 08/M05 A3025 RMK AO2

2006/10/02 04:10
KLCG 020410Z AUTO 00000KT 10SM CLR 15/12 A2978 RMK AO2

2006/10/02 04:10
KOGA 020410Z AUTO 00000KT 10SM CLR 14/07 A2989 RMK AO2

2006/10/02 04:07
KTRK 020407Z AUTO 00000KT 10SM SCT040 BKN049 OVC060 10/05 A3010 RMK AO1

2006/10/02 04:10
KAFK 020410Z AUTO 20013G17KT 10SM CLR 25/13 A2985 RMK AO2

2006/10/02 04:11
KAQR 020411Z AUTO 17006KT 10SM CLR 26/17 A3004 RMK AO2

2006/10/02 04:10
KATS 020410Z AUTO 24008KT 10SM CLR 22/01 A3006 RMK AO2

2006/10/02 04:10
KAUH 020410Z AUTO 20007KT 10SM CLR 22/12 A2980 RMK AO2

2006/10/02 04:13
KAVK 020413Z AUTO 19015G20KT 10SM CLR 26/14 A2992 RMK AO2

2006/10/02 04:12
KDUA 020412Z AUTO 17007KT 10SM CLR 26/17 A3005 RMK AO2

2006/10/02 04:00
OETB 020400Z 30006KT CAVOK 21/12 Q1013 NOSIG

2006/10/02 04:00
OETF 020400Z 00000KT CAVOK 18/06 Q1020 NOSIG

2006/10/02 04:00
OEWJ 020400Z 02004KT 0400 FGVV/// 23/23 Q1009

2006/10/02 04:00
OEYN 020400Z 00000KT 7000 SKC 25/25 Q1007 TEMPO 5000

2006/10/02 04:00
OEGS 020400Z 00000KT CAVOK 22/06 Q1013

2006/10/02 04:00
OEGT 020400Z 27006KT CAVOK 18/16 Q1013

2006/10/02 04:00
OEKM 020400Z 00000KT CAVOK 16/04 Q1025 NOSIG

2006/10/02 04:00
LGKP 020400Z 32019KT 9999 FEW020 22/18 Q1010

2006/10/02 04:00
LGMK 020400Z 33009KT CAVOK 19/14 Q1015

2006/10/02 04:00
UTSS 020400Z 00000MPS 9999 SKC 19/02 Q1018 NOSIG RMK QFE941 88CLRD70

2006/10/02 04:00
SKBQ 020400Z 03005KT CAVOK 28/25 A2979

2006/10/02 04:00
SVMC 020400Z 27009KT 9999 OVC010 24/23 Q////

2006/10/02 04:09
PATQ 020409Z AUTO 28006KT 4SM BR OVC006 M01/M02 A2968 RMK AO2 TSNO $

2006/10/02 04:09
K4BM 020409Z AUTO 22005KT 10SM CLR 08/M08 A3048 RMK AO1

2006/10/02 04:08
KEHA 020408Z AUTO 24004KT 17/00 RMK AO1 PK WND 05 000 T01670001

2006/10/02 04:00
RJAA 020400Z 35010KT 9999 FEW008 BKN009 20/17 Q1011 NOSIG RMK 1ST008 7ST009 A2987

2006/10/02 04:00
RJCC 020400Z 17014KT 9999 FEW035 SCT050 BKN/// 20/12 Q1016 RMK 2CU035 3SC050 A3002

2006/10/02 04:00
RJFK 020400Z VRB02KT 9999 SCT025 26/18 Q1011 RMK 3CU025 A2986

2006/10/02 04:00
CYZP 020400Z AUTO 15003KT 9SM CLR 09/05 A3013 RMK SLP202

2006/10/02 04:00
FBGH 020400Z 22004KT CAVOK 13/01 Q1016

2006/10/02 04:00
FBLT 020400Z VRB02KT 9999 BKN020 19/09 Q1012

2006/10/02 04:00
FBPA 020400Z 36010KT 9999 SCT025 BKN070 23/14

2006/10/02 04:00
FBSN 020400Z 27009KT 9999 FEW030 SCT070 22/08

2006/10/02 04:00
FBWD 020400Z 27004KT CAVOK 12/02

2006/10/02 04:00
OEDM 020400Z 15005KT CAVOK 22/00 Q1016

2006/10/02 04:00
UTTP 020400Z 06001MPS CAVOK 19/10 Q1017 RMK QFE0962

2006/10/02 04:00
WMAU 020400Z 22005G16KT 9999 SCT020 BKN270 32/24 Q//// QFF1010

2006/10/02 04:00
WMBA 020400Z 13002KT 9999 FEW022 BKN280 31/24 Q1011

2006/10/02 04:00
WMKA 020400Z 24008KT 200V260 9999 -RA FEW007 SCT028 BKN260 28/2 5 Q1011

2006/10/02 04:00
WMKB 020400Z 33005KT 9999 FEW020 SCT140 BKN270 28/24 Q1011 NOSI G

2006/10/02 04:00
WMKC 020400Z 21008KT 9999 FEW018 BKN240 32/26 Q1010

2006/10/02 04:00
WMKD 020400Z 22007KT 9999 FEW020 BKN280 32/23 Q1010 NOSIG

2006/10/02 04:00
WMKI 020400Z 17003KT 9999 FEW020 BKN300 32/23 Q1011

2006/10/02 04:00
WMKL 020400Z 28007KT 9999 -RA FEW010 SCT020 BKN280 28/24 Q1010

2006/10/02 04:00
WMKM 020400Z 23005KT 170V320 9999 SCT020 SCT140 BKN280 31/25 Q1 010

2006/10/02 04:00
WMKN 020400Z 07006KT 9999 FEW018 BKN250 31/25 Q1009

2006/10/02 04:10
K4O4 020410Z AUTO 17003KT 10SM CLR 23/17 A3009 RMK AO2

2006/10/02 04:10
KAEG 020410Z AUTO 25010KT 10SM CLR 13/M03 A3017 RMK A01 P000

2006/10/02 04:12
KANW 020412Z AUTO 00000KT 10SM CLR 17/09 A2983 RMK AO2

2006/10/02 04:10
KAUN 020410Z AUTO 00000KT 10SM SCT026 BKN120 12/10 A3003 RMK A01 P000

2006/10/02 04:10
KAXS 020410Z AUTO 16008KT 10SM CLR 23/15 A3000 RMK AO2

2006/10/02 04:10
KBIE 020410Z AUTO 18016G21KT 10SM CLR 26/12 A2984 RMK AO2

2006/10/02 04:10
KBVN 020410Z AUTO 00000KT 10SM CLR 15/12 A2979 RMK AO2

2006/10/02 04:10
KBVS 020410Z AUTO 00000KT 10SM CLR 07/ A3002 RMK A01 P000

2006/10/02 04:11
KCHK 020411Z AUTO 16007KT 10SM SCT080 25/16 A2999 RMK AO2

2006/10/02 04:10
KCLK 020410Z AUTO 18009KT 10SM CLR 21/16 A2998 RMK AO2

2006/10/02 04:11
KCQB 020411Z AUTO 18010KT 10SM SCT110 26/17 A3000 RMK AO2

2006/10/02 04:10
KCUH 020410Z AUTO 19006KT 10SM CLR 23/18 A2999 RMK AO2

2006/10/02 04:10
KFET 020410Z AUTO 18012G17KT 10SM CLR 26/13 A2979 RMK AO2 TSNO

2006/10/02 04:10
KHDE 020410Z AUTO 00000KT 10SM CLR 16/06 A2982 RMK AO2

2006/10/02 04:10
KIBM 020410Z AUTO 14006KT 10SM CLR 17/M03 A3000 RMK AO2

2006/10/02 04:10
KJYR 020410Z AUTO 19010G15KT 10SM CLR 23/12 A2980 RMK AO2 PWINO TSNO

2006/10/02 04:10
KLAM 020410Z AUTO 22006KT 10SM CLR 20/M05 A3028 RMK AO2

2006/10/02 04:10
KNQA 020410Z AUTO 00000KT 10SM CLR 18/11 A3014 RMK

2006/10/02 04:10
KRQO 020410Z AUTO 16011KT 10SM CLR 24/17 A2999 RMK AO2

2006/10/02 04:11
KWDG 020411Z AUTO 18013KT 10SM CLR 26/16 A2995 RMK AO2

2006/10/02 04:06
KHSB 020406Z AUTO 00000KT 10SM CLR 13/12 A3015

2006/10/02 04:05
KMQB 020405Z AUTO 18009G14KT 10SM CLR 23/11 A3001

2006/10/02 04:05
KMWA 020405Z AUTO 16006KT 10SM CLR 17/13 A3015

2006/10/02 04:11
KDXR 020411Z AUTO 00000KT 1/4SM FG FEW001 09/09 A3005 RMK AO2 P0001

2006/10/02 04:11
KLBT 020411Z AUTO 00000KT 1 3/4SM BR CLR 15/14 A3016 RMK AO2 TSNO

2006/10/02 04:11
KMPV 020411Z AUTO 00000KT 9SM OVC016 09/08 A3006 RMK AO2

2006/10/02 04:07
KTRK 020407Z AUTO 00000KT 10SM SCT040 BKN049 OVC060 10/05 A3010

2006/10/02 04:08
KEHA 020408Z AUTO 24004KT 17/00

2006/10/02 03:55
PABA 020355Z AUTO 14008KT 10SM SCT055 OVC070 00/M01 A2973 RMK AO1 T00001005

2006/10/02 04:06
K1F0 020406Z AUTO 17007KT 10SM CLR 28/19 A3003 RMK AO2

2006/10/02 04:15
KGCM 020415Z AUTO 17007KT 10SM CLR 24/17 A3004 RMK AO2

2006/10/02 04:13
KGMJ 020413Z AUTO 16008KT 10SM CLR 24/18 A3005 RMK AO2

2006/10/02 04:12
KHJH 020412Z AUTO 18011G15KT 10SM CLR 26/13 A2983 RMK AO2

2006/10/02 04:13
KJWG 020413Z AUTO 21010KT 10SM CLR 26/17 A3000 RMK AO2

2006/10/02 04:11
KLRU 020411Z AUTO 24004KT 10SM SCT110 19/06 A3014 RMK AO2

2006/10/02 04:10
KLXN 020410Z AUTO 27003KT 10SM CLR 13/09 A2983 RMK AO2 TSNO

2006/10/02 04:10
KMLE 020410Z AUTO 18006KT 10SM CLR 27/13 A2981 RMK AO2

2006/10/02 04:09
KMNH 020409Z AUTO 23007KT 10SM CLR 16/M07 A3018 RMK AO2

2006/10/02 04:10
KORS 020410Z AUTO 00000KT 10SM CLR 08/08 A3000 RMK AO2

2006/10/02 04:10
KPNA 020410Z AUTO 30005KT 10SM CLR 08/M01 A3013 RMK AO2

2006/10/02 04:10
KPTT 020410Z AUTO 18014KT 10SM CLR 26/12 A2992 RMK AO2

2006/10/02 04:10
KSOW 020410Z AUTO 17008KT 10SM CLR 14/M01 A3027 RMK AO2

2006/10/02 04:10
KSRR 020410Z AUTO 21008KT 10SM 16/00 A3028 RMK AO2 TSNO

2006/10/02 04:06
KSZT 020406Z AUTO 00000KT 10SM CLR 08/M02 A2991 RMK AO1

2006/10/02 04:12
KTIF 020412Z AUTO 26004KT 10SM SCT110 15/04 A2986 RMK AO2

2006/10/02 04:15
KCIU 020415Z AUTO 00000KT 10SM OVC110 08/06 A3009 RMK AO1

2006/10/02 04:15
KCOD 020415Z 00000KT 10SM CLR 14/M03 A2995 RMK AO1

2006/10/02 04:15
KEGE 020415Z AUTO 10007KT 10SM CLR 12/M02 A3019 RMK AO1

2006/10/02 04:15
KEHR 020415Z AUTO 18004KT 10SM CLR 13/11 A3016 RMK AO1

2006/10/02 04:15
KESC 020415Z AUTO 16006KT 10SM BKN090 14/11 A2998 RMK AO1

2006/10/02 04:15
KFNL 020415Z AUTO 32005KT 10SM CLR 20/M06 A3004 RMK AO1

2006/10/02 04:15
KGDV 020415Z AUTO 35007KT 10SM CLR 12/00 A2986 RMK AO1

2006/10/02 04:15
KGUC 020415Z 00000KT 10SM CLR 08/M05 A3033 RMK AO1

2006/10/02 04:15
KGXY 020415Z AUTO 20003KT 10SM CLR 16/M04 A3004 RMK AO1

2006/10/02 04:15
KHDN 020415Z 06006KT 10SM CLR 12/M04 A3018 RMK AO1

2006/10/02 04:15
KHNB 020415Z AUTO 00000KT 10SM CLR 16/13 A3016 RMK AO1

2006/10/02 04:15
KIWD 020415Z AUTO 17013G24KT 10SM CLR 16/07 A2979 RMK AO1

2006/10/02 04:15
KJAC 020415Z AUTO 13005KT 10SM CLR 07/M04 A3009 RMK AO1

2006/10/02 04:15
KMBL 020415Z AUTO 11006KT 10SM BKN110 11/07 A3003 RMK AO1 LTG DSNT NW

2006/10/02 04:15
KMNM 020415Z AUTO 18007G14KT 10SM OVC090 15/11 A2997 RMK AO1

2006/10/02 04:15
KMTW 020415Z AUTO 16009KT 10SM OVC090 14/12 A3001 RMK AO1 LTG DSNT NE TSE00

2006/10/02 04:15
KMVN 020415Z 00000KT 10SM CLR 13/11 A3015 RMK AO1

2006/10/02 04:10
KONP 020410Z AUTO 36003KT 5SM BR CLR 10/08 A3004 RMK AO2

2006/10/02 04:15
KOUN 020415Z AUTO 18009KT 10SM SCT100 26/16 A3001 RMK AO2 TSNO

2006/10/02 04:15
KSDY 020415Z AUTO 34005KT 10SM CLR 11/02 A2985 RMK AO1

2006/10/02 04:15
KSQI 020415Z 14003KT 10SM CLR 20/09 A2998 RMK AO1

2006/10/02 04:15
KSUE 020415Z AUTO 14010KT 10SM OVC090 14/11 A2995 RMK AO1 LTG DSNT S

2006/10/02 04:10
KTEX 020410Z AUTO 17003KT 10SM SCT100 SCT120 12/M06 A3041 RMK AO2

2006/10/02 04:00
OIBK 020400Z 00000KT 5000 HZ SKC 30/24 Q1010 A2983

2006/10/02 04:00
OIGG 020400Z 0000KT 0600 FG NSC 19/19 Q1014 A2994

2006/10/02 03:55
OIII 020355Z 00000KT CAVOK 23/06 Q1019 A3011 884/1

2006/10/02 03:50
OIAA 020350Z 00000KT 3000 BZ SKC 23/20 Q1010

2006/10/02 03:50
OICC 020350Z 00000KT NSC FEW1X0 14/M02 Q1021 A3015 871.7

2006/10/02 03:50
OITR 020350Z 15004KT 9999 BKN035CB FEW040 SCT190 14/07 Q1019 A3009

2006/10/02 04:12
PAMK 020412Z AUTO 09009KT 10SM SCT027 OVC036 06/04 A2957 RMK AO2 TSNO RAE0359 P0000 $

2006/10/02 04:12
KFLD 020412Z AUTO 15006KT 10SM VCTS CLR 17/11 A2994 RMK AO2 LTG DSNT SE-W TSB06

2006/10/02 04:12
KFWN 020412Z AUTO 00000KT 2SM BR SCT001 08/07 A3008 RMK AO2 VIS 3/4V4

2006/10/02 04:00
VMMC 020400Z 02011KT 330V070 5000 HZ FEW016 SCT040 BKN080 27/22 Q1011 NOSIG

2006/10/02 04:00
SAZM 020400Z 00000KT 0700 FG NSC 10/10 Q1015

2006/10/02 04:00
YBAS 020400Z 09015KT CAVOK 33/02 Q1016

2006/10/02 04:00
YBBN 020400Z 02014KT 9999 FEW038 23/14 Q1017 NOSIG

2006/10/02 04:00
YBCS 020400Z 13017KT 9999 FEW035 26/14 Q1015

2006/10/02 04:00
YBTL 020400Z 05017KT 9999 FEW040 27/15 Q1016 NOSIG

2006/10/02 04:00
YMML 020400Z 18011KT 9999 FEW035 BKN240 16/05 Q1022 NOSIG

2006/10/02 04:00
YPAD 020400Z 23013KT CAVOK 17/10 Q1023 NOSIG

2006/10/02 04:00
YPCC 020400Z 09010KT 9999 FEW025 28/21 Q1015

2006/10/02 04:00
YPDN 020400Z 30012KT CAVOK 30/19 Q1011 NOSIG

2006/10/02 04:00
YPLM 020400Z 21013KT CAVOK 29/12 Q1013

2006/10/02 04:00
YPPH 020400Z 26010KT CAVOK 24/11 Q1011 NOSIG

2006/10/02 04:00
YPTN 020400Z 08007KT CAVOK 36/08 Q1010

2006/10/02 04:00
YPXM 020400Z AUTO 11015KT 9999NDV // BKN014 BKN019 26/20 Q1015

2006/10/02 04:10
K4O4 020410Z AUTO 17003KT 10SM CLR 23/17 A3009 RMK AO2

2006/10/02 04:10
KAEG 020410Z AUTO 25010KT 10SM CLR 13/M03 A3017 RMK A01 P000

2006/10/02 04:12
KANW 020412Z AUTO 00000KT 10SM CLR 17/09 A2983 RMK AO2

2006/10/02 04:10
KAUN 020410Z AUTO 00000KT 10SM SCT026 BKN120 12/10 A3003 RMK A01 P000

2006/10/02 04:10
KAXS 020410Z AUTO 16008KT 10SM CLR 23/15 A3000 RMK AO2

2006/10/02 04:10
KBIE 020410Z AUTO 18016G21KT 10SM CLR 26/12 A2984 RMK AO2

2006/10/02 04:10
KBVN 020410Z AUTO 00000KT 10SM CLR 15/12 A2979 RMK AO2

2006/10/02 04:10
KBVS 020410Z AUTO 00000KT 10SM CLR 07/ A3002 RMK A01 P000

2006/10/02 04:11
KCHK 020411Z AUTO 16007KT 10SM SCT080 25/16 A2999 RMK AO2

2006/10/02 04:10
KCLK 020410Z AUTO 18009KT 10SM CLR 21/16 A2998 RMK AO2

2006/10/02 04:11
KCQB 020411Z AUTO 18010KT 10SM SCT110 26/17 A3000 RMK AO2

2006/10/02 04:10
KCUH 020410Z AUTO 19006KT 10SM CLR 23/18 A2999 RMK AO2

2006/10/02 04:10
KFET 020410Z AUTO 18012G17KT 10SM CLR 26/13 A2979 RMK AO2 TSNO

2006/10/02 04:10
KHDE 020410Z AUTO 00000KT 10SM CLR 16/06 A2982 RMK AO2

2006/10/02 04:10
KIBM 020410Z AUTO 14006KT 10SM CLR 17/M03 A3000 RMK AO2

2006/10/02 04:10
KJYR 020410Z AUTO 19010G15KT 10SM CLR 23/12 A2980 RMK AO2 PWINO TSNO

2006/10/02 04:10
KLAM 020410Z AUTO 22006KT 10SM CLR 20/M05 A3028 RMK AO2

2006/10/02 04:10
KNQA 020410Z AUTO 00000KT 10SM CLR 18/11 A3014 RMK

2006/10/02 04:10
KRQO 020410Z AUTO 16011KT 10SM CLR 24/17 A2999 RMK AO2

2006/10/02 04:11
KWDG 020411Z AUTO 18013KT 10SM CLR 26/16 A2995 RMK AO2

2006/10/02 04:06
K1F0 020406Z AUTO 17007KT 10SM CLR 28/19 A3003 RMK AO2

2006/10/02 04:15
KGCM 020415Z AUTO 17007KT 10SM CLR 24/17 A3004 RMK AO2

2006/10/02 04:13
KGMJ 020413Z AUTO 16008KT 10SM CLR 24/18 A3005 RMK AO2

2006/10/02 04:12
KHJH 020412Z AUTO 18011G15KT 10SM CLR 26/13 A2983 RMK AO2

2006/10/02 04:13
KJWG 020413Z AUTO 21010KT 10SM CLR 26/17 A3000 RMK AO2

2006/10/02 04:11
KLRU 020411Z AUTO 24004KT 10SM SCT110 19/06 A3014 RMK AO2

2006/10/02 04:10
KLXN 020410Z AUTO 27003KT 10SM CLR 13/09 A2983 RMK AO2 TSNO

2006/10/02 04:10
KMLE 020410Z AUTO 18006KT 10SM CLR 27/13 A2981 RMK AO2

2006/10/02 04:09
KMNH 020409Z AUTO 23007KT 10SM CLR 16/M07 A3018 RMK AO2

2006/10/02 04:10
KORS 020410Z AUTO 00000KT 10SM CLR 08/08 A3000 RMK AO2

2006/10/02 04:10
KPNA 020410Z AUTO 30005KT 10SM CLR 08/M01 A3013 RMK AO2

2006/10/02 04:10
KPTT 020410Z AUTO 18014KT 10SM CLR 26/12 A2992 RMK AO2

2006/10/02 04:10
KSRR 020410Z AUTO 21008KT 10SM 16/00 A3028 RMK AO2 TSNO

2006/10/02 04:06
KSZT 020406Z AUTO 00000KT 10SM CLR 08/M02 A2991 RMK AO1

2006/10/02 04:12
KTIF 020412Z AUTO 26004KT 10SM SCT110 15/04 A2986 RMK AO2

2006/10/02 04:15
KCIU 020415Z AUTO 00000KT 10SM OVC110 08/06 A3009 RMK AO1

2006/10/02 04:15
KCOD 020415Z 00000KT 10SM CLR 14/M03 A2995 RMK AO1

2006/10/02 04:15
KEGE 020415Z AUTO 10007KT 10SM CLR 12/M02 A3019 RMK AO1

2006/10/02 04:15
KEHR 020415Z AUTO 18004KT 10SM CLR 13/11 A3016 RMK AO1

2006/10/02 04:15
KESC 020415Z AUTO 16006KT 10SM BKN090 14/11 A2998 RMK AO1

2006/10/02 04:15
KFNL 020415Z AUTO 32005KT 10SM CLR 20/M06 A3004 RMK AO1

2006/10/02 04:15
KGDV 020415Z AUTO 35007KT 10SM CLR 12/00 A2986 RMK AO1

2006/10/02 04:15
KGUC 020415Z 00000KT 10SM CLR 08/M05 A3033 RMK AO1

2006/10/02 04:15
KGXY 020415Z AUTO 20003KT 10SM CLR 16/M04 A3004 RMK AO1

2006/10/02 04:15
KHDN 020415Z 06006KT 10SM CLR 12/M04 A3018 RMK AO1

2006/10/02 04:15
KHNB 020415Z AUTO 00000KT 10SM CLR 16/13 A3016 RMK AO1

2006/10/02 04:15
KIWD 020415Z AUTO 17013G24KT 10SM CLR 16/07 A2979 RMK AO1

2006/10/02 04:15
KJAC 020415Z AUTO 13005KT 10SM CLR 07/M04 A3009 RMK AO1

2006/10/02 04:15
KMBL 020415Z AUTO 11006KT 10SM BKN110 11/07 A3003 RMK AO1 LTG DSNT NW

2006/10/02 04:15
KMNM 020415Z AUTO 18007G14KT 10SM OVC090 15/11 A2997 RMK AO1

2006/10/02 04:15
KMTW 020415Z AUTO 16009KT 10SM OVC090 14/12 A3001 RMK AO1 LTG DSNT NE TSE00

2006/10/02 04:15
KMVN 020415Z 00000KT 10SM CLR 13/11 A3015 RMK AO1

2006/10/02 04:10
KONP 020410Z AUTO 36003KT 5SM BR CLR 10/08 A3004 RMK AO2

2006/10/02 04:15
KOUN 020415Z AUTO 18009KT 10SM SCT100 26/16 A3001 RMK AO2 TSNO

2006/10/02 04:15
KSDY 020415Z AUTO 34005KT 10SM CLR 11/02 A2985 RMK AO1

2006/10/02 04:15
KSQI 020415Z 14003KT 10SM CLR 20/09 A2998 RMK AO1

2006/10/02 04:15
KSUE 020415Z AUTO 14010KT 10SM OVC090 14/11 A2995 RMK AO1 LTG DSNT S

2006/10/02 04:10
KTEX 020410Z AUTO 17003KT 10SM SCT100 SCT120 12/M06 A3041 RMK AO2

2006/10/02 04:00
SBRF 020400Z 13007KT 9999 SCT020 27/22 Q1015

2006/10/02 04:10
KSOW 020410Z AUTO 17008KT 10SM CLR 14/M01 A3027 RMK AO2

2006/10/02 03:56
KHLR 020356Z AUTO 16010KT 10SM CLR 26/19 A3008 RMK AO2 SLP178 T02610189 $

2006/10/02 04:00
RCKH 020400Z 25007KT 3500 HZ SCT012 BKN045 30/24 Q1008 NOSIG

2006/10/02 04:00
RCSS 020400Z 08009KT 040V110 7000 FEW020 BKN035 BKN060 28/21 Q1010 NOSIG

2006/10/02 04:00
RCTP 020400Z 05021KT 8000 FEW018 SCT050 BKN080 28/21 Q1010 NOSIG

2006/10/02 03:55
PABA 020355Z AUTO 14008KT 10SM SCT055 OVC070 00/M01 A2973 RMK AO1 T00001005

2006/10/02 03:51
MUCM 020351Z 06003KT 020V100 9000 SCT020 26/24 Q1016

2006/10/02 04:04
MUCU 020404Z 01007KT 8000 FEW020 SCT035 25/22 Q1016

2006/10/02 03:53
MUHA 020353Z 08004KT 7000 FEW018CB 24/22 Q1018

2006/10/02 03:52
MUVR 020352Z VRB02KT 9000 FEW020 25/22 Q1018

2006/10/02 04:11
KDXR 020411Z AUTO 00000KT 1/4SM FG FEW001 09/09 A3005 RMK AO2 P0001

2006/10/02 04:11
KLBT 020411Z AUTO 00000KT 1 3/4SM BR CLR 15/14 A3016 RMK AO2 TSNO

2006/10/02 04:11
KMPV 020411Z AUTO 00000KT 9SM OVC016 09/08 A3006 RMK AO2

2006/10/02 04:12
PAMK 020412Z AUTO 09009KT 10SM SCT027 OVC036 06/04 A2957 RMK AO2 TSNO RAE0359 P0000 $

2006/10/02 04:12
KFLD 020412Z AUTO 15006KT 10SM VCTS CLR 17/11 A2994 RMK AO2 LTG DSNT SE-W TSB06

2006/10/02 04:12
KFWN 020412Z AUTO 00000KT 2SM BR SCT001 08/07 A3008 RMK AO2 VIS 3/4V4

2006/10/02 04:00
UTDD 020400Z VRB01MPS 9999 SKC 20/08 Q1018 NOSIG RMK QFE696 99CLRD70

2006/10/02 03:50
LGSR 020350Z 36014KT CAVOK 21/16 Q1014 NOSIG

2006/10/02 04:00
UEEE 020400Z 14006G09MPS CAVOK 06/M03 Q1008 NOSIG RMK QFE747 2309//70

2006/10/02 04:00
UTAK 020400Z 32003MPS 5000BR BKN005 SCT100 19/19 Q1016 NOSIG

2006/10/02 04:00
UTDD 020400Z VRB01MPS 9999 SKC 20/08 Q1018 NOSIG RMK QFE696 99CLRD70

2006/10/02 04:00
UTDL 020400Z 34001MPS 9000 SKC 22/08 Q1016 NOSIG RMK QFE724 8809//70

2006/10/02 04:00
UELL 020400Z VRB01MPS 9999 FEW006 BKN200 01/M01 Q1008 NOSIG RMK MT PT OBSC QFE681 08710050

2006/10/02 04:00
UEST 020400Z 10007MPS CAVOK 01/M03 Q1004 NOSIG RMK QFE752 21000060

2006/10/02 04:00
LATI 020400Z 00000KT 3000 BR SKC 13/13 Q1019 NOSIG

2006/10/02 04:00
LEZL 020400Z 27001KT CAVOK 20/20 Q1014 NOSIG

2006/10/02 03:50
EGXT 020350Z 23016KT 9999 FEW025 BKN060 13/11 Q0998

2006/10/02 03:51
MUCM 020351Z 06003KT 020V100 9000 SCT020 26/24 Q1016

2006/10/02 04:04
MUCU 020404Z 01007KT 8000 FEW020 SCT035 25/22 Q1016

2006/10/02 03:53
MUHA 020353Z 08004KT 7000 FEW018CB 24/22 Q1018

2006/10/02 03:52
MUVR 020352Z VRB02KT 9000 FEW020 25/22 Q1018

2006/10/02 04:13
KRMG 020413Z AUTO 17003KT 1SM BR CLR 13/13 A3018

2006/10/02 03:50
LGPZ 020350Z 00000KT CAVOK 17/17 Q1018 NOSIG

2006/10/02 03:50
LGRX 020350Z 00000KT 8000 SKC 16/15 Q1017 NOSIG

2006/10/02 04:13
KRMG 020413Z AUTO 17003KT 1SM BR CLR 13/13 A3018 RMK AO2 VIS 1/2V2 1/2 TSNO

2006/10/02 04:00
OEHL 020400Z 18008KT CAVOK 20/M01 Q1016

2006/10/02 04:00
CMCW 020400Z AUTO 25002KT 11/11 RMK AO1 T01090107 50008

2006/10/02 04:00
CMHN 020400Z AUTO 00000KT 10/10 RMK AO1 6PAST HR M P0000 T01020102 50010

2006/10/02 04:00
CMHW 020400Z AUTO 23003KT 11/11 RMK AO1 T01110110 50006

2006/10/02 04:00
CMLA 020400Z AUTO 27003KT 11/11 RMK AO1 T01090108 50008

2006/10/02 04:00
CMPL 020400Z AUTO 25005KT 11/11 RMK AO1 SLP156 T01090106 50004

2006/10/02 04:00
CMSC 020400Z AUTO 05004KT 10/09 RMK AO1 T00980093 50016

2006/10/02 04:00
CWIK 020400Z AUTO 31004KT 09/07 RMK AO1 SLP109 T00920068 51025

2006/10/02 04:10
K4O4 020410Z AUTO 17003KT 10SM CLR 23/17 A3009 RMK AO2

2006/10/02 04:00
LQMO 020400Z VRB01KT CAVOK 13/10 Q1018

2006/10/02 03:51
MUHG 020351Z VRB02KT 9000 FEW020 SCT080 23/23 Q1016

2006/10/02 04:00
OIIE 020400Z 28008KT 5000 HZ 17/M01 Q1017 A3 06

2006/10/02 04:00
RPLI 020400Z 29004KT 9999 SCT019CB 31/26 Q1007 NOSIG

2006/10/02 04:00
UERP 020400Z 22005G08MPS 9999 BKN018CB BKN033 M00/M06 Q0982 NOSIG RMK QFE694 SC055

2006/10/02 04:00
UERR 020400Z 24009G14MPS 9999 SCT023CB BKN036 01/m07 Q0996 TEMPO 26011G16MPS RMK QFE716 SC06

2006/10/02 04:00
UESO 020400Z 35002MPS 9999 -SN BKN012 M01/M02 Q1006 NOSIG RMK QFE753 SC040

2006/10/02 04:00
YPKU 020400Z AUTO 03009KT 9999NDV // NCD 35/17 Q1010

2006/10/02 04:11
KMPV 020411Z AUTO 00000KT 9SM OVC016 09/08 A3006

2006/10/02 04:13
KDUC 020413Z AUTO 16009KT 10SM CLR 26/17 A3001 RMK AO2

2006/10/02 03:50
KEFD 020350Z 14003KT 10SM FEW150 SCT250 23/22 A3010

2006/10/02 04:09
KLHB 020409Z AUTO 14005KT 10SM CLR 25/21 A3009 RMK AO2

2006/10/02 04:13
KSNL 020413Z AUTO 17011KT 10SM CLR 26/16 A3002 RMK AO2

2006/10/02 04:12
KSRE 020412Z AUTO 15008KT 10SM 26/16 A3004 RMK AO2 TSNO

2006/10/02 04:13
KTQH 020413Z AUTO 16004KT 10SM CLR 24/18 A3005 RMK AO2

2006/10/02 04:14
KVTP 020414Z AUTO 26003KT 10SM CLR 11/M07 A3043 RMK AO2

2006/10/02 04:12
KWWR 020412Z AUTO 20016KT 10SM CLR 26/14 A2995 RMK AO2

2006/10/02 04:14
KADH 020414Z AUTO 17010G16KT 10SM CLR 28/16 A3003 RMK AO2

2006/10/02 04:14
KONL 020414Z AUTO 23003KT 10SM CLR 18/13 A2979 RMK AO2

2006/10/02 04:13
KPQL 020413Z AUTO 00000KT 1 1/2SM BR FEW001 21/19 A3012 RMK AO2

2006/10/02 04:13
KAQW 020413Z AUTO 00000KT 9SM BKN010 OVC021 12/11 A3003 RMK AO2 CIG 006V011

2006/10/02 04:13
KHYA 020413Z AUTO 30004KT 10SM SCT005 BKN009 BKN015 13/13 A2992 RMK AO2 CIG 008V013

2006/10/02 04:12
PACM 020412Z AUTO 13003KT 1SM -RA BR BKN011 BKN017 OVC025 08/07 A2951 RMK AO2 TSNO CIG 006V014 RAB04 P0000

2006/10/02 04:12
PACM 020412Z AUTO 13003KT 1SM -RA BR BKN011 BKN017 OVC025 08/07 A2951 RMK AO2 TSNO CIG 006V014 RAB04 P0000

2006/10/02 04:13
PAPB 020413Z AUTO 26010KT 7SM BKN006 OVC016 07/ A2946 RMK AO2 TSNO $

2006/10/02 04:14
KBTV 020414Z 00000KT 10SM SCT027 OVC050 11/09 A3001

2006/10/02 04:15
KRUT 020415Z AUTO 14004KT 10SM BKN020 OVC030 11/09 A3003 RMK AO1

2006/10/02 04:15
KSFM 020415Z 36007KT 10SM SCT008 BKN012 OVC029 09/07 A3004 RMK AO1

2006/10/02 04:15
KSFZ 020415Z AUTO 35008KT 10SM OVC003 11/09 A2998 RMK AO1

2006/10/02 04:15
KSGJ 020415Z AUTO 00000KT 10SM CLR 22/19 A3013 RMK AO1

2006/10/02 04:15
KSGT 020415Z AUTO 14006KT 10SM CLR A3008 RMK AO1

2006/10/02 04:15
KSGU 020415Z AUTO 08006KT 10SM CLR 26/01 A2994 RMK AO1

2006/10/02 04:15
KSKX 020415Z AUTO 14003KT 10SM CLR 10/M06 A3027 RMK AO1

2006/10/02 04:15
KSLG 020415Z AUTO 16006KT 10SM CLR 22/14 A3007 RMK AO1

2006/10/02 04:15
KSMN 020415Z AUTO 00000KT 10SM CLR 12/M01 A2990 RMK AO1

2006/10/02 04:14
KSVC 020414Z AUTO 35008KT 10SM CLR 15/04 A3019 RMK AO1

2006/10/02 04:15
KTVF 020415Z AUTO 01003KT 10SM CLR 13/10 A2970 RMK AO1

2006/10/02 04:15
KUDG 020415Z AUTO 00000KT 10SM CLR 15/14 A3018 RMK AO1

2006/10/02 04:15
KVBT 020415Z AUTO 16006KT 10SM CLR 21/18 A3008 RMK AO1

2006/10/02 04:15
KVIS 020415Z AUTO 29003KT 10SM FEW080 16/13 A2998 RMK AO1

2006/10/02 04:15
KWVL 020415Z AUTO 36006KT 5SM FEW003 SCT026 OVC045 09/08 A3000 RMK AO1 P0004

2006/10/02 04:15
KWWD 020415Z AUTO 31006KT 10SM CLR 17/08 A3010 RMK AO1

2006/10/02 04:15
KYKN 020415Z AUTO 00000KT 10SM CLR 17/12 A2979 RMK AO1

2006/10/02 04:15
KAIZ 020415Z AUTO 18006KT 10SM CLR 22/12 A3008 RMK AO1

2006/10/02 04:15
KARG 020415Z AUTO 11004KT 10SM CLR 19/13 A3011 RMK AO1

2006/10/02 04:15
KAUO 020415Z AUTO 03004KT 10SM CLR 20/17 A3014 RMK AO1

2006/10/02 04:15
KAWO 020415Z AUTO 00000KT 10SM CLR 08/07 A3000 RMK AO1

2006/10/02 04:15
KBID 020415Z AUTO 33008G15KT 10SM 14/12 A2999 RMK AO1

2006/10/02 04:15
KBJI 020415Z 00000KT 10SM CLR 14/10 A2972 RMK AO1

2006/10/02 04:15
KBKX 020415Z AUTO 00000KT 10SM CLR 14/13 A2981 RMK AO1

2006/10/02 04:15
KBLM 020415Z AUTO 30007KT 10SM CLR 12/05 A3008 RMK AO1

2006/10/02 04:15
KBTP 020415Z AUTO 00000KT 10SM CLR 08/06 A3018 RMK AO1

2006/10/02 04:15
KBVX 020415Z AUTO 12004KT 10SM CLR 22/11 A3011 RMK AO1

2006/10/02 04:15
KCGZ 020415Z AUTO 28005KT 10SM CLR 27/04 A2993 RMK AO1

2006/10/02 04:15
KCOE 020415Z AUTO 00000KT 10SM CLR 10/02 A2992 RMK AO1

2006/10/02 04:17
KCPW 020417Z AUTO 10SM CLR 09/M11 A3051 RMK AO2

2006/10/02 04:15
KCVN 020415Z AUTO 20009KT 10SM CLR 18/09 A3011 RMK AO1

2006/10/02 04:15
KCVO 020415Z AUTO 31010KT 10SM CLR 16/09 A2999 RMK AO1

2006/10/02 04:15
KCWI 020415Z AUTO 19011G15KT 10SM CLR 21/09 A2996 RMK AO1

2006/10/02 04:15
KDVL 020415Z AUTO 32009KT 10SM CLR 14/04 A2974 RMK AO1

2006/10/02 04:15
KDYR 020415Z AUTO 10003KT 10SM CLR 17/11 A3015 RMK AO1

2006/10/02 04:15
KEAR 020415Z AUTO 00000KT 10SM CLR 16/08 A2982 RMK AO1

2006/10/02 04:15
KEEN 020415Z AUTO 00000KT 10SM OVC013 11/09 A3002 RMK AO1

2006/10/02 04:15
KENV 020415Z 25003KT 10SM CLR 17/M04 A2990 RMK AO1

2006/10/02 04:15
KEUL 020415Z AUTO 11003KT 10SM CLR 12/02 A2987 RMK AO1

2006/10/02 04:15
KEWK 020415Z AUTO 17011KT 10SM CLR 25/15 A2997 RMK AO1

2006/10/02 04:15
KFAM 020415Z AUTO 18003KT 10SM CLR 19/11 A3013 RMK AO1

2006/10/02 04:15
KFKL 020415Z AUTO 00000KT 10SM CLR 08/07 A3017 RMK AO1

2006/10/02 04:15
KFLP 020415Z AUTO 00000KT 10SM CLR 19/16 A3011 RMK AO1

2006/10/02 04:15
KFOD 020415Z AUTO 19013G18KT 10SM CLR 23/15 A2980 RMK AO1

2006/10/02 04:15
KGAD 020415Z AUTO 00000KT 9SM CLR 17/16 A3018 RMK AO1

2006/10/02 04:15
KGBD 020415Z 19016G20KT 10SM CLR 24/12 A2988 RMK AO1

2006/10/02 04:15
KGPZ 020415Z AUTO 15006KT 10SM CLR 15/09 A2974 RMK AO1

2006/10/02 04:15
KGTR 020415Z 04003KT 10SM CLR 22/17 A3014 RMK AO1

2006/10/02 04:15
KHEZ 020415Z AUTO 00000KT 10SM CLR 21/18 A3013 RMK AO1

2006/10/02 04:15
KHYS 020415Z AUTO 19012KT 10SM CLR 23/12 A2985 RMK AO1

2006/10/02 04:15
KJHW 020415Z AUTO 28004KT 10SM CLR 09/06 A3014 RMK AO1

2006/10/02 04:16
KJSV 020416Z AUTO 05003KT 10SM CLR 22/17 A3006 RMK AO2

2006/10/02 04:15
KKLS 020415Z AUTO 00000KT 10SM CLR 12/09 A2999 RMK AO1

2006/10/02 04:15
KLBL 020415Z 19012KT 10SM CLR 22/14 A2997 RMK AO1

2006/10/02 04:15
KLCI 020415Z AUTO 06006KT 10SM BKN036 OVC048 09/06 A3005 RMK AO1

2006/10/02 04:15
KLEW 020415Z AUTO 02006KT 10SM FEW001 SCT009 BKN034 09/08 A3005 RMK AO1

2006/10/02 04:15
KLGD 020415Z AUTO 36004KT 8SM CLR 11/01 A2995 RMK AO1

2006/10/02 04:15
KLKV 020415Z AUTO 13008KT 10SM CLR 11/M08 A3003 RMK AO1

2006/10/02 04:15
KLPC 020415Z AUTO 00000KT 10SM SCT110 14/12 A3000 RMK AO1

2006/10/02 04:15
KMKT 020415Z AUTO 17009KT 10SM CLR 21/13 A2975 RMK AO1

2006/10/02 04:15
KMML 020415Z AUTO 24004KT 10SM CLR 16/11 A2976 RMK AO1

2006/10/02 04:15
KMRF 020415Z AUTO 00000KT 10SM CLR 15/08 A3024 RMK AO1

2006/10/02 04:15
KMSV 020415Z AUTO 27007KT 10SM CLR 12/06 A3008 RMK AO1

2006/10/02 04:15
KMYR 020415Z AUTO 05003KT 10SM CLR 21/16 A3014 RMK AO1

2006/10/02 04:15
KOAJ 020415Z AUTO 00000KT 10SM CLR 13/11 A3017 RMK AO1

2006/10/02 04:15
KOCF 020415Z AUTO 00000KT 10SM CLR 19/17 A3013 RMK AO1

2006/10/02 04:15
KOKM 020415Z AUTO 17007KT CLR 23/17 A3001 RMK AO1 PWINO

2006/10/02 04:15
KOLU 020415Z AUTO 19013G18KT 10SM CLR 24/12 A2980 RMK AO1

2006/10/02 04:15
KOTG 020415Z AUTO 21008KT 10SM CLR 19/13 A2978 RMK AO1

2006/10/02 04:15
KOTH 020415Z 29005KT 7SM CLR 11/09 A3004 RMK AO1 SLP173

2006/10/02 04:15
KOXC 020415Z 33003KT 10SM CLR 10/09 A3004 RMK AO1

2006/10/02 04:15
KPIB 020415Z AUTO 27003KT 10SM CLR 20/19 A3014 RMK AO1

2006/10/02 04:15
KPQI 020415Z AUTO 01004KT 10SM FEW026 SCT034 BKN044 10/04 A3007 RMK AO1

2006/10/02 04:15
KPTV 020415Z AUTO 00000KT 9SM SCT120 16/12 A2999 RMK AO1

2006/10/02 04:15
KPVU 020415Z 13005KT 10SM CLR 16/03 A3000 RMK AO1

2006/10/02 04:15
KPWT 020415Z AUTO 03005KT 10SM CLR 12/07 A3000 RMK AO1

2006/10/02 04:15
KRKD 020415Z AUTO 03009KT 5SM BKN007 BKN013 OVC055 11/10 A2998 RMK AO1 P0002

2006/10/02 04:14
KRKR 020414Z AUTO 00000KT 10SM CLR 21/19 A3006 RMK AO2

2006/10/02 04:15
KROG 020415Z AUTO 15006KT 10SM CLR 21/17 A3008 RMK AO1

2006/10/02 03:56
KHLR 020356Z AUTO 16010KT 10SM CLR 26/19 A3008 RMK AO2 SLP178 T02610189 $

2006/10/02 04:15
PAPN 020415Z AUTO 16006KT 8SM BKN020 BKN049 OVC080 09/08 A2945 RMK AO2 TSNO $

2006/10/02 04:14
KSBM 020414Z AUTO 14005KT 10SM BKN110 16/12 A2998 RMK AO2 LTG DSNT ALQDS TSE08

2006/10/02 04:00
HEAX 020400Z 32008KT 9999 FEW020 24/15 Q1011

2006/10/02 04:00
HEBL 020400Z 36008KT CAVOK 23/11 Q1010

2006/10/02 04:00
HECA 020400Z 30001KT 6000 SKC 22/18 Q1012

2006/10/02 04:00
HEGN 020400Z 28012KT CAVOK 24/16 Q1010

2006/10/02 04:00
HELX 020400Z 20002KT CAVOK 22/14 Q1011

2006/10/02 04:00
HEMM 020400Z 27011KT 9999 BKN020 23/17 Q1013

2006/10/02 04:00
HEPS 020400Z 33008KT 8000 SKC 21/19 Q1012

2006/10/02 04:00
HESN 020400Z 36005KT CAVOK 24/10 Q1011

2006/10/02 04:00
FVBU 020400Z 05006KT CAVOK 19/04 Q1016 NOSIG

2006/10/02 04:00
FVHA 020400Z 05006KT 5000 HZ FEW060 17/12 Q1019 NOSIG

2006/10/02 04:00
FVTL 020400Z 07007KT CAVOK 17/11 Q1017

2006/10/02 03:55
PKMJ 020355Z 03009KT 15SM FEW015 SCT050 BKN300 29/25 A2968

2006/10/02 03:55
PKMJ 020355Z 03009KT 15SM FEW015 SCT050 BKN300 29/25 A2968

2006/10/02 04:14
KBTV 020414Z 00000KT 10SM SCT027 OVC050 11/09 A3001 RMK AO2

2006/10/02 04:12
CYTE 020412Z AUTO 36002KT 9SM -SN OVC007 OVC028 01/ A2989

2006/10/02 04:00
UHHH 020400Z 23004G07MPS CAVOK 21/12 Q1012 NOSIG RMK QFE752/1003 23090060

2006/10/02 04:00
UHMM 020400Z 28002MPS 9999 SCT200 07/M02 Q1011 NOSIG RMK QFE744 88010070

2006/10/02 04:00
UHMP 020400Z 16005MPS 3000 SHSN OVC010CB M02/M03 Q1010 TEMPO 2000 RMK MT OBSC QFE757 SC055

2006/10/02 04:00
UHPP 020400Z 29008G11MPS 9999 FEW300 FEW100 13/M01 Q1015 NOSIG RMK QFE 758 MT OBS

2006/10/02 04:00
UHSS 020400Z 17003MPS 9999 FEW020 19/14 Q1017 NOSIG RMK QFE761/1015 01CLRD70

2006/10/02 04:00
UHWW 020400Z 22002MPS 9999 SCT023 OVC200 21/13 Q1015 NOSIG RMK QFE760/1014 75CLRD80

2006/10/02 04:00
UIAA 020400Z VRB01MPS 9999 BKN200 11/M03 Q1011 NOSIG RMK QFE700 29CLRD70

2006/10/02 04:00
UIBB 020400Z 26005G10MPS 9999 SCT033CB 01/M10 Q1018 NOSIG RMK QFE720/0960 30CLRD60

2006/10/02 04:00
UIII 020400Z 30010MPS 9999 BKN028CB BKN100 OVC200 07/00 Q1020 TEMPO 32009G15MPS 530001 RMK QFE720/0960 30CLRD60

2006/10/02 04:00
UIUU 020400Z 00000MPS 9999 FEW100 BKN200 13/03 Q1013 NOSIG RMK QFE715/0954 ULAN-UD WOSTO4NYJ 020400Z 27005MPS 9999 FEW100 BKN200 13/03 Q1013 RMK QFE714/0952

2006/10/02 04:00
UIUU 020400Z 00000MPS 9999 FEW100 BKN200 13/03 Q1013 NOSIG RMK QFE715/0954 ulan-ud| wo to4nyj 020400Z 27005MPS 9999 FEW100 BKN200 13/03 Q1013 RMK QFE714/0952

2006/10/02 04:00
ULAA 020400Z 14002MPS 9999 SCT030 BKN/// 01/00 Q1019 TEMPO 0500 FG BKN003 RMK QFE763/1017 SC070

2006/10/02 04:00
UNAA 020400Z VRB02MPS 9999 FEW003 OVC021 04/03 Q1023 NOSIG RMK QFE744 202//50

2006/10/02 04:00
UNNT 020400Z 13004MPS 9999 FEW033 BKN100 OVC200 08/03 Q1017 NOSIG RMK QFE752/1003 25090070

2006/10/02 04:00
USNN 020400Z 26002MPS P6000 FEW066 SCT200 02/m01 Q1018 NOSIG RMK QFE759 SC065

2006/10/02 04:00
USNN 020400Z 26002MPS P6000 FEW066 SCT200 02/M01 Q1018 NOSIG RMK QFE759 SC065

2006/10/02 03:50
OISS 020350Z 00000KT CAVOK 15/05 Q1021 A3017

2006/10/02 04:00
MKJP 020400Z 23003KT 9999 FEW024CB 29/25 Q1014

2006/10/02 04:20
ESNL 020420Z 18001KT 0600 R14/1300 BCFG BKN001 BKN015 04/04 Q1002

2006/10/02 04:00
FAKD 020400Z AUTO 20006KT //// // ////// 13/// Q1014

2006/10/02 04:00
HEAR 020400Z 21003KT 9999 FEW025 21/17 Q1011

2006/10/02 04:00
HEAT 020400Z 33001KT CAVOK 20/14 Q1013

2006/10/02 04:00
HEIS 020400Z 26004KT 1500 BR SKC 20/17 Q1012

2006/10/02 04:00
HESH 020400Z 36012KT CAVOK 26/17 Q1009

2006/10/02 04:00
SAST 020400Z 00000KT 9999 FEW030 23/17 Q1009

2006/10/02 04:00
UERR 020400Z 24009G14MPS 9999 SCT023CB BKN036 01/M07 Q0996 TEMPO 26011G16MPS RMK QFE716 SC06

2006/10/02 04:00
UHNN 020400Z 25003MPS 9999 SCT033CB OVC/// 20/09 Q1007 NOSIG RMK QFE749 290///60

2006/10/02 04:00
UHSH 020400Z 21007G12MPS CAVOK 21/08 Q1008 NOSIG RMK QFE753 13000070

2006/10/02 04:00
ULKK 020400Z 03001MPS 5000 BKN005 OVC099 M04/M05 Q1021 NOSIG RMK BB160 QFE761 31000060

2006/10/02 04:00
ULOL 020400Z 18002MPS 9999 -SHRA OVC009CB 12/12 Q1010 NOSIG RMK QFE749/0999

2006/10/02 04:00
ULWW 020400Z 00000MPS CAVOK M04/M08 Q1018 TEMPO 2500 BR RMK QFE753 33CLRD60

2006/10/02 04:00
UNBB 020400Z 16003MPS 9999 FEW040 09/07 Q1017 NOSIG RMK QFE740 24100060

2006/10/02 04:00
UNEE 020400Z 11001MPS 9999 -RA SCT016 OVC100 03/01 Q1019 NOSIG RMK QFE742 23290055

2006/10/02 04:00
UNKL 020400Z 00000MPS CAVOK 03/M03 Q1021 NOSIG RMK QFE740 29////65

2006/10/02 04:00
UNOO 020400Z 18002MPS 6000 BKN066 06/03 Q1012 NOSIG 25CLRD06 RMK QFE751

2006/10/02 04:00
UNWW 020400Z 04001MPS 3700 BR BKN011 OVC130 07/06 Q1021 NOSIG RMK QFE737 1929//60

2006/10/02 04:00
UOII 020400Z 26003MPS 4000 -SHSN OVC010CB M02/M04 Q1002 TEMPO 2000 SHSN OVC007CB RMK QFE749 12////38

2006/10/02 04:00
UWLL 020400Z 01008MPS 9999 OVC014 05/03 Q1013 TEMPO BKN011 RMK QFE747/0997 SC065

2006/10/02 04:00
UWOR 020400Z 16006MPS 9999 BKN050CB 13/02 Q1011 NOSIG RMK QFE733/0978 SC065

2006/10/02 04:15
KDVL 020415Z AUTO 32009KT 10SM CLR 14/04 A2974 RMK AO1

2006/10/02 04:15
KEAR 020415Z AUTO 00000KT 10SM CLR 16/08 A2982 RMK AO1

2006/10/02 04:15
KGPZ 020415Z AUTO 15006KT 10SM CLR 15/09 A2974 RMK AO1

2006/10/02 03:55
PKMJ 020355Z 03009KT 15SM FEW015 SCT050 BKN300 29/25 A2968

2006/10/02 03:55
PKMJ 020355Z 03009KT 15SM FEW015 SCT050 BKN300 29/25 A2968

2006/10/02 04:13
KPQL 020413Z AUTO 00000KT 1 1/2SM BR FEW001 21/19 A3012 RMK AO2

2006/10/02 04:13
KAQW 020413Z AUTO 00000KT 9SM BKN010 OVC021 12/11 A3003 RMK AO2 CIG 006V011

2006/10/02 04:13
KHYA 020413Z AUTO 30004KT 10SM SCT005 BKN009 BKN015 13/13 A2992 RMK AO2 CIG 008V013

2006/10/02 04:12
PACM 020412Z AUTO 13003KT 1SM -RA BR BKN011 BKN017 OVC025 08/07 A2951 RMK AO2 TSNO CIG 006V014 RAB04 P0000

2006/10/02 04:12
PACM 020412Z AUTO 13003KT 1SM -RA BR BKN011 BKN017 OVC025 08/07 A2951 RMK AO2 TSNO CIG 006V014 RAB04 P0000

2006/10/02 04:13
PAPB 020413Z AUTO 26010KT 7SM BKN006 OVC016 07/ A2946 RMK AO2 TSNO $

2006/10/02 04:14
KSBM 020414Z AUTO 14005KT 10SM BKN110 16/12 A2998 RMK AO2 LTG DSNT ALQDS TSE08

2006/10/02 04:15
KCIU 020415Z AUTO 00000KT 10SM OVC110 08/06 A3009

2006/10/02 04:13
KDUC 020413Z AUTO 16009KT 10SM CLR 26/17 A3001 RMK AO2

2006/10/02 04:09
KLHB 020409Z AUTO 14005KT 10SM CLR 25/21 A3009 RMK AO2

2006/10/02 04:13
KSNL 020413Z AUTO 17011KT 10SM CLR 26/16 A3002 RMK AO2

2006/10/02 04:12
KSRE 020412Z AUTO 15008KT 10SM 26/16 A3004 RMK AO2 TSNO

2006/10/02 04:13
KTQH 020413Z AUTO 16004KT 10SM CLR 24/18 A3005 RMK AO2

2006/10/02 04:14
KVTP 020414Z AUTO 26003KT 10SM CLR 11/M07 A3043 RMK AO2

2006/10/02 04:12
KWWR 020412Z AUTO 20016KT 10SM CLR 26/14 A2995 RMK AO2

2006/10/02 04:14
KADH 020414Z AUTO 17010G16KT 10SM CLR 28/16 A3003 RMK AO2

2006/10/02 04:14
KONL 020414Z AUTO 23003KT 10SM CLR 18/13 A2979 RMK AO2

2006/10/02 04:15
KAIZ 020415Z AUTO 18006KT 10SM CLR 22/12 A3008 RMK AO1

2006/10/02 04:15
KARG 020415Z AUTO 11004KT 10SM CLR 19/13 A3011 RMK AO1

2006/10/02 04:15
KAUO 020415Z AUTO 03004KT 10SM CLR 20/17 A3014 RMK AO1

2006/10/02 04:15
KAWO 020415Z AUTO 00000KT 10SM CLR 08/07 A3000 RMK AO1

2006/10/02 04:15
KBID 020415Z AUTO 33008G15KT 10SM 14/12 A2999 RMK AO1

2006/10/02 04:15
KBJI 020415Z 00000KT 10SM CLR 14/10 A2972 RMK AO1

2006/10/02 04:15
KBKX 020415Z AUTO 00000KT 10SM CLR 14/13 A2981 RMK AO1

2006/10/02 04:15
KBLM 020415Z AUTO 30007KT 10SM CLR 12/05 A3008 RMK AO1

2006/10/02 04:15
KBTP 020415Z AUTO 00000KT 10SM CLR 08/06 A3018 RMK AO1

2006/10/02 04:15
KBVX 020415Z AUTO 12004KT 10SM CLR 22/11 A3011 RMK AO1

2006/10/02 04:15
KCGZ 020415Z AUTO 28005KT 10SM CLR 27/04 A2993 RMK AO1

2006/10/02 04:15
KCOE 020415Z AUTO 00000KT 10SM CLR 10/02 A2992 RMK AO1

2006/10/02 04:17
KCPW 020417Z AUTO 10SM CLR 09/M11 A3051 RMK AO2

2006/10/02 04:15
KCVN 020415Z AUTO 20009KT 10SM CLR 18/09 A3011 RMK AO1

2006/10/02 04:15
KCVO 020415Z AUTO 31010KT 10SM CLR 16/09 A2999 RMK AO1

2006/10/02 04:15
KCWI 020415Z AUTO 19011G15KT 10SM CLR 21/09 A2996 RMK AO1

2006/10/02 04:15
KDYR 020415Z AUTO 10003KT 10SM CLR 17/11 A3015 RMK AO1

2006/10/02 04:15
KEEN 020415Z AUTO 00000KT 10SM OVC013 11/09 A3002 RMK AO1

2006/10/02 04:15
KENV 020415Z 25003KT 10SM CLR 17/M04 A2990 RMK AO1

2006/10/02 04:15
KEUL 020415Z AUTO 11003KT 10SM CLR 12/02 A2987 RMK AO1

2006/10/02 04:15
KEWK 020415Z AUTO 17011KT 10SM CLR 25/15 A2997 RMK AO1

2006/10/02 04:15
KFAM 020415Z AUTO 18003KT 10SM CLR 19/11 A3013 RMK AO1

2006/10/02 04:15
KFKL 020415Z AUTO 00000KT 10SM CLR 08/07 A3017 RMK AO1

2006/10/02 04:15
KFLP 020415Z AUTO 00000KT 10SM CLR 19/16 A3011 RMK AO1

2006/10/02 04:15
KFOD 020415Z AUTO 19013G18KT 10SM CLR 23/15 A2980 RMK AO1

2006/10/02 04:15
KGAD 020415Z AUTO 00000KT 9SM CLR 17/16 A3018 RMK AO1

2006/10/02 04:15
KGBD 020415Z 19016G20KT 10SM CLR 24/12 A2988 RMK AO1

2006/10/02 04:15
KGTR 020415Z 04003KT 10SM CLR 22/17 A3014 RMK AO1

2006/10/02 04:15
KHEZ 020415Z AUTO 00000KT 10SM CLR 21/18 A3013 RMK AO1

2006/10/02 04:15
KHYS 020415Z AUTO 19012KT 10SM CLR 23/12 A2985 RMK AO1

2006/10/02 04:15
KJHW 020415Z AUTO 28004KT 10SM CLR 09/06 A3014 RMK AO1

2006/10/02 04:16
KJSV 020416Z AUTO 05003KT 10SM CLR 22/17 A3006 RMK AO2

2006/10/02 04:15
KKLS 020415Z AUTO 00000KT 10SM CLR 12/09 A2999 RMK AO1

2006/10/02 04:15
KLBL 020415Z 19012KT 10SM CLR 22/14 A2997 RMK AO1

2006/10/02 04:15
KLCI 020415Z AUTO 06006KT 10SM BKN036 OVC048 09/06 A3005 RMK AO1

2006/10/02 04:15
KLEW 020415Z AUTO 02006KT 10SM FEW001 SCT009 BKN034 09/08 A3005 RMK AO1

2006/10/02 04:15
KLGD 020415Z AUTO 36004KT 8SM CLR 11/01 A2995 RMK AO1

2006/10/02 04:15
KLKV 020415Z AUTO 13008KT 10SM CLR 11/M08 A3003 RMK AO1

2006/10/02 04:15
KLPC 020415Z AUTO 00000KT 10SM SCT110 14/12 A3000 RMK AO1

2006/10/02 04:15
KMKT 020415Z AUTO 17009KT 10SM CLR 21/13 A2975 RMK AO1

2006/10/02 04:15
KMML 020415Z AUTO 24004KT 10SM CLR 16/11 A2976 RMK AO1

2006/10/02 04:15
KMRF 020415Z AUTO 00000KT 10SM CLR 15/08 A3024 RMK AO1

2006/10/02 04:15
KMSV 020415Z AUTO 27007KT 10SM CLR 12/06 A3008 RMK AO1

2006/10/02 04:15
KMYR 020415Z AUTO 05003KT 10SM CLR 21/16 A3014 RMK AO1

2006/10/02 04:15
KOAJ 020415Z AUTO 00000KT 10SM CLR 13/11 A3017 RMK AO1

2006/10/02 04:15
KOCF 020415Z AUTO 00000KT 10SM CLR 19/17 A3013 RMK AO1

2006/10/02 04:15
KOKM 020415Z AUTO 17007KT CLR 23/17 A3001 RMK AO1 PWINO

2006/10/02 04:15
KOLU 020415Z AUTO 19013G18KT 10SM CLR 24/12 A2980 RMK AO1

2006/10/02 04:15
KOTG 020415Z AUTO 21008KT 10SM CLR 19/13 A2978 RMK AO1

2006/10/02 04:15
KOTH 020415Z 29005KT 7SM CLR 11/09 A3004 RMK AO1 SLP173

2006/10/02 04:15
KOXC 020415Z 33003KT 10SM CLR 10/09 A3004 RMK AO1

2006/10/02 04:15
KPIB 020415Z AUTO 27003KT 10SM CLR 20/19 A3014 RMK AO1

2006/10/02 04:15
KPQI 020415Z AUTO 01004KT 10SM FEW026 SCT034 BKN044 10/04 A3007 RMK AO1

2006/10/02 04:15
KPTV 020415Z AUTO 00000KT 9SM SCT120 16/12 A2999 RMK AO1

2006/10/02 03:50
KEFD 020350Z 14003KT 10SM FEW150 SCT250 23/22 A3010

2006/10/02 04:00
ULMM 020400Z 15003MPS 9999 SCT017 BKN080 01/M01 Q1012 NOSIG RMK QFE751 32090070

2006/10/02 04:00
UOHH 020400Z 02004MPS 9999 SKT 020 OVC/// M02/M05 Q1000 NOSIG RMK GSN 744 06420250

2006/10/02 04:00
UOOO 020400Z 25003G04MPS 3700 -SHSN BR OVC003CB M02/M03 Q0998 TEMPO 0500 FZFG VV002 RMK QBB110 QFE734 0139//38

2006/10/02 04:00
USCC 020400Z 32004MPS 3000 BR -RA BKN003 OVC070 06/04 Q1007 TEMPO 0500 FG VV002 RMK QFE735 88290155

2006/10/02 04:00
USDD 020400Z 26005MPS 9999 SCT026 BKN070 M00/M03 Q1015 NOSIG RMK QFE757 SC060

2006/10/02 04:00
USMU 020400Z 29006MPS 6000 SCT014 BKN066 OVC200 00/M01 Q1010 NOSIG RMK FBL ICE IC QFE752 27350330

2006/10/02 04:00
USNN 020400Z 26002MPS P6000 FEW066 SCT200 02/m01 Q1018 NOSIG RMK QFE759 SC065

2006/10/02 04:00
USNN 020400Z 26002MPS P6000 FEW066 SCT200 02/M01 Q1018 NOSIG RMK QFE759 SC065

2006/10/02 04:00
USPP 020400Z 01005MPS 9999 OVC043 02/M01 Q1014 NOSIG RMK QFE750/1000 03090060

2006/10/02 04:00
USRK 020400Z VRB02MPS 6000 BKN066 01/M01 Q1017 NOSIG RMK QFE757 170///60

2006/10/02 04:00
USRR 020400Z 28001MPS 200V300 7000 BKN068 02/M02 Q1018 BECMG 2000 BR SCT006 RMK QFE758 25////70

2006/10/02 04:00
USSS 020400Z 02002MPS 5000 -SHSN OVC007CB 01/M00 Q1009 TEMPO 1200 SHSNRA OVC005 RMK QFE736 26290350 76291040

2006/10/02 04:00
USTR 020400Z 05003MPS 020V080 2800 RA BR OVC003 02/02 Q1010 TEMPO 0500 FG DZ VV002 RMK QBB090 QFE747/0996 03290060 30290060

2006/10/02 04:00
UUBP 020400Z 18001MPS 0200 FG VV002 07/07 Q1018 NOSIG

2006/10/02 04:00
UUOO 020400Z 27003MPS 3000 BR MIFG SCT020 07/07 Q1017 TEMPO 1400 RMK 31090070

2006/10/02 04:00
UUYS 020400Z VRB02MPS CAVOK M03/M04 Q1019 NOSIG RMK QFE757 32CLRD60

2006/10/02 04:00
UUYY 020400Z VRB02MPS 5000 BR OVC004 M00/M01 Q1020 TEMPO 0300 FG OVC002 01CLRD61 RMK BB120 QFE756

2006/10/02 04:00
UWGG 020400Z 00000MPS 6000 FEW013 00/M00 Q1019 NOSIG RMK QFE757 SC07

2006/10/02 04:00
UWKD 020400Z 01006G09MPS 9999 BKN015 03/M01 Q1014 NOSIG RMK QFE749/0999 79CLRD70

2006/10/02 04:00
UWKE 020400Z 01009MPS 9999 OVC008 03/02 Q1011 NOSIG RMK QFE741/0988 04290355

2006/10/02 04:00
UWLW 020400Z 02006G10MPS 8000 OVC015 06/03 Q1013 NOSIG 02290250 RMK QFE753

2006/10/02 04:00
UWOO 020400Z 31002MPS 240V350 3200 SHRA OVC013CB 08/07 Q1006 TEMPO 1000 SHRA BR RMK QFE744/0993 26200057

2006/10/02 04:00
UWPP 020400Z 36007MPS 9999 OVC006 06/04 Q1014 TEMPO OVC005 RMK Q BB190 QFE 744 29090060

2006/10/02 04:00
UWSS 020400Z 34007G10MPS 9999 OVC010CB 08/06 Q1012 NOSIG RMK QFE745 300///60

2006/10/02 04:00
UWUU 020400Z 34005MPS 4000 -RA OVC005 06/06 Q1006 TEMPO 0500 FG RA VV002 RMK QBB150 QFE743/0991 ELECTRIZATION IN CLOUDS 82250346

2006/10/02 04:00
UWWW 020400Z 34007G10MPS 2600 -DZ BR OVC006 05/04 Q1010 TEMPO OVC005 RMK QFE747/0996 23////50 33////55

2006/10/02 04:00
SELT 020400Z 19005KT 9999 BKN040 12/10 Q1032

2006/10/02 03:55
PKMJ 020355Z 03009KT 15SM FEW015 SCT050 BKN300 29/25 A2968

2006/10/02 04:15
KPVU 020415Z 13005KT 10SM CLR 16/03 A3000 RMK AO1

2006/10/02 04:15
KPWT 020415Z AUTO 03005KT 10SM CLR 12/07 A3000 RMK AO1

2006/10/02 04:15
KRKD 020415Z AUTO 03009KT 5SM BKN007 BKN013 OVC055 11/10 A2998 RMK AO1 P0002

2006/10/02 04:14
KRKR 020414Z AUTO 00000KT 10SM CLR 21/19 A3006 RMK AO2

2006/10/02 04:15
KROG 020415Z AUTO 15006KT 10SM CLR 21/17 A3008 RMK AO1

2006/10/02 04:15
KRUT 020415Z AUTO 14004KT 10SM BKN020 OVC030 11/09 A3003 RMK AO1

2006/10/02 04:15
KSFM 020415Z 36007KT 10SM SCT008 BKN012 OVC029 09/07 A3004 RMK AO1

2006/10/02 04:15
KSFZ 020415Z AUTO 35008KT 10SM OVC003 11/09 A2998 RMK AO1

2006/10/02 04:15
KSGJ 020415Z AUTO 00000KT 10SM CLR 22/19 A3013 RMK AO1

2006/10/02 04:15
KSGT 020415Z AUTO 14006KT 10SM CLR A3008 RMK AO1

2006/10/02 04:15
KSGU 020415Z AUTO 08006KT 10SM CLR 26/01 A2994 RMK AO1

2006/10/02 04:15
KSKX 020415Z AUTO 14003KT 10SM CLR 10/M06 A3027 RMK AO1

2006/10/02 04:15
KSLG 020415Z AUTO 16006KT 10SM CLR 22/14 A3007 RMK AO1

2006/10/02 04:15
KSMN 020415Z AUTO 00000KT 10SM CLR 12/M01 A2990 RMK AO1

2006/10/02 04:14
KSVC 020414Z AUTO 35008KT 10SM CLR 15/04 A3019 RMK AO1

2006/10/02 04:15
KTVF 020415Z AUTO 01003KT 10SM CLR 13/10 A2970 RMK AO1

2006/10/02 04:15
KUDG 020415Z AUTO 00000KT 10SM CLR 15/14 A3018 RMK AO1

2006/10/02 04:15
KVBT 020415Z AUTO 16006KT 10SM CLR 21/18 A3008 RMK AO1

2006/10/02 04:15
KVIS 020415Z AUTO 29003KT 10SM FEW080 16/13 A2998 RMK AO1

2006/10/02 04:15
KWVL 020415Z AUTO 36006KT 5SM FEW003 SCT026 OVC045 09/08 A3000 RMK AO1 P0004

2006/10/02 04:15
KWWD 020415Z AUTO 31006KT 10SM CLR 17/08 A3010 RMK AO1

2006/10/02 04:15
KYKN 020415Z AUTO 00000KT 10SM CLR 17/12 A2979 RMK AO1

2006/10/02 04:12
KANW 020412Z AUTO 00000KT 10SM CLR 17/09 A2983

2006/10/02 04:10
KBIE 020410Z AUTO 18016G21KT 10SM CLR 26/12 A2984

2006/10/02 04:15
KJAC 020415Z AUTO 13005KT 10SM CLR 07/M04 A3009

2006/10/02 04:14
KONL 020414Z AUTO 23003KT 10SM CLR 18/13 A2979

2006/10/02 04:15
KGDV 020415Z AUTO 35007KT 10SM CLR 12/00 A2986

2006/10/02 04:10
KSOW 020410Z AUTO 17008KT 10SM CLR 14/M01 A3027

2006/10/02 04:15
KOFP 020415Z AUTO 00000KT 1 3/4SM BR CLR 12/11 A3018 RMK AO2 VIS 3/4V5

2006/10/02 04:15
KWST 020415Z AUTO 33003KT 10SM SCT017 13/12 A3000 RMK AO2

2006/10/02 04:14
PACM 020414Z AUTO 11004KT 1 1/4SM -RA BR BKN009 BKN017 OVC025 08/07 A2951 RMK AO2 TSNO CIG 006V013 RAB04 P0000

2006/10/02 04:14
PACM 020414Z AUTO 11004KT 1 1/4SM -RA BR BKN009 BKN017 OVC025 08/07 A2951 RMK AO2 TSNO CIG 006V013 RAB04 P0000

2006/10/02 04:15
K1A6 020415Z AUTO 00000KT 10SM CLR 15/13 A3027 RMK AO2

2006/10/02 04:14
KCAD 020414Z AUTO 00000KT 10SM BKN110 06/05 A3006 RMK AO2

2006/10/02 04:15
KCFS 020415Z AUTO 00000KT 10SM CLR 08/06 A3011 RMK AO2

2006/10/02 04:15
KCKN 020415Z AUTO 00000KT 10SM CLR 13/11 A2967 RMK AO2

2006/10/02 04:16
KEFT 020416Z AUTO 19009G14KT 10SM CLR 19/11 A2995 RMK AO2

2006/10/02 04:14
KFKS 020414Z AUTO 14007KT 10SM OVC110 14/06 A3001 RMK AO2

2006/10/02 04:15
KGOV 020415Z AUTO 00000KT 10SM CLR 03/03 A3007 RMK AO2

2006/10/02 04:15
KBDH 020415Z AUTO 00000KT 10SM CLR 16/12 A2975 RMK AO2

2006/10/02 04:15
KFBL 020415Z AUTO 16007KT 10SM CLR 21/12 A2978 RMK AO2

2006/10/02 04:15
KFPK 020415Z AUTO 00000KT 10SM BKN120 07/07 A3011 RMK AO2

2006/10/02 04:12
KGLW 020412Z AUTO 00000KT 7SM CLR 12/04 A3025 RMK AO1

2006/10/02 04:15
KHAI 020415Z AUTO 00000KT 10SM OVC120 10/09 A3011 RMK AO2

2006/10/02 04:15
KLDM 020415Z AUTO 14006KT 10SM OVC110 13/08 A3004 RMK AO2

2006/10/02 04:15
KLWA 020415Z AUTO 14004KT 10SM BKN120 13/09 A3008 RMK AO2

2006/10/02 04:14
KMRJ 020414Z AUTO 17007KT 10SM CLR 18/14 A2993 RMK AO2

2006/10/02 04:16
PAAK 020416Z AUTO 00000KT 4SM FEW002 BKN021 OVC046 08/07 A2960 RMK AO1

2006/10/02 04:16
PAZK 020416Z AUTO 00000KT 10SM CLR M01/M03 A2979 RMK AO1

2006/10/02 04:16
PFYU 020416Z 02003KT 10SM SCT070 01/M01 A2974 RMK AO1

2006/10/02 04:16
PAAK 020416Z AUTO 00000KT 4SM FEW002 BKN021 OVC046 08/07 A2960 RMK AO1

2006/10/02 04:16
PABV 020416Z AUTO 10SM BKN085 06/03 A2978 RMK AO1

2006/10/02 04:16
PADK 020416Z AUTO 35003KT 4SM FEW027 FEW032 BKN047 09/07 A2957 RMK AO1

2006/10/02 04:16
PADU 020416Z 22015G24KT 190V250 10SM BKN031 BKN047 09/04 A2967 RMK AO1 0350 WEA

2006/10/02 04:16
PAEM 020416Z AUTO 05007KT 10SM SCT011 BKN015 OVC022 07/06 A2953 RMK AO1

2006/10/02 04:16
PAFE 020416Z AUTO 00000KT 10SM OVC050 06/03 A3014 RMK AO1

2006/10/02 04:16
PAFM 020416Z AUTO 03003KT 10SM BKN022 OVC027 02/01 A2973 RMK AO1

2006/10/02 04:16
PAGL 020416Z AUTO 10SM OVC038 06/02 A2965 RMK AO1

2006/10/02 04:16
PAGS 020416Z AUTO 14004KT 10SM OVC025 08/03 A3013 RMK AO1

2006/10/02 04:16
PAHL 020416Z AUTO 09006KT 10SM FEW001 SCT008 OVC014 03/01 A2964 RMK AO1

2006/10/02 04:16
PAHP 020416Z AUTO 06007KT 9SM FEW018 OVC027 09/07 A2949 RMK AO1 TSNO

2006/10/02 04:16
PAHY 020416Z AUTO 00000KT 10SM CLR 07/06 A3014 RMK AO1

2006/10/02 04:16
PAII 020416Z AUTO 12016G23KT 9SM OVC004 08/07 A2943 RMK AO1 P0001

2006/10/02 04:16
PAIN 020416Z AUTO 16004KT 10SM FEW048 BKN065 OVC075 03/M02 A2977 RMK AO1

2006/10/02 04:16
PAKK 020416Z AUTO 01009KT 10SM OVC026 04/01 A2962 RMK AO1

2006/10/02 04:16
PAKP 020416Z AUTO 19007KT 10SM FEW003 OVC040 M01/M02 A2966 RMK AO1

2006/10/02 04:16
PAMD 020416Z AUTO 14015G19KT 5SM SCT009 BKN015 OVC060 09/08 A2988 RMK AO1 P0001

2006/10/02 04:16
PAMH 020416Z AUTO 11003KT 10SM BKN070 BKN100 03/00 A2971 RMK AO1

2006/10/02 04:16
PAMM 020416Z AUTO 00000KT 10SM CLR 07/04 A3015 RMK AO1

2006/10/02 04:16
PANI 020416Z AUTO 11011KT 10SM FEW032 BKN046 OVC050 09/04 A2952 RMK AO1

2006/10/02 04:16
PANV 020416Z 03005KT 10SM OVC001 06/06 A2956 RMK AO1

2006/10/02 04:16
PAPG 020416Z 00000KT 10SM BKN050 06/04 A3015 RMK AO1 WEA

2006/10/02 04:16
PAPH 020416Z AUTO 23016G20KT 8SM FEW003 SCT009 OVC014 09/08 A2947 RMK AO1

2006/10/02 04:16
PAPO 020416Z AUTO 35018KT 10SM BKN019 OVC025 03/00 A2975 RMK AO1

2006/10/02 04:16
PARC 020416Z AUTO 23006KT 10SM FEW031 SCT037 BKN049 M01/M04 A2965 RMK AO1

2006/10/02 04:16
PASA 020416Z AUTO 05020G24KT 2 1/2SM OVC006 04/02 A2963 RMK AO1

2006/10/02 04:16
PASD 020416Z 25015G22KT 7SM SCT020 BKN030 OVC037 10/07 A2954 RMK AO1 WEA

2006/10/02 04:16
PASH 020416Z AUTO 02013KT OVC021 04/01 A2975 RMK AO1

2006/10/02 04:16
PASK 020416Z AUTO 03005KT 10SM SCT003 OVC016 04/02 A2971 RMK AO1

2006/10/02 04:16
PASL 020416Z AUTO 00000KT 9SM OVC048 07/06 A2962 RMK AO1 TSNO

2006/10/02 04:16
PASM 020416Z AUTO 09010KT 10SM FEW036 OVC043 07/04 A2953 RMK AO1

2006/10/02 04:16
PATG 020416Z AUTO 04007KT 7SM FEW001 SCT013 OVC018 09/07 A2940 RMK AO1

2006/10/02 04:16
PAUN 020416Z AUTO 07011KT 5SM OVC030 05/03 A2962 RMK AO1

2006/10/02 04:16
PAVD 020416Z 00000KT 10SM FEW030 OVC050 05/04 A2998 RMK AO1 0347Z WEA

2006/10/02 04:16
PAWG 020416Z 15006KT 10SM SCT037 BKN050 06/02 A3014 RMK AO1 WEA

2006/10/02 04:15
KACQ 020415Z AUTO 17006KT 10SM CLR 21/13 A2980 RMK AO2

2006/10/02 04:15
KADC 020415Z AUTO 00000KT 10SM CLR 11/09 A2972 RMK AO2

2006/10/02 04:15
KAEL 020415Z AUTO 16005KT 10SM CLR 21/12 A2980 RMK AO2

2006/10/02 04:15
KAIG 020415Z AUTO 14008KT 10SM CLR 11/09 A2992 RMK AO2

2006/10/02 04:15
KAIT 020415Z AUTO 14005KT 10SM CLR 15/14 A2973 RMK AO2

2006/10/02 04:14
KARV 020414Z AUTO 15006KT 10SM CLR 15/07 A2989 RMK AO2

2006/10/02 04:16
KISQ 020416Z AUTO 14008KT 10SM SCT110 12/09 A3002 RMK AO2

2006/10/02 04:15
KJKJ 020415Z AUTO 25005KT 10SM CLR 15/12 A2970 RMK AO2

2006/10/02 04:17
KLCK 020417Z AUTO 00000KT 10SM CLR 12/09 A3017 RMK AO2

2006/10/02 04:15
KMOP 020415Z AUTO 00000KT 10SM SCT120 06/06 A3009 RMK AO2

2006/10/02 04:16
KMZH 020416Z AUTO 04003KT 10SM CLR 11/10 A2975 RMK AO2

2006/10/02 04:16
KPHN 020416Z AUTO 00000KT 1/2SM FG VV005 05/04 A3014 RMK AO2

2006/10/02 04:00
NZWN 020400Z 19018KT 4000 -RADZ SCT002 OVC003 12/10 Q1010 TEMPO 10KM SCT003 BKN006 RMK KAUKAU 17025KT

2006/10/02 04:11
RJAF 020411Z VRB02KT 4000 -RA BR FEW005 SCT013 BKN030 16/12 Q1013 RMK 2ST005 3ST013 5SC030 A2992

2006/10/02 04:00
NZCH 020400Z 07006KT 5000 -DZ SCT009 BKN013 10/08 Q1013 TEMPO 15KM SCT008 BKN018

2006/10/02 04:00
NZAA 020400Z 04007KT 350V070 4000 SHRA FEW008 SCT025 BKN040 13/11 Q1005 TEMPO 20KM -SHRA RMK VIS 20KM SW-NW

2006/10/02 04:15
K1A6 020415Z AUTO 00000KT 10SM CLR 15/13 A3027 RMK AO2

2006/10/02 04:14
KCAD 020414Z AUTO 00000KT 10SM BKN110 06/05 A3006 RMK AO2

2006/10/02 04:15
KCFS 020415Z AUTO 00000KT 10SM CLR 08/06 A3011 RMK AO2

2006/10/02 04:15
KCKN 020415Z AUTO 00000KT 10SM CLR 13/11 A2967 RMK AO2

2006/10/02 04:16
KEFT 020416Z AUTO 19009G14KT 10SM CLR 19/11 A2995 RMK AO2

2006/10/02 04:14
KFKS 020414Z AUTO 14007KT 10SM OVC110 14/06 A3001 RMK AO2

2006/10/02 04:15
KGOV 020415Z AUTO 00000KT 10SM CLR 03/03 A3007 RMK AO2

2006/10/02 04:13
K2G4 020413Z AUTO 26005KT 10SM 10/05 A3020 RMK AO1

2006/10/02 04:15
KFBL 020415Z AUTO 16007KT 10SM CLR 21/12 A2978 RMK AO2

2006/10/02 04:15
KFPK 020415Z AUTO 00000KT 10SM BKN120 07/07 A3011 RMK AO2

2006/10/02 04:12
KGLW 020412Z AUTO 00000KT 7SM CLR 12/04 A3025 RMK AO1

2006/10/02 04:15
KHAI 020415Z AUTO 00000KT 10SM OVC120 10/09 A3011 RMK AO2

2006/10/02 04:15
KLDM 020415Z AUTO 14006KT 10SM OVC110 13/08 A3004 RMK AO2

2006/10/02 04:15
KLWA 020415Z AUTO 14004KT 10SM BKN120 13/09 A3008 RMK AO2

2006/10/02 04:14
KMRJ 020414Z AUTO 17007KT 10SM CLR 18/14 A2993 RMK AO2

2006/10/02 04:16
PAAK 020416Z AUTO 00000KT 4SM FEW002 BKN021 OVC046 08/07 A2960 RMK AO1

2006/10/02 04:16
PAZK 020416Z AUTO 00000KT 10SM CLR M01/M03 A2979 RMK AO1

2006/10/02 04:16
PFYU 020416Z 02003KT 10SM SCT070 01/M01 A2974 RMK AO1

2006/10/02 04:16
PAAK 020416Z AUTO 00000KT 4SM FEW002 BKN021 OVC046 08/07 A2960 RMK AO1

2006/10/02 04:16
PABV 020416Z AUTO 10SM BKN085 06/03 A2978 RMK AO1

2006/10/02 04:16
PADU 020416Z 22015G24KT 190V250 10SM BKN031 BKN047 09/04 A2967 RMK AO1 0350 WEA

2006/10/02 04:16
PAEM 020416Z AUTO 05007KT 10SM SCT011 BKN015 OVC022 07/06 A2953 RMK AO1

2006/10/02 04:16
PAFE 020416Z AUTO 00000KT 10SM OVC050 06/03 A3014 RMK AO1

2006/10/02 04:16
PAFM 020416Z AUTO 03003KT 10SM BKN022 OVC027 02/01 A2973 RMK AO1

2006/10/02 04:16
PAGL 020416Z AUTO 10SM OVC038 06/02 A2965 RMK AO1

2006/10/02 04:16
PAGS 020416Z AUTO 14004KT 10SM OVC025 08/03 A3013 RMK AO1

2006/10/02 04:16
PAHL 020416Z AUTO 09006KT 10SM FEW001 SCT008 OVC014 03/01 A2964 RMK AO1

2006/10/02 04:16
PAHP 020416Z AUTO 06007KT 9SM FEW018 OVC027 09/07 A2949 RMK AO1 TSNO

2006/10/02 04:16
PAHY 020416Z AUTO 00000KT 10SM CLR 07/06 A3014 RMK AO1

2006/10/02 04:16
PAII 020416Z AUTO 12016G23KT 9SM OVC004 08/07 A2943 RMK AO1 P0001

2006/10/02 04:16
PAIN 020416Z AUTO 16004KT 10SM FEW048 BKN065 OVC075 03/M02 A2977 RMK AO1

2006/10/02 04:16
PAKK 020416Z AUTO 01009KT 10SM OVC026 04/01 A2962 RMK AO1

2006/10/02 04:16
PAKP 020416Z AUTO 19007KT 10SM FEW003 OVC040 M01/M02 A2966 RMK AO1

2006/10/02 04:16
PAMD 020416Z AUTO 14015G19KT 5SM SCT009 BKN015 OVC060 09/08 A2988 RMK AO1 P0001

2006/10/02 04:16
PAMH 020416Z AUTO 11003KT 10SM BKN070 BKN100 03/00 A2971 RMK AO1

2006/10/02 04:16
PAMM 020416Z AUTO 00000KT 10SM CLR 07/04 A3015 RMK AO1

2006/10/02 04:16
PANI 020416Z AUTO 11011KT 10SM FEW032 BKN046 OVC050 09/04 A2952 RMK AO1

2006/10/02 04:16
PANV 020416Z 03005KT 10SM OVC001 06/06 A2956 RMK AO1

2006/10/02 04:16
PAPG 020416Z 00000KT 10SM BKN050 06/04 A3015 RMK AO1 WEA

2006/10/02 04:16
PAPH 020416Z AUTO 23016G20KT 8SM FEW003 SCT009 OVC014 09/08 A2947 RMK AO1

2006/10/02 04:16
PAPO 020416Z AUTO 35018KT 10SM BKN019 OVC025 03/00 A2975 RMK AO1

2006/10/02 04:16
PARC 020416Z AUTO 23006KT 10SM FEW031 SCT037 BKN049 M01/M04 A2965 RMK AO1

2006/10/02 04:16
PASA 020416Z AUTO 05020G24KT 2 1/2SM OVC006 04/02 A2963 RMK AO1

2006/10/02 04:16
PASD 020416Z 25015G22KT 7SM SCT020 BKN030 OVC037 10/07 A2954 RMK AO1 WEA

2006/10/02 04:16
PASH 020416Z AUTO 02013KT OVC021 04/01 A2975 RMK AO1

2006/10/02 04:16
PASK 020416Z AUTO 03005KT 10SM SCT003 OVC016 04/02 A2971 RMK AO1

2006/10/02 04:16
PASL 020416Z AUTO 00000KT 9SM OVC048 07/06 A2962 RMK AO1 TSNO

2006/10/02 04:16
PASM 020416Z AUTO 09010KT 10SM FEW036 OVC043 07/04 A2953 RMK AO1

2006/10/02 04:16
PATG 020416Z AUTO 04007KT 7SM FEW001 SCT013 OVC018 09/07 A2940 RMK AO1

2006/10/02 04:16
PAUN 020416Z AUTO 07011KT 5SM OVC030 05/03 A2962 RMK AO1

2006/10/02 04:16
PAVD 020416Z 00000KT 10SM FEW030 OVC050 05/04 A2998 RMK AO1 0347Z WEA

2006/10/02 04:16
PAWG 020416Z 15006KT 10SM SCT037 BKN050 06/02 A3014 RMK AO1 WEA

2006/10/02 04:15
KACQ 020415Z AUTO 17006KT 10SM CLR 21/13 A2980 RMK AO2

2006/10/02 04:00
GABS 020400Z 17002KT CAVOK 24/23 Q1012 NOSIG

2006/10/02 04:00
GQNN 020400Z 36006KT 8000 SKC 27/19 Q1009 NOSIG

2006/10/02 04:00
GQPP 020400Z 33007KT CAVOK 23/19 Q1011 NOSIG

2006/10/02 04:15
PHTO 020415Z 18003KT 8SM -RA FEW025 SCT030 BKN035 24/22 A2997 RMK AO2 P0000

2006/10/02 04:16
PADK 020416Z AUTO 35003KT 4SM FEW027 FEW032 BKN047 09/07 A2957 RMK AO1

2006/10/02 04:15
KCLI 020415Z AUTO 11003KT 10SM CLR 11/09 A2995 RMK AO2

2006/10/02 04:15
KLYV 020415Z AUTO 00000KT 10SM CLR 12/11 A2977 RMK AO2

2006/10/02 04:15
KPZQ 020415Z AUTO 17003KT 10SM SCT110 04/03 A3010 RMK AO2

2006/10/02 04:00
YBCG 020400Z AUTO 01013KT 9999NDV // NCD 23/16 Q1016

2006/10/02 04:00
YBMA 020400Z 07008KT CAVOK 33/02 Q1015

2006/10/02 04:00
YBRK 020400Z 13009KT CAVOK 28/04 Q1016

2006/10/02 04:00
YBRM 020400Z 29012KT CAVOK 31/21 Q1010

2006/10/02 04:00
YMHB 020400Z AUTO 31009KT 9999NDV // SCT061 BKN071 17/02 Q1015

2006/10/02 04:00
YMML 020400Z 18011KT 9999 FEW035 BKN240 16/05 Q1022 RMK HZ NOSIG

2006/10/02 04:00
YPAD 020400Z 23013KT CAVOK 17/10 Q1023

2006/10/02 04:00
YPDN 020400Z 30012KT CAVOK 30/19 Q1011

2006/10/02 04:00
YPEA 020400Z AUTO 20003KT 9999NDV // NCD 25/08 Q1011

2006/10/02 04:00
YPPD 020400Z 02015KT CAVOK 29/23 Q1010

2006/10/02 04:00
YSCB 020400Z 27015KT CAVOK 26/03 Q1016

2006/10/02 04:00
YSDU 020400Z AUTO 24012G23KT //// // ////// 30/M02 Q1017

2006/10/02 04:00
YSNF 020400Z AUTO 24016KT 9999NDV // SCT032 19/09 Q1014

2006/10/02 04:00
YSRI 020400Z AUTO 12004KT 9999NDV // NCD 29/03 Q1014

2006/10/02 04:30
ZMUB 020430Z VRB02MPS 9999 FEW033 16/04 Q1020 NOSIG RMK QFE655 6 46 MOP

2006/10/02 04:00
GVAC 020400Z 01005KT 9999 FEW014 SCT200 26/25 Q1012 NOSIG

2006/10/02 04:15
KANE 020415Z AUTO 13004KT 10SM CLR 19/13 A2976 RMK AO2

2006/10/02 04:15
KAQP 020415Z AUTO 00000KT 10SM CLR 14/13 A2971 RMK AO2

2006/10/02 04:15
KAUM 020415Z AUTO 00000KT 10SM CLR 22/12 A2981 RMK AO2 LTG DSNT E

2006/10/02 04:15
KBBB 020415Z AUTO 00000KT 10SM CLR 14/12 A2972 RMK AO2

2006/10/02 04:15
KCBG 020415Z AUTO 15006KT 10SM CLR 20/12 A2975 RMK AO2

2006/10/02 04:15
KCFE 020415Z AUTO 14003KT 10SM CLR 20/12 A2974 RMK AO2 T01980119

2006/10/02 04:15
KCKC 020415Z AUTO 00000KT 10SM CLR 08/06 A2982 RMK AO2

2006/10/02 04:15
KCLI 020415Z AUTO 11003KT 10SM CLR 11/09 A2995 RMK AO2

2006/10/02 04:15
KCMY 020415Z AUTO 11003KT 10SM CLR 16/11 A2988 RMK AO2 LTG DSNT NE AND E

2006/10/02 04:15
KCNB 020415Z AUTO 25003KT 10SM CLR 14/12 A2974 RMK AO2

2006/10/02 04:15
KHCO 020415Z AUTO 01007KT 10SM CLR 13/08 A2968 RMK AO2

2006/10/02 04:15
KJMR 020415Z AUTO 00000KT 10SM CLR 12/09 A2976 RMK AO2

2006/10/02 04:15
KJYG 020415Z AUTO 17005KT 10SM CLR 20/14 A2975 RMK AO2

2006/10/02 04:15
KLJF 020415Z AUTO 00000KT 10SM CLR 17/13 A2975 RMK AO2

2006/10/02 04:15
KLVN 020415Z AUTO 00000KT 10SM CLR 19/13 A2976 RMK AO2

2006/10/02 04:14
KLXL 020414Z AUTO 00000KT 10SM CLR 14/11 A2974 RMK AO2

2006/10/02 04:15
KLYV 020415Z AUTO 00000KT 10SM CLR 12/11 A2977 RMK AO2

2006/10/02 04:14
KMGG 020414Z AUTO 16004KT 10SM CLR 18/11 A2974 RMK AO2

2006/10/02 04:15
KOZW 020415Z AUTO 00000KT 10SM CLR 08/07 A3011 RMK AO2

2006/10/02 04:15
KPZQ 020415Z AUTO 17003KT 10SM SCT110 04/03 A3010 RMK AO2

2006/10/02 04:15
KRQB 020415Z AUTO 00000KT 10SM BKN110 08/08 A3008 RMK AO2

2006/10/02 04:17
KSAW 020417Z AUTO 18010KT 10SM CLR 11/09 A2996 RMK AO2 LTG DSNT SW

2006/10/02 04:16
KSLH 020416Z AUTO 00000KT 10SM BKN110 08/06 A3007 RMK AO2

2006/10/02 04:16
KSME 020416Z AUTO 00000KT 10SM CLR 12/12 A3025 RMK AO2

2006/10/02 04:17
K5SM 020417Z AUTO 00000KT 10SM CLR 07/M06 A3044 RMK AO2

2006/10/02 04:15
KCOQ 020415Z AUTO 12003KT 10SM CLR 09/09 A2976 RMK AO2

2006/10/02 04:15
KCQM 020415Z AUTO 00000KT 10SM CLR 12/09 A2975 RMK AO2

2006/10/02 04:17
KCWA 020417Z AUTO 14006KT 10SM CLR 13/09 A2991 RMK AO2

2006/10/02 04:15
KDLL 020415Z AUTO 09005KT 10SM CLR 15/11 A2992 RMK AO2

2006/10/02 04:13
KDTL 020413Z AUTO 21003KT 10SM CLR 16/11 A2973 RMK AO2

2006/10/02 04:15
KEGV 020415Z AUTO 17003KT 10SM CLR 12/09 A2988 RMK AO2

2006/10/02 04:15
KMJQ 020415Z AUTO 21005KT 10SM CLR 21/16 A2978 RMK AO2

2006/10/02 04:15
KMOX 020415Z AUTO 00000KT 10SM CLR 17/13 A2971 RMK AO2

2006/10/02 04:15
KMVE 020415Z AUTO 27004KT 10SM CLR 19/12 A2972 RMK AO2

2006/10/02 04:15
KMWM 020415Z AUTO 18005KT 10SM CLR 18/14 A2976 RMK AO2

2006/10/02 04:16
KOEB 020416Z AUTO 00000KT 10SM CLR 08/07 A3012 RMK AO2

2006/10/02 04:15
KONA 020415Z AUTO 00000KT 10SM CLR 16/12 A2981 RMK AO2 LTG DSNT E

2006/10/02 04:15
KORB 020415Z AUTO 00000KT 10SM CLR 12/10 A2972 RMK AO2

2006/10/02 04:15
KOVL 020415Z AUTO 17005KT 10SM CLR 16/13 A2974 RMK AO2

2006/10/02 04:15
KOWA 020415Z AUTO 15010KT 10SM CLR 22/12 A2978 RMK AO2

2006/10/02 04:13
KUVA 020413Z AUTO 14007KT 10SM SCT049 26/22 A3009 RMK AO2

2006/10/02 04:16
KVLL 020416Z AUTO 00000KT 10SM CLR 11/08 A3013 RMK AO2

2006/10/02 04:16
KARB 020416Z AUTO 00000KT 1/4SM FG VV001 04/04 A3012 RMK AO2

2006/10/02 04:16
PAOU 020416Z AUTO 24017KT 3/4SM -RA BR FEW004 OVC010 09/08 A2949 RMK AO2 TSNO P0000 $

2006/10/02 04:17
KMFI 020417Z AUTO 17004KT 10SM FEW095 14/11 A2989 RMK AO2 LTG DSNT E AND SE TSE11

2006/10/02 04:15
KADC 020415Z AUTO 00000KT 10SM CLR 11/09 A2972 RMK AO2

2006/10/02 04:15
KAEL 020415Z AUTO 16005KT 10SM CLR 21/12 A2980 RMK AO2

2006/10/02 04:15
KAIG 020415Z AUTO 14008KT 10SM CLR 11/09 A2992 RMK AO2

2006/10/02 04:15
KAIT 020415Z AUTO 14005KT 10SM CLR 15/14 A2973 RMK AO2

2006/10/02 04:14
KARV 020414Z AUTO 15006KT 10SM CLR 15/07 A2989 RMK AO2

2006/10/02 04:16
KISQ 020416Z AUTO 14008KT 10SM SCT110 12/09 A3002 RMK AO2

2006/10/02 04:15
KJKJ 020415Z AUTO 25005KT 10SM CLR 15/12 A2970 RMK AO2

2006/10/02 04:17
KLCK 020417Z AUTO 00000KT 10SM CLR 12/09 A3017 RMK AO2

2006/10/02 04:15
KMOP 020415Z AUTO 00000KT 10SM SCT120 06/06 A3009 RMK AO2

2006/10/02 04:16
KMZH 020416Z AUTO 04003KT 10SM CLR 11/10 A2975 RMK AO2

2006/10/02 04:16
KPHN 020416Z AUTO 00000KT 1/2SM FG VV005 05/04 A3014 RMK AO2

2006/10/02 04:15
KANE 020415Z AUTO 13004KT 10SM CLR 19/13 A2976 RMK AO2

2006/10/02 04:15
KAQP 020415Z AUTO 00000KT 10SM CLR 14/13 A2971 RMK AO2

2006/10/02 04:15
KAUM 020415Z AUTO 00000KT 10SM CLR 22/12 A2981 RMK AO2 LTG DSNT E

2006/10/02 04:15
KBBB 020415Z AUTO 00000KT 10SM CLR 14/12 A2972 RMK AO2

2006/10/02 04:15
KCBG 020415Z AUTO 15006KT 10SM CLR 20/12 A2975 RMK AO2

2006/10/02 04:15
KCFE 020415Z AUTO 14003KT 10SM CLR 20/12 A2974 RMK AO2 T01980119

2006/10/02 04:15
KCKC 020415Z AUTO 00000KT 10SM CLR 08/06 A2982 RMK AO2

2006/10/02 04:15
KCMY 020415Z AUTO 11003KT 10SM CLR 16/11 A2988 RMK AO2 LTG DSNT NE AND E

2006/10/02 04:15
KCNB 020415Z AUTO 25003KT 10SM CLR 14/12 A2974 RMK AO2

2006/10/02 04:15
KHCO 020415Z AUTO 01007KT 10SM CLR 13/08 A2968 RMK AO2

2006/10/02 04:15
KJMR 020415Z AUTO 00000KT 10SM CLR 12/09 A2976 RMK AO2

2006/10/02 04:15
KJYG 020415Z AUTO 17005KT 10SM CLR 20/14 A2975 RMK AO2

2006/10/02 04:15
KLJF 020415Z AUTO 00000KT 10SM CLR 17/13 A2975 RMK AO2

2006/10/02 04:15
KLVN 020415Z AUTO 00000KT 10SM CLR 19/13 A2976 RMK AO2

2006/10/02 04:14
KLXL 020414Z AUTO 00000KT 10SM CLR 14/11 A2974 RMK AO2

2006/10/02 04:14
KMGG 020414Z AUTO 16004KT 10SM CLR 18/11 A2974 RMK AO2

2006/10/02 04:15
KOZW 020415Z AUTO 00000KT 10SM CLR 08/07 A3011 RMK AO2

2006/10/02 04:15
KRQB 020415Z AUTO 00000KT 10SM BKN110 08/08 A3008 RMK AO2

2006/10/02 04:17
KSAW 020417Z AUTO 18010KT 10SM CLR 11/09 A2996 RMK AO2 LTG DSNT SW

2006/10/02 04:16
KSLH 020416Z AUTO 00000KT 10SM BKN110 08/06 A3007 RMK AO2

2006/10/02 04:16
KSME 020416Z AUTO 00000KT 10SM CLR 12/12 A3025 RMK AO2

2006/10/02 04:17
K5SM 020417Z AUTO 00000KT 10SM CLR 07/M06 A3044 RMK AO2

2006/10/02 04:15
KCOQ 020415Z AUTO 12003KT 10SM CLR 09/09 A2976 RMK AO2

2006/10/02 04:15
KCQM 020415Z AUTO 00000KT 10SM CLR 12/09 A2975 RMK AO2

2006/10/02 04:17
KCWA 020417Z AUTO 14006KT 10SM CLR 13/09 A2991 RMK AO2

2006/10/02 04:15
KDLL 020415Z AUTO 09005KT 10SM CLR 15/11 A2992 RMK AO2

2006/10/02 04:13
KDTL 020413Z AUTO 21003KT 10SM CLR 16/11 A2973 RMK AO2

2006/10/02 04:15
KEGV 020415Z AUTO 17003KT 10SM CLR 12/09 A2988 RMK AO2

2006/10/02 04:15
KMJQ 020415Z AUTO 21005KT 10SM CLR 21/16 A2978 RMK AO2

2006/10/02 04:15
KMOX 020415Z AUTO 00000KT 10SM CLR 17/13 A2971 RMK AO2

2006/10/02 04:15
KMVE 020415Z AUTO 27004KT 10SM CLR 19/12 A2972 RMK AO2

2006/10/02 04:15
KMWM 020415Z AUTO 18005KT 10SM CLR 18/14 A2976 RMK AO2

2006/10/02 04:16
KOEB 020416Z AUTO 00000KT 10SM CLR 08/07 A3012 RMK AO2

2006/10/02 04:15
KONA 020415Z AUTO 00000KT 10SM CLR 16/12 A2981 RMK AO2 LTG DSNT E

2006/10/02 04:15
KORB 020415Z AUTO 00000KT 10SM CLR 12/10 A2972 RMK AO2

2006/10/02 04:15
KOVL 020415Z AUTO 17005KT 10SM CLR 16/13 A2974 RMK AO2

2006/10/02 04:15
KOWA 020415Z AUTO 15010KT 10SM CLR 22/12 A2978 RMK AO2

2006/10/02 04:13
KUVA 020413Z AUTO 14007KT 10SM SCT049 26/22 A3009 RMK AO2

2006/10/02 04:16
KVLL 020416Z AUTO 00000KT 10SM CLR 11/08 A3013 RMK AO2

2006/10/02 04:00
DIAP 020400Z 21005KT 8000 SCT011 BKN030 25/25 Q1012 NOSIG

2006/10/02 04:15
KOFP 020415Z AUTO 00000KT 1 3/4SM BR CLR 12/11 A3018 RMK AO2 VIS 3/4V5

2006/10/02 04:15
KWST 020415Z AUTO 33003KT 10SM SCT017 13/12 A3000 RMK AO2

2006/10/02 04:14
PACM 020414Z AUTO 11004KT 1 1/4SM -RA BR BKN009 BKN017 OVC025 08/07 A2951 RMK AO2 TSNO CIG 006V013 RAB04 P0000

2006/10/02 04:14
PACM 020414Z AUTO 11004KT 1 1/4SM -RA BR BKN009 BKN017 OVC025 08/07 A2951 RMK AO2 TSNO CIG 006V013 RAB04 P0000

2006/10/02 04:16
KARB 020416Z AUTO 00000KT 1/4SM FG VV001 04/04 A3012 RMK AO2

2006/10/02 04:17
KMFI 020417Z AUTO 17004KT 10SM FEW095 14/11 A2989 RMK AO2 LTG DSNT E AND SE TSE11

2006/10/02 04:00
CMGB 020400Z AUTO 14001KT 10/09 RMK AO1 T01020085

2006/10/02 04:00
CMRY 020400Z AUTO 24002KT 11/11 RMK AO1 2PAST HR M P0000 T01080108 50022

2006/10/02 04:00
CMSB 020400Z AUTO 14004KT 10/10 RMK AO1 T01010097 50014

2006/10/02 04:00
CWBU 020400Z AUTO 01008KT 08/02 RMK AO1 SLP091 T00820024 51026

2006/10/02 04:00
CZEV 020400Z AUTO 09006KT 01/M00 RMK AO1 SLP082 T00061002 56002

2006/10/02 04:00
CZFS 020400Z AUTO 27001KT 03/01 RMK AO1 SLP124 T00290013 51006

2006/10/02 04:00
CZHY 020400Z AUTO 35007KT 06/M00 RMK AO1 SLP118 T00581003 52016

2006/10/02 04:00
CZSM 020400Z AUTO 29004KT 06/04 RMK AO1 SLP094 T00580038 52017

2006/10/02 04:15
KFME 020415Z AUTO 00000KT 5SM CLR 11/10 A3018 RMK AO1

2006/10/02 04:00
VTBO 020400Z 25008KT 7000 SCT015 BKN100 BKN300 28/24 Q1006

2006/10/02 04:00
VTCH 020400Z 02004KT 8000 FEW030 29/22 Q1008 A2977

2006/10/02 04:00
VTCN 020400Z 02005KT 8000 SCT025 31/25 Q1007 A2974 RWY 02 IN USED

2006/10/02 04:00
VTCP 020400Z 03005KT 3000 BR FEW022 BKN120 OVC300 31/24 Q1006 RMK/RWY 01 /INFO A

2006/10/02 04:00
VTPH 020400Z 30002KT 9999 SCT030 BKN100 OVC300 31/23 Q1006

2006/10/02 04:00
VTPO 020400Z 30004KT 2500 BR FEW021 BKN120 31/26 Q1006

2006/10/02 04:00
VTPP 020400Z 10004KT 5000 BR BKN022 BKN120 30/26 Q1005

2006/10/02 04:00
VTSB 020400Z 20012KT 7000 SCT020 BKN120 OVC300 30/26 1009 A2982 RERA

2006/10/02 04:00
VTSC 020400Z 20009KT 9999 FEW025 SCT300 29/21 Q1009 A2979 RWY20 INFO H

2006/10/02 04:00
VTSG 020400Z 23006KT 7000 FEW018 SCT120 BKN300 24/23 Q1010 A2984 RWY32 INFO Z

2006/10/02 04:00
VTSM 020400Z 24008KT 9999 FEW020TCU BKN110 29/23 Q1009 A2982 RERA TCU SW

2006/10/02 04:00
VTUD 020400Z 30005KT 4000 -RA BR FEW020 SCT030 BKN100 26/24 Q1004 A2967 INFOF RWY30

2006/10/02 04:00
VTUK 020400Z 36008KT 8000 -RA SCT010 BKN020 OVC100 24/24 Q1003 A2964 INFOF

2006/10/02 04:00
VTUU 020400Z 19006KT 5000 -RA SCT012 BKN016 OVC100 25/24 Q1001 A2957

2006/10/02 04:00
YAMB 020400Z 05003KT CAVOK 28/12 Q1016 FM0500 05013KT CAVOK

2006/10/02 04:00
YBHM 020400Z AUTO 11014KT //// // ////// 25/17 Q1017

2006/10/02 04:00
YCIN 020400Z AUTO 03003KT //// // ////// 39/13 Q1009

2006/10/02 04:00
YFRT 020400Z AUTO 10010KT //// // ////// 26/M01 Q1019

2006/10/02 04:00
YMAV 020400Z AUTO 19008KT 9999NDV // NCD 17/07 Q1022

2006/10/02 04:00
YMLT 020400Z AUTO 30009KT 9999NDV // NCD 17/05 Q1016

2006/10/02 04:00
YPGV 020400Z 08014KT 9999 FEW023 SCT100 28/17 Q1011

2006/10/02 04:00
YPKG 020400Z 07010KT CAVOK 30/03 Q1014

2006/10/02 04:00
FIMR 020400Z 10016KT 9999 FEW020 BKN050 24/16 Q1021

2006/10/02 04:00
WBSB 020400Z 07006KT 4000 HZ SCT016 BKN140 28/24 Q1009 RESH NOSIG

2006/10/02 04:00
UIUU 020400Z 00000MPS 9999 FEW100 BKN200 13/03 Q1013 NOSIG RMK QFE715/0954 ULAN-UD| WOSTO4NYJ 020400Z 27005MPS 9999 FEW100 BKN200 13/03 Q1013 RMK QFE714/0952

2006/10/02 04:00
WSSL 020400Z 19009KT 5000 HZ FEW020TCU BKN300 32/21 Q1011

2006/10/02 04:18
KBFD 020418Z AUTO 00000KT 3SM BR CLR 04/04 A3014 RMK AO2

2006/10/02 04:17
KDXR 020417Z AUTO 25003KT 1 1/2SM BR FEW001 08/08 A3005 RMK AO2 P0001

2006/10/02 04:17
KGFL 020417Z AUTO 00000KT 1/2SM FG OVC001 10/10 A3002 RMK AO2 CIG 001V005

2006/10/02 04:17
KYIP 020417Z 00000KT 3/4SM BR CLR 07/07 A3013 RMK AO2

2006/10/02 04:16
PACM 020416Z AUTO 11004KT 2SM -RA BR BKN009 BKN017 OVC025 08/07 A2951 RMK AO2 TSNO CIG 006V013 RAB04 P0000

2006/10/02 04:16
PACM 020416Z AUTO 11004KT 2SM -RA BR BKN009 BKN017 OVC025 08/07 A2951 RMK AO2 TSNO CIG 006V013 RAB04 P0000

2006/10/02 04:16
PAMB 020416Z AUTO 08012G17KT 2 1/2SM BR FEW004 OVC012 08/07 A2943 RMK AO2 PWINO TSNO P0002 $

2006/10/02 04:16
PAVD 020416Z 00000KT 10SM FEW030 OVC050 05/04 A2998

2006/10/02 04:16
PAWG 020416Z 15006KT 10SM SCT037 BKN050 06/02 A3014

2006/10/02 04:16
PFYU 020416Z 02003KT 10SM SCT070 01/M01 A2974

2006/10/02 04:15
KFOZ 020415Z AUTO 00000KT 10SM CLR 12/09 A2974 RMK AO2

2006/10/02 04:15
KFSE 020415Z AUTO 21003KT 10SM CLR 16/11 A2969 RMK AO2

2006/10/02 04:14
KGDB 020414Z AUTO 23004KT 7SM CLR 13/11 A2974 RMK AO2

2006/10/02 04:15
KGHW 020415Z AUTO 00000KT 10SM CLR 18/13 A2973 RMK AO2

2006/10/02 04:16
KHCD 020416Z AUTO 00000KT 10SM CLR 16/13 A2974 RMK AO2

2006/10/02 04:17
KHZX 020417Z AUTO 14003KT 10SM CLR 14/11 A2975 RMK AO2

2006/10/02 04:14
KHZX 020414Z AUTO 14003KT 10SM CLR 13/10 A2975 RMK AO2

2006/10/02 04:17
KIRS 020417Z AUTO 16003KT 10SM SCT120 12/07 A3012 RMK AO2

2006/10/02 04:17
KJVL 020417Z AUTO 18007KT 10SM CLR 20/11 A2995 RMK AO2

2006/10/02 04:18
KJYM 020418Z AUTO 00000KT 10SM CLR 07/04 A3013 RMK AO2

2006/10/02 04:15
KMDZ 020415Z AUTO 15009KT 10SM CLR 16/11 A2988 RMK AO2

2006/10/02 04:15
KMWC 020415Z AUTO 17018G23KT 10SM BKN095 OVC110 17/10 A3000 RMK AO2

2006/10/02 04:15
KOEO 020415Z AUTO 16003KT 10SM CLR 20/12 A2978 RMK AO2

2006/10/02 04:15
KPBH 020415Z AUTO 16007KT 10SM CLR 16/10 A2987 RMK AO2 LTG DSNT SE

2006/10/02 04:15
KPCZ 020415Z AUTO 11004KT 10SM CLR 11/08 A2993 RMK AO2

2006/10/02 04:17
KPWC 020417Z AUTO 00000KT 10SM CLR 13/12 A2973 RMK AO2

2006/10/02 04:16
KSYN 020416Z AUTO 18005KT 10SM CLR 21/12 A2975 RMK AO2

2006/10/02 04:07
KVWU 020407Z AUTO 00000KT 10SM CLR 16/12 A2969 RMK AO2

2006/10/02 04:17
KACB 020417Z AUTO 00000KT 10SM BKN110 06/05 A3004 RMK AO2

2006/10/02 04:17
KAMN 020417Z AUTO 00000KT 10SM SCT110 06/06 A3008 RMK AO2

2006/10/02 04:17
KBAX 020417Z AUTO 15003KT 10SM CLR 06/05 A3010 RMK AO2

2006/10/02 04:15
KDVP 020415Z AUTO 00000KT 10SM CLR 16/12 A2979 RMK AO2

2006/10/02 04:15
KDXX 020415Z AUTO 25003KT 10SM CLR 15/12 A2973 RMK AO2

2006/10/02 04:15
KDYT 020415Z AUTO 02006KT 10SM CLR 13/11 A2976 RMK AO2

2006/10/02 04:15
KELO 020415Z AUTO 16004KT 10SM CLR 10/07 A2975 RMK AO2

2006/10/02 04:15
KETH 020415Z AUTO 00000KT 10SM CLR 16/13 A2973 RMK AO2

2006/10/02 04:15
KEVM 020415Z AUTO 04003KT 10SM CLR 07/05 A2977 RMK AO2

2006/10/02 04:15
KFFM 020415Z AUTO 00000KT 10SM CLR 18/12 A2972 RMK AO2

2006/10/02 04:15
KFGN 020415Z AUTO 33010KT 10SM CLR 17/11 A2969 RMK AO2

2006/10/02 04:16
KFKA 020416Z AUTO 20011KT 10SM CLR 21/10 A2984 RMK AO2 LTG DSNT E

2006/10/02 04:15
KPNM 020415Z AUTO 00000KT 10SM CLR 15/12 A2974 RMK AO2

2006/10/02 04:15
KPQN 020415Z AUTO 00000KT 10SM CLR 18/13 A2978 RMK AO2

2006/10/02 04:17
KPQN 020417Z AUTO 00000KT 10SM CLR 18/13 A2977 RMK AO2

2006/10/02 04:16
KRYV 020416Z AUTO 13010G20KT 10SM CLR 16/10 A2998 RMK AO2

2006/10/02 04:15
PHTO 020415Z 18003KT 8SM -RA FEW025 SCT030 BKN035 24/22 A2997

2006/10/02 04:16
PADK 020416Z AUTO 35003KT 4SM FEW027 FEW032 BKN047 09/07 A2957

2006/10/02 04:15
KPQI 020415Z AUTO 01004KT 10SM FEW026 SCT034 BKN044 10/04 A3007

2006/10/02 04:15
KMYR 020415Z AUTO 05003KT 10SM CLR 21/16 A3014

2006/10/02 04:16
KPHN 020416Z AUTO 00000KT 1/2SM FG VV005 05/04 A3014

2006/10/02 04:17
KSAW 020417Z AUTO 18010KT 10SM CLR 11/09 A2996

2006/10/02 04:15
KDVL 020415Z AUTO 32009KT 10SM CLR 14/04 A2974

2006/10/02 04:15
KEAR 020415Z AUTO 00000KT 10SM CLR 16/08 A2982

2006/10/02 04:15
KGPZ 020415Z AUTO 15006KT 10SM CLR 15/09 A2974

2006/10/02 04:15
KUDG 020415Z AUTO 00000KT 10SM CLR 15/14 A3018

2006/10/02 04:15
KBFW 020415Z AUTO 00000KT 10SM CLR 07/06 A2976 RMK AO2

2006/10/02 04:17
KCVX 020417Z AUTO 12005KT 10SM SCT110 08/06 A3006 RMK AO2

2006/10/02 04:18
KGYL 020418Z AUTO 00000KT 10SM CLR 19/12 A2974 RMK AO2

2006/10/02 04:19
KHYX 020419Z AUTO 14004KT 10SM CLR 09/07 A3009 RMK AO2

2006/10/02 04:17
KLUM 020417Z AUTO 10005KT 10SM CLR 16/12 A2981 RMK AO2 LTG DSNT E

2006/10/02 04:18
KMCD 020418Z AUTO 00000KT 10SM -RA OVC100 12/09 A3008 RMK AO2

2006/10/02 04:18
KMYP 020418Z AUTO 25018G21KT 10SM CLR 10/M03 A3062 RMK AO2

2006/10/02 04:17
KOSC 020417Z AUTO 00000KT 10SM CLR 04/02 A3010 RMK AO2

2006/10/02 04:15
KPDC 020415Z AUTO 17006KT 10SM CLR 25/10 A2986 RMK AO2

2006/10/02 04:15
KPEX 020415Z AUTO 00000KT 10SM CLR 15/12 A2974 RMK AO2

2006/10/02 04:15
KRCX 020415Z AUTO 14005KT 10SM CLR 16/11 A2985 RMK AO2 LTG DSNT SE

2006/10/02 04:15
KRGK 020415Z AUTO 10005KT 10SM CLR 21/12 A2978 RMK AO2

2006/10/02 04:18
KRMY 020418Z AUTO 00000KT 10SM BKN120 09/07 A3011 RMK AO2

2006/10/02 04:15
KRNH 020415Z AUTO 14006KT 10SM CLR 19/11 A2979 RMK AO2

2006/10/02 04:16
KROS 020416Z AUTO 15006KT 10SM CLR 17/11 A2975 RMK AO2

2006/10/02 04:15
KROX 020415Z AUTO 32004KT 10SM CLR 16/12 A2968 RMK AO2

2006/10/02 04:15
KRPD 020415Z AUTO 14006KT 10SM CLR 16/11 A2981 RMK AO2 LTG DSNT SE

2006/10/02 04:15
KRRL 020415Z AUTO 14003KT 10SM CLR 13/08 A2991 RMK AO2 LTG DSNT SE AND S

2006/10/02 04:15
KRRT 020415Z AUTO 32009KT 10SM CLR 17/11 A2970 RMK AO2

2006/10/02 04:15
KADU 020415Z AUTO 19009KT 10SM CLR 23/14 A2984 RMK AO2

2006/10/02 04:15
KAIO 020415Z AUTO 19010G14KT 10SM CLR 23/15 A2986 RMK AO2

2006/10/02 04:15
KAXA 020415Z AUTO 19007KT 10SM CLR 21/16 A2978 RMK AO2

2006/10/02 04:15
KBNW 020415Z AUTO 18008KT 10SM CLR 23/16 A2984 RMK AO2

2006/10/02 04:15
KCAV 020415Z AUTO 18012KT 10SM CLR 22/13 A2981 RMK AO2

2006/10/02 04:15
KCBF 020415Z AUTO 19004G22KT 10SM CLR 28/16 A2983 RMK AO2

2006/10/02 04:15
KCCY 020415Z AUTO 18008KT 10SM CLR 22/13 A2984 RMK AO2

2006/10/02 04:15
KCIN 020415Z AUTO 19009G16KT 10SM CLR 25/16 A2981 RMK AO2

2006/10/02 04:15
KCKP 020415Z AUTO 00000KT 10SM CLR 22/15 A2976 RMK AO2

2006/10/02 04:15
KCNC 020415Z AUTO 18014G19KT 10SM CLR 24/17 A2990 RMK AO2

2006/10/02 04:15
KCSQ 020415Z AUTO 19014KT 10SM CLR 23/17 A2989 RMK AO2

2006/10/02 04:15
KDEH 020415Z AUTO 18009G18KT 10SM CLR 24/06 A2987 RMK AO2

2006/10/02 04:15
KDNS 020415Z AUTO 17011G16KT 10SM CLR 23/16 A2983 RMK AO2

2006/10/02 04:15
KEBS 020415Z AUTO 17008KT 10SM CLR 21/15 A2982 RMK AO2

2006/10/02 04:15
KEOK 020415Z AUTO 19015G20KT 10SM CLR 25/13 A2998 RMK AO2

2006/10/02 04:15
KFFL 020415Z AUTO 19013G18KT 10SM CLR 25/12 A2994 RMK AO2

2006/10/02 04:15
KFSW 020415Z AUTO 19007KT 10SM CLR 24/11 A2998 RMK AO2

2006/10/02 04:15
KGGI 020415Z AUTO 17011KT 10SM CLR 22/11 A2989 RMK AO2

2006/10/02 04:15
KHNR 020415Z AUTO 19009KT 10SM CLR 25/16 A2986 RMK AO2

2006/10/02 04:15
KICL 020415Z AUTO 19008KT 10SM CLR 24/17 A2987 RMK AO2

2006/10/02 04:15
KIIB 020415Z AUTO 18008KT 10SM CLR 20/10 A2988 RMK AO1

2006/10/02 04:15
KIKV 020415Z AUTO 18010KT 10SM CLR 25/16 A2986 RMK AO2

2006/10/02 04:15
KLRJ 020415Z AUTO 00000KT 10SM CLR 16/14 A2977 RMK AO2

2006/10/02 04:15
KMPZ 020415Z AUTO 18014G19KT 10SM CLR 24/10 A2996 RMK AO1

2006/10/02 04:15
KMUT 020415Z AUTO 18015G18KT 10SM CLR 24/10 A2993 RMK AO2

2006/10/02 04:00
SBLO 020400Z 34004KT 9999 FEW025 OVC100 19/19 Q1015

2006/10/02 04:00
SBSJ 020400Z 13004KT 5000 BR SCT004 BKN010 19/17 Q1018

2006/10/02 04:18
KBFD 020418Z AUTO 00000KT 3SM BR CLR 04/04 A3014 RMK AO2

2006/10/02 04:17
KDXR 020417Z AUTO 25003KT 1 1/2SM BR FEW001 08/08 A3005 RMK AO2 P0001

2006/10/02 04:17
KGFL 020417Z AUTO 00000KT 1/2SM FG OVC001 10/10 A3002 RMK AO2 CIG 001V005

2006/10/02 04:17
KYIP 020417Z 00000KT 3/4SM BR CLR 07/07 A3013 RMK AO2

2006/10/02 04:16
PACM 020416Z AUTO 11004KT 2SM -RA BR BKN009 BKN017 OVC025 08/07 A2951 RMK AO2 TSNO CIG 006V013 RAB04 P0000

2006/10/02 04:16
PACM 020416Z AUTO 11004KT 2SM -RA BR BKN009 BKN017 OVC025 08/07 A2951 RMK AO2 TSNO CIG 006V013 RAB04 P0000

2006/10/02 04:16
PAMB 020416Z AUTO 08012G17KT 2 1/2SM BR FEW004 OVC012 08/07 A2943 RMK AO2 PWINO TSNO P0002 $

2006/10/02 04:18
KELM 020418Z 29003KT 1 3/4SM BR CLR 07/07 A3011 RMK AO2 VIS 1/2V5

2006/10/02 04:19
KDXR 020419Z AUTO 00000KT 3SM BR FEW001 09/08 A3005 RMK AO2 P0001

2006/10/02 04:19
KFWN 020419Z AUTO 00000KT 1SM BR VV001 08/07 A3008 RMK AO2 VIS 1/4V4

2006/10/02 04:19
KLBT 020419Z AUTO 00000KT 1 1/4SM BR CLR 15/14 A3016 RMK AO2 TSNO

2006/10/02 04:16
KSYN 020416Z AUTO 18005KT 10SM CLR 21/12 A2975 RMK AO2

2006/10/02 04:16
KROS 020416Z AUTO 15006KT 10SM CLR 17/11 A2975 RMK AO2

2006/10/02 04:15
KCKP 020415Z AUTO 00000KT 10SM CLR 22/15 A2976 RMK AO2

2006/10/02 04:15
LMML 020415Z 00000KT 5000 BR FEW015 19/19 Q1020 TEMPO 3000 BR SCT012

2006/10/02 04:19
KALB 020419Z 00000KT 3/4SM BR FEW001 SCT070 OVC085 09/09 A3004

2006/10/02 04:17
KGFL 020417Z AUTO 00000KT 1/2SM FG OVC001 10/10 A3002

2006/10/02 04:18
KELM 020418Z 29003KT 1 3/4SM BR CLR 07/07 A3011 RMK AO2 VIS 1/2V5

2006/10/02 04:19
KDXR 020419Z AUTO 00000KT 3SM BR FEW001 09/08 A3005 RMK AO2 P0001

2006/10/02 04:19
KFWN 020419Z AUTO 00000KT 1SM BR VV001 08/07 A3008 RMK AO2 VIS 1/4V4

2006/10/02 04:19
KLBT 020419Z AUTO 00000KT 1 1/4SM BR CLR 15/14 A3016 RMK AO2 TSNO

2006/10/02 04:15
KDEH 020415Z AUTO 18009G18KT 10SM CLR 24/06 A2987 RMK AO2

2006/10/02 04:15
KDNS 020415Z AUTO 17011G16KT 10SM CLR 23/16 A2983 RMK AO2

2006/10/02 04:15
KEBS 020415Z AUTO 17008KT 10SM CLR 21/15 A2982 RMK AO2

2006/10/02 04:15
KEOK 020415Z AUTO 19015G20KT 10SM CLR 25/13 A2998 RMK AO2

2006/10/02 04:15
KFFL 020415Z AUTO 19013G18KT 10SM CLR 25/12 A2994 RMK AO2

2006/10/02 04:15
KFSW 020415Z AUTO 19007KT 10SM CLR 24/11 A2998 RMK AO2

2006/10/02 04:15
KGGI 020415Z AUTO 17011KT 10SM CLR 22/11 A2989 RMK AO2

2006/10/02 04:15
KHNR 020415Z AUTO 19009KT 10SM CLR 25/16 A2986 RMK AO2

2006/10/02 04:15
KICL 020415Z AUTO 19008KT 10SM CLR 24/17 A2987 RMK AO2

2006/10/02 04:15
KIIB 020415Z AUTO 18008KT 10SM CLR 20/10 A2988 RMK AO1

2006/10/02 04:15
KIKV 020415Z AUTO 18010KT 10SM CLR 25/16 A2986 RMK AO2

2006/10/02 04:15
KLRJ 020415Z AUTO 00000KT 10SM CLR 16/14 A2977 RMK AO2

2006/10/02 04:15
KMPZ 020415Z AUTO 18014G19KT 10SM CLR 24/10 A2996 RMK AO1

2006/10/02 04:15
KMUT 020415Z AUTO 18015G18KT 10SM CLR 24/10 A2993 RMK AO2

2006/10/02 04:19
KALB 020419Z 00000KT 3/4SM BR FEW001 SCT070 OVC085 09/09 A3004 RMK AO2 TWR VIS 10 VIS S 7

2006/10/02 04:10
VCBI 020410Z 27007KT 230V310 9999 SCT017 30/23 Q1011 NOSIG

2006/10/02 04:15
KFOZ 020415Z AUTO 00000KT 10SM CLR 12/09 A2974 RMK AO2

2006/10/02 04:15
KFSE 020415Z AUTO 21003KT 10SM CLR 16/11 A2969 RMK AO2

2006/10/02 04:14
KGDB 020414Z AUTO 23004KT 7SM CLR 13/11 A2974 RMK AO2

2006/10/02 04:15
KGHW 020415Z AUTO 00000KT 10SM CLR 18/13 A2973 RMK AO2

2006/10/02 04:16
KHCD 020416Z AUTO 00000KT 10SM CLR 16/13 A2974 RMK AO2

2006/10/02 04:17
KHZX 020417Z AUTO 14003KT 10SM CLR 14/11 A2975 RMK AO2

2006/10/02 04:14
KHZX 020414Z AUTO 14003KT 10SM CLR 13/10 A2975 RMK AO2

2006/10/02 04:17
KIRS 020417Z AUTO 16003KT 10SM SCT120 12/07 A3012 RMK AO2

2006/10/02 04:17
KJVL 020417Z AUTO 18007KT 10SM CLR 20/11 A2995 RMK AO2

2006/10/02 04:18
KJYM 020418Z AUTO 00000KT 10SM CLR 07/04 A3013 RMK AO2

2006/10/02 04:15
KMDZ 020415Z AUTO 15009KT 10SM CLR 16/11 A2988 RMK AO2

2006/10/02 04:15
KMWC 020415Z AUTO 17018G23KT 10SM BKN095 OVC110 17/10 A3000 RMK AO2

2006/10/02 04:15
KOEO 020415Z AUTO 16003KT 10SM CLR 20/12 A2978 RMK AO2

2006/10/02 04:15
KPBH 020415Z AUTO 16007KT 10SM CLR 16/10 A2987 RMK AO2 LTG DSNT SE

2006/10/02 04:15
KPCZ 020415Z AUTO 11004KT 10SM CLR 11/08 A2993 RMK AO2

2006/10/02 04:17
KPWC 020417Z AUTO 00000KT 10SM CLR 13/12 A2973 RMK AO2

2006/10/02 04:07
KVWU 020407Z AUTO 00000KT 10SM CLR 16/12 A2969 RMK AO2

2006/10/02 04:17
KACB 020417Z AUTO 00000KT 10SM BKN110 06/05 A3004 RMK AO2

2006/10/02 04:17
KAMN 020417Z AUTO 00000KT 10SM SCT110 06/06 A3008 RMK AO2

2006/10/02 04:17
KBAX 020417Z AUTO 15003KT 10SM CLR 06/05 A3010 RMK AO2

2006/10/02 04:15
KDVP 020415Z AUTO 00000KT 10SM CLR 16/12 A2979 RMK AO2

2006/10/02 04:15
KDXX 020415Z AUTO 25003KT 10SM CLR 15/12 A2973 RMK AO2

2006/10/02 04:15
KDYT 020415Z AUTO 02006KT 10SM CLR 13/11 A2976 RMK AO2

2006/10/02 04:15
KELO 020415Z AUTO 16004KT 10SM CLR 10/07 A2975 RMK AO2

2006/10/02 04:15
KETH 020415Z AUTO 00000KT 10SM CLR 16/13 A2973 RMK AO2

2006/10/02 04:15
KEVM 020415Z AUTO 04003KT 10SM CLR 07/05 A2977 RMK AO2

2006/10/02 04:15
KFFM 020415Z AUTO 00000KT 10SM CLR 18/12 A2972 RMK AO2

2006/10/02 04:15
KFGN 020415Z AUTO 33010KT 10SM CLR 17/11 A2969 RMK AO2

2006/10/02 04:16
KFKA 020416Z AUTO 20011KT 10SM CLR 21/10 A2984 RMK AO2 LTG DSNT E

2006/10/02 04:15
KPNM 020415Z AUTO 00000KT 10SM CLR 15/12 A2974 RMK AO2

2006/10/02 04:15
KPQN 020415Z AUTO 00000KT 10SM CLR 18/13 A2978 RMK AO2

2006/10/02 04:17
KPQN 020417Z AUTO 00000KT 10SM CLR 18/13 A2977 RMK AO2

2006/10/02 04:16
KRYV 020416Z AUTO 13010G20KT 10SM CLR 16/10 A2998 RMK AO2

2006/10/02 04:15
KBFW 020415Z AUTO 00000KT 10SM CLR 07/06 A2976 RMK AO2

2006/10/02 04:17
KCVX 020417Z AUTO 12005KT 10SM SCT110 08/06 A3006 RMK AO2

2006/10/02 04:18
KGYL 020418Z AUTO 00000KT 10SM CLR 19/12 A2974 RMK AO2

2006/10/02 04:19
KHYX 020419Z AUTO 14004KT 10SM CLR 09/07 A3009 RMK AO2

2006/10/02 04:17
KLUM 020417Z AUTO 10005KT 10SM CLR 16/12 A2981 RMK AO2 LTG DSNT E

2006/10/02 04:18
KMCD 020418Z AUTO 00000KT 10SM -RA OVC100 12/09 A3008 RMK AO2

2006/10/02 04:18
KMYP 020418Z AUTO 25018G21KT 10SM CLR 10/M03 A3062 RMK AO2

2006/10/02 04:17
KOSC 020417Z AUTO 00000KT 10SM CLR 04/02 A3010 RMK AO2

2006/10/02 04:15
KPDC 020415Z AUTO 17006KT 10SM CLR 25/10 A2986 RMK AO2

2006/10/02 04:15
KPEX 020415Z AUTO 00000KT 10SM CLR 15/12 A2974 RMK AO2

2006/10/02 04:15
KRCX 020415Z AUTO 14005KT 10SM CLR 16/11 A2985 RMK AO2 LTG DSNT SE

2006/10/02 04:15
KRGK 020415Z AUTO 10005KT 10SM CLR 21/12 A2978 RMK AO2

2006/10/02 04:18
KRMY 020418Z AUTO 00000KT 10SM BKN120 09/07 A3011 RMK AO2

2006/10/02 04:15
KRNH 020415Z AUTO 14006KT 10SM CLR 19/11 A2979 RMK AO2

2006/10/02 04:15
KROX 020415Z AUTO 32004KT 10SM CLR 16/12 A2968 RMK AO2

2006/10/02 04:15
KRPD 020415Z AUTO 14006KT 10SM CLR 16/11 A2981 RMK AO2 LTG DSNT SE

2006/10/02 04:15
KRRL 020415Z AUTO 14003KT 10SM CLR 13/08 A2991 RMK AO2 LTG DSNT SE AND S

2006/10/02 04:15
KRRT 020415Z AUTO 32009KT 10SM CLR 17/11 A2970 RMK AO2

2006/10/02 04:15
KADU 020415Z AUTO 19009KT 10SM CLR 23/14 A2984 RMK AO2

2006/10/02 04:15
KAIO 020415Z AUTO 19010G14KT 10SM CLR 23/15 A2986 RMK AO2

2006/10/02 04:15
KAXA 020415Z AUTO 19007KT 10SM CLR 21/16 A2978 RMK AO2

2006/10/02 04:15
KBNW 020415Z AUTO 18008KT 10SM CLR 23/16 A2984 RMK AO2

2006/10/02 04:15
KCAV 020415Z AUTO 18012KT 10SM CLR 22/13 A2981 RMK AO2

2006/10/02 04:15
KCBF 020415Z AUTO 19004G22KT 10SM CLR 28/16 A2983 RMK AO2

2006/10/02 04:15
KCCY 020415Z AUTO 18008KT 10SM CLR 22/13 A2984 RMK AO2

2006/10/02 04:15
KCIN 020415Z AUTO 19009G16KT 10SM CLR 25/16 A2981 RMK AO2

2006/10/02 04:15
KCNC 020415Z AUTO 18014G19KT 10SM CLR 24/17 A2990 RMK AO2

2006/10/02 04:15
KCSQ 020415Z AUTO 19014KT 10SM CLR 23/17 A2989 RMK AO2

2006/10/02 04:00
VRMM 020400Z 31009KT 9999 FEW019TCU 29/24 Q1012

2006/10/02 04:20
EYKA 020420Z 21004KT 2000 R08/2000 BR BKN017 OVC100 15/14 Q1010

2006/10/02 04:20
EYPA 020420Z VRB01KT 1500 BR OVC011 11/11 Q1008 TEMPO 0400FG SCT003

2006/10/02 04:19
KLWM 020419Z AUTO 36007KT 9SM OVC004 11/10 A3002 RMK AO2 CIG 003V009 TSNO

2006/10/02 04:19
KVTA 020419Z AUTO 00000KT 1 1/2SM BR CLR 07/07 A3017 RMK AO2

2006/10/02 04:19
PASO 020419Z AUTO 00000KT 6SM -RA BR FEW016 BKN035 OVC050 09/08 A2966 RMK AO2 P0000 TSNO

2006/10/02 04:20
KPQL 020420Z AUTO 00000KT 2SM BR FEW001 21/19 A3012 RMK AO2

2006/10/02 04:17
KMGN 020417Z AUTO 05006KT 10SM BKN110 10/08 A3004 RMK AO2

2006/10/02 04:15
KMXO 020415Z AUTO 19010G15KT 10SM CLR 22/11 A2990 RMK AO2

2006/10/02 04:15
KOLZ 020415Z AUTO 17008KT 10SM CLR 21/11 A2988 RMK AO2

2006/10/02 04:15
KOOA 020415Z AUTO 18012G18KT 10SM CLR 23/11 A2991 RMK AO2

2006/10/02 04:15
KORC 020415Z AUTO 20005KT 10SM CLR 21/15 A2978 RMK AO2

2006/10/02 04:15
KOXV 020415Z AUTO 19014G19KT 10SM CLR 25/17 A2988 RMK AO2

2006/10/02 04:15
KPEA 020415Z AUTO 17010KT 10SM CLR 22/13 A2989 RMK AO1

2006/10/02 04:15
KRDK 020415Z AUTO 20009KT 10SM CLR 25/16 A2985 RMK AO2

2006/10/02 04:18
KRNP 020418Z AUTO 00000KT 2SM BR CLR 06/06 A3010 RMK AO2

2006/10/02 04:15
KSAZ 020415Z AUTO 00000KT 10SM CLR 12/12 A2973 RMK AO2

2006/10/02 04:15
KSDA 020415Z AUTO 18010KT 10SM CLR 25/16 A2986 RMK AO2

2006/10/02 04:15
KSGS 020415Z AUTO 16003KT 10SM 20/12 A2975 RMK AO2 TSNO

2006/10/02 04:15
KSHL 020415Z AUTO 00000KT 10SM CLR 15/11 A2980 RMK AO2

2006/10/02 04:15
KSLB 020415Z AUTO 20012G18KT 10SM CLR 26/14 A2979 RMK AO2

2006/10/02 04:15
KSTE 020415Z AUTO 15008KT 10SM CLR 16/11 A2992 RMK AO2

2006/10/02 04:15
KTNU 020415Z AUTO 18010KT 10SM CLR 22/13 A2988 RMK AO2

2006/10/02 04:18
KTTF 020418Z AUTO 00000KT 4SM BR CLR 08/08 A3012 RMK AO2

2006/10/02 04:15
KVTI 020415Z AUTO 17009KT 10SM CLR 22/10 A2988 RMK AO1

2006/10/02 04:17
KW99 020417Z AUTO 00000KT 7SM CLR 07/06 A3020 RMK AO2

2006/10/02 04:18
K0CO 020418Z AUTO 10SM 03/M10 A3052 RMK AO2

2006/10/02 04:17
KCCU 020417Z AUTO 24009G20KT 10SM CLR 05/M09 A3051 RMK AO2

2006/10/02 04:20
KDRM 020420Z AUTO 00000KT 10SM BKN100 07/06 A3008 RMK AO2

2006/10/02 04:19
KERY 020419Z AUTO 14003KT 10SM SCT110 07/06 A3005 RMK AO2

2006/10/02 04:18
KIWA 020418Z AUTO 00000KT 10SM CLR 27/04 A2990 RMK AO2

2006/10/02 04:18
KONZ 020418Z AUTO 00000KT 10SM CLR 11/11 A3012 RMK AO2

2006/10/02 04:15
KSUW 020415Z AUTO 02004KT 10SM CLR 11/11 A2976 RMK AO2

2006/10/02 04:16
KTKC 020416Z AUTO 23006KT 10SM CLR 17/12 A2975 RMK AO2 LTG DSNT E PWINO

2006/10/02 04:15
KTKV 020415Z AUTO 15004KT 10SM CLR 12/07 A2990 RMK AO2

2006/10/02 04:15
KTOB 020415Z AUTO 19010G17KT 10SM 22/14 A2980 RMK AO2

2006/10/02 04:15
KTWM 020415Z AUTO 36003KT 10SM CLR 07/04 A2978 RMK AO2

2006/10/02 04:15
KUES 020415Z AUTO 14012G18KT 10SM SCT110 17/09 A3001 RMK AO2

2006/10/02 04:15
KULM 020415Z AUTO 16004KT 10SM CLR 17/13 A2973 RMK AO2

2006/10/02 04:15
KVVV 020415Z AUTO 30005KT 10SM CLR 19/13 A2973 RMK AO2

2006/10/02 04:15
KXVG 020415Z AUTO 00000KT 10SM CLR 10/10 A2973 RMK AO2

2006/10/02 04:20
KAVC 020420Z AUTO 34006KT 10SM CLR 18/14 A3023 RMK AO1

2006/10/02 04:17
KBUU 020417Z AUTO 10009KT 10SM CLR 15/11 A3003 RMK AO2

2006/10/02 04:20
KBWP 020420Z AUTO 22004KT 10SM CLR 15/13 A2971 RMK AO1

2006/10/02 04:21
KCPK 020421Z AUTO 05004KT 10SM BKN075 OVC090 15/13 A3015 RMK AO2

2006/10/02 04:19
KEZF 020419Z AUTO 00000KT 13/12 A3016 RMK AO1

2006/10/02 04:21
KFKN 020421Z AUTO 35003KT 10SM CLR 14/13 A3015 RMK AO1

2006/10/02 04:20
KFVX 020420Z AUTO 00000KT 10SM CLR 12/10 A3020 RMK AO2

2006/10/02 04:21
KGEV 020421Z AUTO 31008KT 10SM CLR 16/07 A3026 RMK AO2

2006/10/02 04:21
KHDC 020421Z AUTO 00000KT 4SM BR CLR 21/20 A3013 RMK AO2

2006/10/02 04:21
KIPJ 020421Z AUTO 00000KT 10SM CLR 12/11 A3019 RMK AO1

2006/10/02 04:20
KLKU 020420Z AUTO 00000KT 10SM CLR 13/12 A3017 RMK AO2

2006/10/02 04:11
KLNL 020411Z AUTO 16004KT 10SM CLR 11/06 A2991 RMK AO2 LTG DSNT S

2006/10/02 04:21
KMFV 020421Z AUTO 00000KT 1 3/4SM BR VV007 14/14 A3015 RMK AO2

2006/10/02 04:20
KMKJ 020420Z AUTO 00000KT 10SM CLR 10/07 A3032 RMK AO1

2006/10/02 04:20
KTEW 020420Z AUTO 00000KT 10SM CLR 07/07 A3010 RMK AO2

2006/10/02 04:20
HLLT 020420Z 00000KT CAVOK 18/15 Q1019

2006/10/02 04:20
KEKN 020420Z AUTO 00000KT 1/4SM FG OVC004 06/05 A3024 RMK AO2 TSNO

2006/10/02 04:00
SASA 020400Z 00000KT CAVOK 20/13 Q1015

2006/10/02 04:20
EDDB 020420Z 17007KT CAVOK 14/14 Q1008 NOSIG

2006/10/02 04:20
EDDC 020420Z 21010KT CAVOK 16/14 Q1010 NOSIG

2006/10/02 04:20
EDDG 020420Z 20009KT 9999 FEW040 15/12 Q1005 NOSIG

2006/10/02 04:20
EDDI 020420Z 17007KT CAVOK 15/13 Q1008 NOSIG

2006/10/02 04:20
EDDP 020420Z 24005KT 210V280 9999 SCT028 SCT054 BKN090 15/14 Q1010 NOSIG

2006/10/02 04:20
EDDR 020420Z 22010KT 9999 FEW022 SCT060 BKN270 14/12 Q1013 NOSIG

2006/10/02 04:20
EDDT 020420Z 19008KT CAVOK 15/13 Q1007 NOSIG

2006/10/02 04:20
EDDV 020420Z 21009KT 9999 FEW030 SCT050 15/12 Q1006 NOSIG

2006/10/02 04:20
EDDW 020420Z 18010KT 9999 FEW027 SCT046 13/12 Q1004 NOSIG

2006/10/02 04:00
CYZS 020400Z 01006KT 15SM SCT210 M00/M02 A2989 RMK CI2 SLP128

2006/10/02 04:20
EDDE 020420Z 22010KT CAVOK 14/12 Q1010 NOSIG

2006/10/02 04:20
ESGT 020420Z 14005KT 9999 -RA BKN009 12/11 Q1000

2006/10/02 04:20
ESMQ 020420Z 16010KT 8000 -SHRA FEW002 SCT008 16/16 Q1004

2006/10/02 04:20
ESMT 020420Z 17007KT 9999 SCT008 BKN015 14/13 Q1002

2006/10/02 04:20
ESTA 020420Z VRB02KT 9000 BR NSC 11/11 Q1002

2006/10/02 04:20
ESTL 020420Z AUTO 13003KT 9999 SKC 12/11 Q1003

2006/10/02 04:20
EDDS 020420Z 21006KT CAVOK 15/12 Q1015 NOSIG

2006/10/02 04:19
KLWM 020419Z AUTO 36007KT 9SM OVC004 11/10 A3002 RMK AO2 CIG 003V009 TSNO

2006/10/02 04:19
KVTA 020419Z AUTO 00000KT 1 1/2SM BR CLR 07/07 A3017 RMK AO2

2006/10/02 04:19
PASO 020419Z AUTO 00000KT 6SM -RA BR FEW016 BKN035 OVC050 09/08 A2966 RMK AO2 P0000 TSNO

2006/10/02 04:20
KPQL 020420Z AUTO 00000KT 2SM BR FEW001 21/19 A3012 RMK AO2

2006/10/02 04:15
KVTI 020415Z AUTO 17009KT 10SM CLR 22/10 A2988 RMK AO1

2006/10/02 04:16
KTKC 020416Z AUTO 23006KT 10SM CLR 17/12 A2975 RMK AO2 LTG DSNT E PWINO

2006/10/02 04:15
KTKV 020415Z AUTO 15004KT 10SM CLR 12/07 A2990 RMK AO2

2006/10/02 04:00
YBMA 020400Z 07008KT CAVOK 33/02 Q1015 RMK RF00.0/000.0

2006/10/02 04:17
KMGN 020417Z AUTO 05006KT 10SM BKN110 10/08 A3004 RMK AO2

2006/10/02 04:15
KMXO 020415Z AUTO 19010G15KT 10SM CLR 22/11 A2990 RMK AO2

2006/10/02 04:15
KOLZ 020415Z AUTO 17008KT 10SM CLR 21/11 A2988 RMK AO2

2006/10/02 04:15
KOOA 020415Z AUTO 18012G18KT 10SM CLR 23/11 A2991 RMK AO2

2006/10/02 04:15
KORC 020415Z AUTO 20005KT 10SM CLR 21/15 A2978 RMK AO2

2006/10/02 04:15
KOXV 020415Z AUTO 19014G19KT 10SM CLR 25/17 A2988 RMK AO2

2006/10/02 04:15
KPEA 020415Z AUTO 17010KT 10SM CLR 22/13 A2989 RMK AO1

2006/10/02 04:15
KRDK 020415Z AUTO 20009KT 10SM CLR 25/16 A2985 RMK AO2

2006/10/02 04:18
KRNP 020418Z AUTO 00000KT 2SM BR CLR 06/06 A3010 RMK AO2

2006/10/02 04:15
KSAZ 020415Z AUTO 00000KT 10SM CLR 12/12 A2973 RMK AO2

2006/10/02 04:15
KSDA 020415Z AUTO 18010KT 10SM CLR 25/16 A2986 RMK AO2

2006/10/02 04:15
KSGS 020415Z AUTO 16003KT 10SM 20/12 A2975 RMK AO2 TSNO

2006/10/02 04:15
KSHL 020415Z AUTO 00000KT 10SM CLR 15/11 A2980 RMK AO2

2006/10/02 04:15
KSLB 020415Z AUTO 20012G18KT 10SM CLR 26/14 A2979 RMK AO2

2006/10/02 04:15
KSTE 020415Z AUTO 15008KT 10SM CLR 16/11 A2992 RMK AO2

2006/10/02 04:15
KTNU 020415Z AUTO 18010KT 10SM CLR 22/13 A2988 RMK AO2

2006/10/02 04:18
KTTF 020418Z AUTO 00000KT 4SM BR CLR 08/08 A3012 RMK AO2

2006/10/02 04:17
KW99 020417Z AUTO 00000KT 7SM CLR 07/06 A3020 RMK AO2

2006/10/02 04:18
K0CO 020418Z AUTO 10SM 03/M10 A3052 RMK AO2

2006/10/02 04:17
KCCU 020417Z AUTO 24009G20KT 10SM CLR 05/M09 A3051 RMK AO2

2006/10/02 04:20
KDRM 020420Z AUTO 00000KT 10SM BKN100 07/06 A3008 RMK AO2

2006/10/02 04:19
KERY 020419Z AUTO 14003KT 10SM SCT110 07/06 A3005 RMK AO2

2006/10/02 04:18
KIWA 020418Z AUTO 00000KT 10SM CLR 27/04 A2990 RMK AO2

2006/10/02 04:18
KONZ 020418Z AUTO 00000KT 10SM CLR 11/11 A3012 RMK AO2

2006/10/02 04:15
KSUW 020415Z AUTO 02004KT 10SM CLR 11/11 A2976 RMK AO2

2006/10/02 04:15
KTOB 020415Z AUTO 19010G17KT 10SM 22/14 A2980 RMK AO2

2006/10/02 04:15
KTWM 020415Z AUTO 36003KT 10SM CLR 07/04 A2978 RMK AO2

2006/10/02 04:15
KUES 020415Z AUTO 14012G18KT 10SM SCT110 17/09 A3001 RMK AO2

2006/10/02 04:15
KULM 020415Z AUTO 16004KT 10SM CLR 17/13 A2973 RMK AO2

2006/10/02 04:15
KVVV 020415Z AUTO 30005KT 10SM CLR 19/13 A2973 RMK AO2

2006/10/02 04:15
KXVG 020415Z AUTO 00000KT 10SM CLR 10/10 A2973 RMK AO2

2006/10/02 04:20
KAVC 020420Z AUTO 34006KT 10SM CLR 18/14 A3023 RMK AO1

2006/10/02 04:17
KBUU 020417Z AUTO 10009KT 10SM CLR 15/11 A3003 RMK AO2

2006/10/02 04:20
KBWP 020420Z AUTO 22004KT 10SM CLR 15/13 A2971 RMK AO1

2006/10/02 04:21
KCPK 020421Z AUTO 05004KT 10SM BKN075 OVC090 15/13 A3015 RMK AO2

2006/10/02 04:19
KEZF 020419Z AUTO 00000KT 13/12 A3016 RMK AO1

2006/10/02 04:21
KFKN 020421Z AUTO 35003KT 10SM CLR 14/13 A3015 RMK AO1

2006/10/02 04:20
KFVX 020420Z AUTO 00000KT 10SM CLR 12/10 A3020 RMK AO2

2006/10/02 04:21
KGEV 020421Z AUTO 31008KT 10SM CLR 16/07 A3026 RMK AO2

2006/10/02 04:21
KHDC 020421Z AUTO 00000KT 4SM BR CLR 21/20 A3013 RMK AO2

2006/10/02 04:21
KIPJ 020421Z AUTO 00000KT 10SM CLR 12/11 A3019 RMK AO1

2006/10/02 04:20
KLKU 020420Z AUTO 00000KT 10SM CLR 13/12 A3017 RMK AO2

2006/10/02 04:11
KLNL 020411Z AUTO 16004KT 10SM CLR 11/06 A2991 RMK AO2 LTG DSNT S

2006/10/02 04:21
KMFV 020421Z AUTO 00000KT 1 3/4SM BR VV007 14/14 A3015 RMK AO2

2006/10/02 04:20
KMKJ 020420Z AUTO 00000KT 10SM CLR 10/07 A3032 RMK AO1

2006/10/02 04:20
KTEW 020420Z AUTO 00000KT 10SM CLR 07/07 A3010 RMK AO2

2006/10/02 04:19
KLWM 020419Z AUTO 36007KT 9SM OVC004 11/10 A3002

2006/10/02 04:20
KEKN 020420Z AUTO 00000KT 1/4SM FG OVC004 06/05 A3024

2006/10/02 04:15
KELO 020415Z AUTO 16004KT 10SM CLR 10/07 A2975

2006/10/02 04:20
K1A5 020420Z AUTO 00000KT 2 1/2SM BR CLR 09/08 A3026 RMK AO2 VIS 1 1/2V5

2006/10/02 04:20
K3A1 020420Z AUTO 00000KT 10SM CLR 13/11 A3021 RMK AO2

2006/10/02 04:20
K3I2 020420Z AUTO 00000KT 7SM CLR 11/08 A3019 RMK AO2

2006/10/02 04:19
K48I 020419Z AUTO 00000KT 1/2SM FG OVC001 11/10 A3021 RMK AO2

2006/10/02 04:17
K8A0 020417Z AUTO 05005KT 10SM CLR 18/12 A3017 RMK AO2

2006/10/02 04:20
KALX 020420Z AUTO 00000KT 3SM BR 20/18 A3016 RMK AO1 SKY OBSCURED

2006/10/02 04:20
KBCB 020420Z AUTO 00000KT 10SM CLR 09/08 A3026 RMK AO2

2006/10/02 04:20
KCJR 020420Z AUTO 00000KT 5SM BR CLR 10/09 A3018 RMK AO2

2006/10/02 04:17
KEHO 020417Z AUTO 00000KT 10SM CLR 16/13 A3019 RMK AO2

2006/10/02 04:20
KEMV 020420Z AUTO 32003KT 10SM CLR 15/15 A3016 RMK AO2

2006/10/02 04:20
KEYF 020420Z AUTO 00000KT 10SM CLR 16/12 A3016 RMK AO2

2006/10/02 04:15
KGTU 020415Z AUTO 18006KT 10SM CLR 25/18 A3010 RMK AO1

2006/10/02 04:15
KHYI 020415Z AUTO 18010KT 10SM CLR 24/19 A3012 RMK AO1

2006/10/02 04:15
KILE 020415Z AUTO 17011KT 10SM CLR 26/18 A3010 RMK AO1

2006/10/02 04:20
KJNX 020420Z AUTO 00000KT 10SM CLR 13/12 A3016 RMK AO1

2006/10/02 04:21
KJQF 020421Z AUTO 00000KT 5SM BR CLR 13/12 A3018 RMK AO2

2006/10/02 04:21
KJYL 020421Z AUTO 00000KT 10SM CLR 19/17 A3012 RMK AO2

2006/10/02 04:15
KOCH 020415Z AUTO 00000KT 10SM CLR 21/20 A3012 RMK AO1

2006/10/02 04:15
KPRX 020415Z AUTO 17009KT 10SM CLR 26/17 A3007 RMK AO1

2006/10/02 04:21
KPTB 020421Z AUTO 00000KT 5SM BR CLR 13/12 A3017 RMK AO2

2006/10/02 04:15
KPWG 020415Z AUTO 17010KT 10SM CLR 26/18 A3006 RMK AO1

2006/10/02 04:21
KSFQ 020421Z AUTO 00000KT 10SM CLR 13/13 A3015 RMK AO2

2006/10/02 04:15
KTPL 020415Z AUTO 18011KT 10SM CLR 26/17 A3007 RMK AO1

2006/10/02 04:17
KACP 020417Z AUTO 00000KT 1/2SM FG VV005 19/17 A3012 RMK AO2

2006/10/02 04:21
KASJ 020421Z AUTO 00000KT 5SM HZ CLR 17/13 A3014 RMK AO2

2006/10/02 04:20
KAYS 020420Z AUTO 18003KT 10SM CLR 23/19 A3011 RMK AO1

2006/10/02 04:20
KBGE 020420Z AUTO 00000KT 7SM CLR 23/20 A3011 RMK AO2

2006/10/02 04:20
KCCO 020420Z AUTO 00000KT 2 1/2SM CLR 14/14 A3018 RMK AO1

2006/10/02 04:20
KCDD 020420Z AUTO 00000KT 10SM SCT100 13/09 A2975 RMK AO2

2006/10/02 04:20
KDBN 020420Z AUTO 00000KT 10SM CLR 17/16 A3012 RMK AO1

2006/10/02 04:20
KDPL 020420Z AUTO 00000KT 7SM CLR 12/11 A3017 RMK AO2

2006/10/02 04:21
KEDE 020421Z AUTO 00000KT 10SM CLR 13/12 A3014 RMK AO2

2006/10/02 04:20
KGHG 020420Z AUTO 31010G18KT 10SM OVC004 12/11 A2996 RMK AO2

2006/10/02 04:20
KHLX 020420Z AUTO 27006KT 10SM CLR 14/12 A3027 RMK AO1

2006/10/02 04:20
KHNZ 020420Z AUTO 25003KT 10SM CLR 15/13 A3017 RMK AO2

2006/10/02 04:20
KHSP 020420Z AUTO 29009KT 10SM CLR 11/08 A3026 RMK AO2

2006/10/02 04:18
KI16 020418Z AUTO 00000KT 3SM BR BKN001 09/08 A3024 RMK AO2

2006/10/02 04:20
KISO 020420Z AUTO 00000KT 7SM CLR 14/13 A3016 RMK AO2

2006/10/02 04:20
KJKA 020420Z AUTO 00000KT 5SM BR CLR 25/23 A3012 RMK AO2

2006/10/02 04:20
KJYO 020420Z AUTO 00000KT 10SM CLR 11/09 A3016 RMK AO2

2006/10/02 04:18
KLNP 020418Z AUTO 00000KT 10SM CLR 13/09 A3027 RMK AO1

2006/10/02 04:24
KRUQ 020424Z AUTO 00000KT 3SM BR CLR 13/12 A3019 RMK AO2

2006/10/02 04:20
KSHD 020420Z AUTO 00000KT 10SM CLR 11/09 A3021 RMK AO2

2006/10/02 04:21
KTDF 020421Z AUTO 00000KT 7SM CLR 11/11 A3019 RMK AO1

2006/10/02 04:18
RJAA 020418Z 34010KT 9999 FEW008 BKN010 19/17 Q1011 RMK 1ST008 7ST010 A2987

2006/10/02 04:12
RJCJ 020412Z 18012KT 9999 FEW020 SCT035 BKN070 20/12 Q1016 RMK 1CU020 3CU035 5AC070 A3001

2006/10/02 04:08
RJTL 020408Z 35008KT 310V020 9999 SCT010 BKN020 19/16 Q1011 RMK 4SC010 7SC020 A2987

2006/10/02 04:02
RJAW 020402Z 08018G28KT 9999 BKN012 28/24 Q1007 RMK 5CU012 A2974

2006/10/02 04:21
KMMK 020421Z AUTO 00000KT 1 1/4SM BR SCT001 10/09 A3002 RMK AO2 VIS 1/2V3

2006/10/02 04:13
UKBB 020413Z 20002MPS 0350 R36R/P1500U R36L/0350V0550N PRFG SCT040 08/07 Q1018 88CLRD70 NOSIG

2006/10/02 04:17
PGUA 020417Z 26017KT 4SM -SHRA SCT005 BKN018 OVC080 27/25 A2957

2006/10/02 04:13
UKBB 020413Z 20002MPS 0350 R36R/P1500U R36L/0350V0550N PRFG SCT040 08/07 Q1018 88CLRD70 NOSIG

2006/10/02 04:17
PGUA 020417Z 26017KT 4SM -SHRA SCT005 BKN018 OVC080 27/25 A2957 RMK AO2A OCNL LTGICCG DSNT SE AND NW CB 10SE-S AND 10NW MOV E WHT

2006/10/02 04:20
KCPC 020420Z AUTO 00000KT 7SM CLR 16/15 A3015 RMK AO2

2006/10/02 04:18
KDNN 020418Z AUTO 36003KT 10SM CLR 14/13 A3018 RMK AO2

2006/10/02 04:20
KDRI 020420Z AUTO 00000KT 10SM CLR 21/19 A3013 RMK AO2

2006/10/02 04:21
KDUH 020421Z AUTO 00000KT 4SM BR CLR 08/08 A3013 RMK AO2

2006/10/02 04:23
KFQD 020423Z AUTO 00000KT 10SM SCT090 16/12 A3020 RMK AO2

2006/10/02 04:20
KIDI 020420Z AUTO 00000KT 10SM SCT060 07/07 A3017 RMK AO2

2006/10/02 04:20
KLOM 020420Z AUTO 27003KT 10SM CLR 10/09 A3010 RMK AO1

2006/10/02 04:24
KMDQ 020424Z AUTO 00000KT 10SM CLR 15/14 A3019 RMK AO2

2006/10/02 04:20
KMTV 020420Z AUTO 00000KT 7SM CLR 11/11 A3022 RMK AO2

2006/10/02 04:20
KOMH 020420Z AUTO 00000KT 10SM CLR 11/10 A3018 RMK AO1

2006/10/02 04:22
KONX 020422Z AUTO 00000KT 5SM BR SCT090 16/14 A3014 RMK AO2

2006/10/02 04:20
KPSK 020420Z AUTO 23003KT 10SM CLR 12/08 A3026 RMK AO2

2006/10/02 04:20
KRMN 020420Z AUTO 30004KT 10SM CLR 10/09 A3016 RMK AO2

2006/10/02 04:22
KVUJ 020422Z AUTO 00000KT 10SM CLR 13/12 A3022 RMK AO2

2006/10/02 04:13
K2G4 020413Z AUTO 26005KT 10SM 10/05 A3020 RMK AO1

2006/10/02 04:21
K3J7 020421Z AUTO 00000KT 10SM CLR 17/16 A3012 RMK AO2

2006/10/02 04:23
K4A9 020423Z AUTO 00000KT 2SM BR CLR 16/15 A3018 RMK AO2

2006/10/02 04:21
KBQK 020421Z AUTO 00000KT 7SM BKN070 BKN080 20/19 A3012 RMK AO2

2006/10/02 04:24
KBQP 020424Z AUTO 00000KT 10SM CLR 23/21 A3010 RMK AO2

2006/10/02 04:10
KCGE 020410Z AUTO 31003KT 10SM CLR 17/09 A3015 RMK AO1

2006/10/02 04:25
KCTZ 020425Z AUTO 00000KT 10SM CLR 14/13 A3016 RMK AO2

2006/10/02 04:22
KDQH 020422Z AUTO 00000KT 10SM CLR 22/16 A3010 RMK AO1

2006/10/02 04:19
KFFA 020419Z AUTO 00000KT 10SM CLR 19/17 A3014 RMK AO2

2006/10/02 04:20
KGWW 020420Z AUTO 00000KT 7SM CLR 12/11 A3015 RMK AO2

2006/10/02 04:22
KHBI 020422Z AUTO 00000KT 10SM CLR 14/12 A3021 RMK AO2

2006/10/02 04:21
KHQU 020421Z AUTO 00000KT 5SM CLR 16/13 A3017 RMK AO1

2006/10/02 04:22
KJGG 020422Z AUTO 00000KT 10SM SCT070 16/16 A3016 RMK AO1

2006/10/02 04:20
KL75 020420Z AUTO 00000KT 3SM BR CLR 22/21 A3011 RMK AO2

2006/10/02 04:22
KRCZ 020422Z AUTO 10SM CLR 17/11 A3016 RMK AO2 PWINO

2006/10/02 04:20
KSIF 020420Z AUTO 00000KT 10SM CLR 12/11 A3019 RMK AO2

2006/10/02 04:21
KSJX 020421Z AUTO 10006KT 10SM SCT110 09/07 A3004 RMK AO2

2006/10/02 04:20
KSUT 020420Z AUTO 00000KT 10SM CLR 20/16 A3016 RMK AO2

2006/10/02 04:15
KUKT 020415Z AUTO 00000KT 10SM CLR 10/08 A3010 RMK A01 P000

2006/10/02 04:20
KVDF 020420Z AUTO 00000KT 7SM CLR 21/20 A3012 RMK AO2

2006/10/02 04:20
K1P1 020420Z AUTO 00000KT 10SM OVC036 09/08 A3003 RMK AO2

2006/10/02 04:24
KFYJ 020424Z AUTO 00000KT 7SM CLR 15/14 A3017 RMK AO1

2006/10/02 04:21
KHRJ 020421Z AUTO 00000KT 10SM 13/12 A3017 RMK AO2

2006/10/02 04:20
KIER 020420Z AUTO 00000KT 10SM CLR 22/21 A3011 RMK AO2

2006/10/02 04:20
KLGC 020420Z AUTO 7SM CLR 17/17 A3016 RMK AO1

2006/10/02 04:22
KLWB 020422Z AUTO 00000KT 10SM CLR 10/10 A3025 RMK AO2

2006/10/02 04:20
KMGR 020420Z AUTO 00000KT 7SM CLR 22/18 A3012 RMK AO2

2006/10/02 04:20
KMLJ 020420Z AUTO 00000KT 7SM CLR 18/18 A3013 RMK AO2

2006/10/02 04:22
KMWO 020422Z AUTO 00000KT 10SM CLR 13/13 A3018 RMK AO2

2006/10/02 04:20
KOKV 020420Z AUTO 12003KT 10SM CLR 11/08 A3016 RMK AO2

2006/10/02 04:21
KSVH 020421Z AUTO 34006KT 10SM CLR 18/09 A3018 RMK AO2

2006/10/02 04:20
KVJI 020420Z AUTO 00000KT 10SM CLR 10/08 A3027 RMK AO2

2006/10/02 04:20
KW22 020420Z AUTO 00000KT 10SM CLR 09/09 A3023 RMK A02 P000

2006/10/02 04:22
KHBI 020422Z AUTO 00000KT 10SM CLR 14/12 A3021 RMK AO2

2006/10/02 04:21
KHQU 020421Z AUTO 00000KT 5SM CLR 16/13 A3017 RMK AO1

2006/10/02 04:22
KJGG 020422Z AUTO 00000KT 10SM SCT070 16/16 A3016 RMK AO1

2006/10/02 04:20
KL75 020420Z AUTO 00000KT 3SM BR CLR 22/21 A3011 RMK AO2

2006/10/02 04:22
KRCZ 020422Z AUTO 10SM CLR 17/11 A3016 RMK AO2 PWINO

2006/10/02 04:20
KSIF 020420Z AUTO 00000KT 10SM CLR 12/11 A3019 RMK AO2

2006/10/02 04:21
KSJX 020421Z AUTO 10006KT 10SM SCT110 09/07 A3004 RMK AO2

2006/10/02 04:20
KSUT 020420Z AUTO 00000KT 10SM CLR 20/16 A3016 RMK AO2

2006/10/02 04:15
KUKT 020415Z AUTO 00000KT 10SM CLR 10/08 A3010 RMK A01 P000

2006/10/02 04:20
KVDF 020420Z AUTO 00000KT 7SM CLR 21/20 A3012 RMK AO2

2006/10/02 04:20
K1P1 020420Z AUTO 00000KT 10SM OVC036 09/08 A3003 RMK AO2

2006/10/02 04:24
KFYJ 020424Z AUTO 00000KT 7SM CLR 15/14 A3017 RMK AO1

2006/10/02 04:21
KHRJ 020421Z AUTO 00000KT 10SM 13/12 A3017 RMK AO2

2006/10/02 04:20
KIER 020420Z AUTO 00000KT 10SM CLR 22/21 A3011 RMK AO2

2006/10/02 04:20
KLGC 020420Z AUTO 7SM CLR 17/17 A3016 RMK AO1

2006/10/02 04:22
KLWB 020422Z AUTO 00000KT 10SM CLR 10/10 A3025 RMK AO2

2006/10/02 04:20
KMGR 020420Z AUTO 00000KT 7SM CLR 22/18 A3012 RMK AO2

2006/10/02 04:20
KMLJ 020420Z AUTO 00000KT 7SM CLR 18/18 A3013 RMK AO2

2006/10/02 04:22
KMWO 020422Z AUTO 00000KT 10SM CLR 13/13 A3018 RMK AO2

2006/10/02 04:20
KOKV 020420Z AUTO 12003KT 10SM CLR 11/08 A3016 RMK AO2

2006/10/02 04:21
KSVH 020421Z AUTO 34006KT 10SM CLR 18/09 A3018 RMK AO2

2006/10/02 04:20
KVJI 020420Z AUTO 00000KT 10SM CLR 10/08 A3027 RMK AO2

2006/10/02 04:20
KW22 020420Z AUTO 00000KT 10SM CLR 09/09 A3023 RMK A02 P000

2006/10/02 04:00
TNCA 020400Z 09012KT 9999 SCT021 SCT350 29/25 Q1011

2006/10/02 04:00
TNCC 020400Z 10009KT 060V140 9999 SCT018 SCT350 28/25 Q1012

2006/10/02 03:56
KHLR 020356Z AUTO 16010KT 10SM CLR 26/19 A3008 RMK AO2 SLP178 T02610189 $

2006/10/02 03:55
KNYG 020355Z 29009KT 7SM FEW070 12/11 A3016 RMK SLP217 T01220106

2006/10/02 04:17
PGUA 020417Z 26017KT 4SM -SHRA SCT005 BKN018 OVC080 27/25 A2957 RMK AO2A OCNL LTGICCG DSNT SE AND NW CB 10SE-S AND 10NW MOV E WHT

2006/10/02 04:22
KOVS 020422Z AUTO 22004KT 10SM CLR 19/11 A2988 RMK AO2 TSB01E16

2006/10/02 04:23
KVSF 020423Z AUTO 00000KT 10SM OVC015 10/09 A3004 RMK AO2

2006/10/02 04:30
OPKC 020430Z 28006KT 8000M FEW020 FEW200 30/24 Q1010 NOISG

2006/10/02 04:30
OPLA 020430Z 24003KT 3500 HZ SKC 31/18 Q1009

2006/10/02 04:20
EDLP 020420Z 21013KT CAVOK 15/10 Q1007

2006/10/02 04:20
EDLW 020420Z 21013KT 9999 SCT037 15/11 Q1007

2006/10/02 04:20
EDMA 020420Z 21008KT CAVOK 15/14 Q1016

2006/10/02 04:20
EETN 020420Z 20003KT 6000 0150E R26/0450 PRFG FEW001 SCT014 11/11 Q1007 NOSIG

2006/10/02 04:20
EFHF 020420Z AUTO 21002KT 8000 FEW005 SCT007 OVC010 12/12 Q1006

2006/10/02 04:20
EFHK 020420Z 20003KT 6000 FEW005 12/11 Q1006 BECMG 4000 BR BKN004

2006/10/02 04:20
EFJY 020420Z 14004KT 4500 -DZ BR OVC002 08/08 Q1004

2006/10/02 04:20
EFKK 020420Z 17004KT 1000 FG OVC001 10/10 Q1002

2006/10/02 04:20
EFKU 020420Z 12008KT 090V160 2500 -DZ BR OVC004 07/07 Q1006

2006/10/02 04:20
EFMA 020420Z 00000KT 9999 BCFG SKC 10/10 Q1005

2006/10/02 04:20
EFOU 020420Z 12007KT 5000 -DZ FEW003 BKN005 OVC018 05/05 Q1004

2006/10/02 04:20
EFPO 020420Z 17004KT 0900 R30/P1200 R12/P1200 FG BKN001 12/12 Q1004

2006/10/02 04:20
EFRO 020420Z 09008KT 8000 -RA FEW001 SCT003 BKN006 BKN008 02/02 Q1005

2006/10/02 04:20
EFTP 020420Z 21004KT 6000 BR SCT002 OVC008 12/12 Q1004

2006/10/02 04:20
EFTU 020420Z 19003KT 2000 BR SCT002 BKN005 BKN070 13/13 Q1005

2006/10/02 04:20
EFVA 020420Z 24001KT 0400 R16/1100VP1500N R34/0900V1300N FG VV002 11/11 Q1003

2006/10/02 04:20
ENBO 020420Z 09008KT 9999 -RA FEW012 BKN020 08/06 Q1001 TEMPO BKN012

2006/10/02 04:20
ENBR 020420Z VRB01KT 9999 -SHRA FEW020 BKN054 11/08 Q0996 NOSIG

2006/10/02 04:18
ENGM 020418Z 04004KT 7000 SCT005 BKN007 11/10 Q1000 TEMPO 4000 SHRA BKN005

2006/10/02 04:20
ENVA 020420Z 13004KT 9999 SCT050 BKN100 09/08 Q1001

2006/10/02 04:20
ENZV 020420Z 10004KT 9999 FEW020 12/10 Q0996 TEMPO TSRA

2006/10/02 04:20
EVRA 020420Z 17003KT 2800 BR BKN001 OVC013 12/12 Q1008 18090070 TEMPO 0500 FG

2006/10/02 04:20
EYVI 020420Z 21007KT 2300 BR OVC003 14/14 Q1010 TEMPO 0800 FG

2006/10/02 04:00
NFFN 020400Z 27008KT 45KM -SHRA SCT028 BKN049 BKN110 27/23 Q1008 NOSIG RMK RR TCE

2006/10/02 04:00
NFTF 020400Z 12005KT 9999 SCT007 BKN015 OVC110 22/21 Q1011

2006/10/02 04:00
NGFU 020400Z 10010KT 50KM FEW020TCU BKN310 29/24 Q1006

2006/10/02 04:00
NIUE 020400Z AUTO 06006KT //// ////// 24/22 Q1011

2006/10/02 03:50
NSTU 020350Z 06011KT 12SM BKN020 BKN040 OVC110 28/25 A2979 RMK SLP090 T02820248

2006/10/02 04:00
NTAA 020400Z 06004KT 9999 FEW020 27/22 Q1012 NOSIG

2006/10/02 04:00
NWWW 020400Z 16017KT 9999 FEW040 25/15 Q1013 NOSIG

2006/10/02 04:20
ENML 020420Z 36007KT 9999 SCT006 09/08 Q1000

2006/10/02 04:20
ENNA 020420Z 17015KT 9999 FEW013 BKN017 04/01 Q1005

2006/10/02 04:20
ENOL 020420Z 09004KT 9999 FEW030 BKN050 10/09 Q1001 NOSIG

2006/10/02 04:20
ENRS 020420Z 35015KT 9999 SCT015 BKN040 09/04 Q1002

2006/10/02 04:20
ENSO 020420Z 11007KT 9999 FEW020TCU FEW040 13/09 Q0996

2006/10/02 04:20
EKAH 020420Z 18004KT 130V240 9999 FEW012 BKN085 12/12 Q1001

2006/10/02 04:20
EKBI 020420Z 14004KT 9999 FEW023 SCT080 11/10 Q1000

2006/10/02 04:20
EKCH 020420Z 19007KT 9999 BKN035 BKN060 15/13 Q1003 NOSIG

2006/10/02 04:20
EKEB 020420Z 15008KT 120V180 9999 -SHRA FEW020CB BKN080 13/12 Q0999

2006/10/02 04:20
EKKA 020420Z 17009KT 9999 FEW020 SCT050 BKN090 12/11 Q0999

2006/10/02 04:22
EKRK 020422Z 16007KT 9999 FEW035 SCT080 BKN200 12/11 Q1003

2006/10/02 04:20
EKRN 020420Z 22012KT 190V250 9999 SCT041 BKN077 17/16 Q1005

2006/10/02 04:20
EKSP 020420Z 17009KT 9999 FEW030 SCT050 12/12 Q1001 TEMPO 2000 TSRA BKN015CB

2006/10/02 04:20
EKVD 020420Z AUTO 18007KT //// ///////// 12/12 Q1000

2006/10/02 04:20
EKYT 020420Z 18008KT CAVOK 13/12 Q0999 RMK BKN065

2006/10/02 04:20
EGPF 020420Z 23005KT 4200 BR OVC004 08/08 Q0995

2006/10/02 04:20
EGSS 020420Z 24014KT 9999 SCT018 13/10 Q1001

2006/10/02 04:20
LSGG 020420Z 00000KT 3500 R05/P1500N R23/0500V0800U BCFG FEW010 13/12 Q1017 TEMPO 0800

2006/10/02 04:20
LSZB 020420Z 10004KT 9999 FEW005 SCT020 BKN035 15/14 Q1017 NOSIG

2006/10/02 04:20
LSZH 020420Z 14003KT 9999 FEW020 BKN060 14/13 Q1017 NOSIG

2006/10/02 03:55
KTTS 020355Z 04003KT 10SM SKC 23/21 A3010 RMK SLP193

2006/10/02 04:00
AGGH 020400Z 14004KT 20KM FEW015 BKN030 OVC100 25/24 Q1006

2006/10/02 04:20
EGNM 020420Z 27011KT 9999 FEW010 12/11 Q0995

2006/10/02 04:20
EGNS 020420Z 29013KT 9999 FEW012 13/11 Q0997 NOSIG

2006/10/02 04:20
EGNT 020420Z 27004KT 2500 BR FEW005 10/09 Q0994

2006/10/02 04:20
EGNV 020420Z 26006KT 9999 FEW020 12/11 Q0994

2006/10/02 04:20
EGNX 020420Z 23013KT 9999 FEW020 SCT029 13/10 Q0998

2006/10/02 04:20
EGPB 020420Z AUTO 02016KT 9999 BKN045/// 11/10 Q0997

2006/10/02 04:20
EGPD 020420Z 34003KT 0500 FG BKN001 10/10 Q0994 TEMPO 1500BR BKN003

2006/10/02 04:20
EGPF 020420Z 23005KT 4200 BR OVC004 08/08 Q0995

2006/10/02 04:20
EGPH 020420Z 27003KT 8000 MIFG SCT005 SCT008 11/10 Q0994

2006/10/02 04:20
EGPK 020420Z 18002KT 9999 BKN009 12/11 Q0995

2006/10/02 04:20
EDDF 020420Z 20012KT 9999 FEW032 BKN130 16/14 Q1011 NOSIG

2006/10/02 04:20
EDDH 020420Z 21013KT 9999 FEW040 SCT120 14/11 Q1004 NOSIG

2006/10/02 04:20
EDDK 020420Z 18009KT 9999 BKN037 BKN200 15/11 Q1009 NOSIG

2006/10/02 04:20
EDDL 020420Z 21013KT 9999 FEW030 SCT090 16/11 Q1007 NOSIG

2006/10/02 04:20
EDDM 020420Z 22004KT CAVOK 15/14 Q1016 NOSIG

2006/10/02 04:20
EDDN 020420Z 20005KT CAVOK 14/12 Q1014 NOSIG

2006/10/02 04:20
EDDS 020420Z 21006KT CAVOK 15/12 Q1015 NOSIG

2006/10/02 04:20
EDDW 020420Z 18010KT 9999 FEW027 SCT046 13/12 Q1004 NOSIG

2006/10/02 04:20
EDFM 020420Z 22006KT 180V250 9999 FEW012 BKN170 17/12 Q1014

2006/10/02 04:30
BKPR 020430Z 00000KT 0100 R17/0175 FG BKN003 08/07 Q1020 NOSIG RMK RED

2006/10/02 04:00
CXSC 020400Z AUTO 00000KT 05/01 RMK AO1 T00490013

2006/10/02 04:20
EDFH 020420Z 24012G23KT 200V280 9999 BKN015 13/10 Q1011

2006/10/02 04:20
EDLV 020420Z 21012KT CAVOK 15/12 Q1005

2006/10/02 04:20
EDRZ 020420Z 22009KT 9999 SCT025 BKN067 14/12 Q1013

2006/10/02 04:20
EDSB 020420Z 21011KT CAVOK 17/13 Q1014

2006/10/02 04:20
EDTL 020420Z 20008KT 9999 FEW025 BKN130 17/13 Q1014

2006/10/02 04:20
EFKA 020420Z 17003KT 0900 R17/1400D R35/P1500N -DZ FG OVC001 11/11 Q1003

2006/10/02 04:20
EFSI 020420Z 14002KT 1300 BR OVC001 11/11 Q1003

2006/10/02 04:20
ENHE 020420Z 02018KT 9999 BKN020 09/06 Q1002

2006/10/02 04:20
ESGR 020420Z AUTO 15003KT 120V180 8000NDV BR BKN110/// 11/11 Q1001

2006/10/02 04:20
ESNG 020420Z 11005KT 7000 -RA BKN002 OVC004 02/02 Q1002

2006/10/02 04:20
ESNK 020420Z 35003KT 9999 -DZ BKN007 10/10 Q1003

2006/10/02 04:20
ESNY 020420Z AUTO 29003KT 0450 R30/0900VP1500 BCFG SCT000 07/07 Q1003

2006/10/02 04:20
ESSL 020420Z 11005KT 9999 -RA FEW014 SCT046 BKN052 09/09 Q1003

2006/10/02 04:20
ESUD 020420Z AUTO 00000KT 0650NDV R33/1300VP2000D FG SCT001/// BKN003/// OVC005/// 06/06 Q1001

2006/10/02 04:20
ESUT 020420Z AUTO 14004KT 9999NDV OVC016/// 07/06 Q1000

2006/10/02 04:20
ETGZ 020420Z 19007KT 9999 FEW015 BKN180 11/10 Q1016

2006/10/02 04:20
ETHL 020420Z 21007KT 9999 BKN060 15/14 Q1016 BLU

2006/10/02 04:20
ETHN 020420Z 22007KT 9999 SCT160 BKN200 14/11 Q1014 BLU+

2006/10/02 04:20
ETHR 020420Z 21003KT 9999 FEW050 BKN110 15/12 Q1014 BLU

2006/10/02 04:20
ETNN 020420Z 20007KT 9999 FEW030 SCT110 BKN250 16/09 Q1009 BLU+BLU+TEMPO BLU

2006/10/02 04:20
ETSB 020420Z 24013KT 8000 SCT007 BKN014 12/12 Q1010 GRN

2006/10/02 04:20
ETSL 020420Z 20007KT 9999 -RA BKN060 OVC100 15/12 Q1016 BLACKBLU

2006/10/02 04:20
ETSN 020420Z 12002KT 9999 FEW013 SCT120 BKN200 14/13 Q1016 BLU+

2006/10/02 04:20
EVLA 020420Z AUTO 00000KT 1000 PRFG SCT016 BKN026 12/11 Q1008

2006/10/02 04:20
EVVA 020420Z AUTO 00000KT 0650 FG SCT021 08/07 Q1007

2006/10/02 04:21
KMMK 020421Z AUTO 00000KT 1 1/4SM BR SCT001 10/09 A3002 RMK AO2 VIS 1/2V3

2006/10/02 04:22
KOVS 020422Z AUTO 22004KT 10SM CLR 19/11 A2988 RMK AO2 TSB01E16

2006/10/02 04:23
KVSF 020423Z AUTO 00000KT 10SM OVC015 10/09 A3004 RMK AO2

2006/10/02 04:20
K1A5 020420Z AUTO 00000KT 2 1/2SM BR CLR 09/08 A3026 RMK AO2 VIS 1 1/2V5

2006/10/02 04:20
K3A1 020420Z AUTO 00000KT 10SM CLR 13/11 A3021 RMK AO2

2006/10/02 04:20
K3I2 020420Z AUTO 00000KT 7SM CLR 11/08 A3019 RMK AO2

2006/10/02 04:17
K8A0 020417Z AUTO 05005KT 10SM CLR 18/12 A3017 RMK AO2

2006/10/02 04:20
KALX 020420Z AUTO 00000KT 3SM BR 20/18 A3016 RMK AO1 SKY OBSCURED

2006/10/02 04:20
KBCB 020420Z AUTO 00000KT 10SM CLR 09/08 A3026 RMK AO2

2006/10/02 04:20
KCJR 020420Z AUTO 00000KT 5SM BR CLR 10/09 A3018 RMK AO2

2006/10/02 04:17
KEHO 020417Z AUTO 00000KT 10SM CLR 16/13 A3019 RMK AO2

2006/10/02 04:20
KEMV 020420Z AUTO 32003KT 10SM CLR 15/15 A3016 RMK AO2

2006/10/02 04:20
KEYF 020420Z AUTO 00000KT 10SM CLR 16/12 A3016 RMK AO2

2006/10/02 04:15
KGTU 020415Z AUTO 18006KT 10SM CLR 25/18 A3010 RMK AO1

2006/10/02 04:15
KHYI 020415Z AUTO 18010KT 10SM CLR 24/19 A3012 RMK AO1

2006/10/02 04:15
KILE 020415Z AUTO 17011KT 10SM CLR 26/18 A3010 RMK AO1

2006/10/02 04:21
KJYL 020421Z AUTO 00000KT 10SM CLR 19/17 A3012 RMK AO2

2006/10/02 04:15
KOCH 020415Z AUTO 00000KT 10SM CLR 21/20 A3012 RMK AO1

2006/10/02 04:15
KPRX 020415Z AUTO 17009KT 10SM CLR 26/17 A3007 RMK AO1

2006/10/02 04:21
KPTB 020421Z AUTO 00000KT 5SM BR CLR 13/12 A3017 RMK AO2

2006/10/02 04:15
KPWG 020415Z AUTO 17010KT 10SM CLR 26/18 A3006 RMK AO1

2006/10/02 04:21
KSFQ 020421Z AUTO 00000KT 10SM CLR 13/13 A3015 RMK AO2

2006/10/02 04:15
KTPL 020415Z AUTO 18011KT 10SM CLR 26/17 A3007 RMK AO1

2006/10/02 04:17
KACP 020417Z AUTO 00000KT 1/2SM FG VV005 19/17 A3012 RMK AO2

2006/10/02 04:21
KASJ 020421Z AUTO 00000KT 5SM HZ CLR 17/13 A3014 RMK AO2

2006/10/02 04:20
KBGE 020420Z AUTO 00000KT 7SM CLR 23/20 A3011 RMK AO2

2006/10/02 04:20
KCCO 020420Z AUTO 00000KT 2 1/2SM CLR 14/14 A3018 RMK AO1

2006/10/02 04:20
KCDD 020420Z AUTO 00000KT 10SM SCT100 13/09 A2975 RMK AO2

2006/10/02 04:20
KDPL 020420Z AUTO 00000KT 7SM CLR 12/11 A3017 RMK AO2

2006/10/02 04:21
KEDE 020421Z AUTO 00000KT 10SM CLR 13/12 A3014 RMK AO2

2006/10/02 04:20
KGHG 020420Z AUTO 31010G18KT 10SM OVC004 12/11 A2996 RMK AO2

2006/10/02 04:20
KHLX 020420Z AUTO 27006KT 10SM CLR 14/12 A3027 RMK AO1

2006/10/02 04:20
KHNZ 020420Z AUTO 25003KT 10SM CLR 15/13 A3017 RMK AO2

2006/10/02 04:20
KHSP 020420Z AUTO 29009KT 10SM CLR 11/08 A3026 RMK AO2

2006/10/02 04:18
KI16 020418Z AUTO 00000KT 3SM BR BKN001 09/08 A3024 RMK AO2

2006/10/02 04:20
KISO 020420Z AUTO 00000KT 7SM CLR 14/13 A3016 RMK AO2

2006/10/02 04:20
KJKA 020420Z AUTO 00000KT 5SM BR CLR 25/23 A3012 RMK AO2

2006/10/02 04:20
KJYO 020420Z AUTO 00000KT 10SM CLR 11/09 A3016 RMK AO2

2006/10/02 04:18
KLNP 020418Z AUTO 00000KT 10SM CLR 13/09 A3027 RMK AO1

2006/10/02 04:24
KRUQ 020424Z AUTO 00000KT 3SM BR CLR 13/12 A3019 RMK AO2

2006/10/02 04:20
KSHD 020420Z AUTO 00000KT 10SM CLR 11/09 A3021 RMK AO2

2006/10/02 04:21
KTDF 020421Z AUTO 00000KT 7SM CLR 11/11 A3019 RMK AO1

2006/10/02 04:20
KCPC 020420Z AUTO 00000KT 7SM CLR 16/15 A3015 RMK AO2

2006/10/02 04:18
KDNN 020418Z AUTO 36003KT 10SM CLR 14/13 A3018 RMK AO2

2006/10/02 04:20
KDRI 020420Z AUTO 00000KT 10SM CLR 21/19 A3013 RMK AO2

2006/10/02 04:21
KDUH 020421Z AUTO 00000KT 4SM BR CLR 08/08 A3013 RMK AO2

2006/10/02 04:23
KFQD 020423Z AUTO 00000KT 10SM SCT090 16/12 A3020 RMK AO2

2006/10/02 04:20
KIDI 020420Z AUTO 00000KT 10SM SCT060 07/07 A3017 RMK AO2

2006/10/02 04:20
KLOM 020420Z AUTO 27003KT 10SM CLR 10/09 A3010 RMK AO1

2006/10/02 04:24
KMDQ 020424Z AUTO 00000KT 10SM CLR 15/14 A3019 RMK AO2

2006/10/02 04:20
KMTV 020420Z AUTO 00000KT 7SM CLR 11/11 A3022 RMK AO2

2006/10/02 04:20
KOMH 020420Z AUTO 00000KT 10SM CLR 11/10 A3018 RMK AO1

2006/10/02 04:22
KONX 020422Z AUTO 00000KT 5SM BR SCT090 16/14 A3014 RMK AO2

2006/10/02 04:20
KPSK 020420Z AUTO 23003KT 10SM CLR 12/08 A3026 RMK AO2

2006/10/02 04:20
KRMN 020420Z AUTO 30004KT 10SM CLR 10/09 A3016 RMK AO2

2006/10/02 04:22
KVUJ 020422Z AUTO 00000KT 10SM CLR 13/12 A3022 RMK AO2

2006/10/02 04:13
K2G4 020413Z AUTO 26005KT 10SM 10/05 A3020 RMK AO1

2006/10/02 04:21
K3J7 020421Z AUTO 00000KT 10SM CLR 17/16 A3012 RMK AO2

2006/10/02 04:23
K4A9 020423Z AUTO 00000KT 2SM BR CLR 16/15 A3018 RMK AO2

2006/10/02 04:21
KBQK 020421Z AUTO 00000KT 7SM BKN070 BKN080 20/19 A3012 RMK AO2

2006/10/02 04:24
KBQP 020424Z AUTO 00000KT 10SM CLR 23/21 A3010 RMK AO2

2006/10/02 04:25
KCTZ 020425Z AUTO 00000KT 10SM CLR 14/13 A3016 RMK AO2

2006/10/02 04:22
KDQH 020422Z AUTO 00000KT 10SM CLR 22/16 A3010 RMK AO1

2006/10/02 04:19
KFFA 020419Z AUTO 00000KT 10SM CLR 19/17 A3014 RMK AO2

2006/10/02 04:20
KGWW 020420Z AUTO 00000KT 7SM CLR 12/11 A3015 RMK AO2

2006/10/02 04:20
ESDF 020420Z 23008KT 9999 FEW006 BKN011 15/15 Q1004

2006/10/02 04:20
ESGG 020420Z 18007KT 9999 BKN007 SCT025CB 13/12 Q1001 RERA

2006/10/02 04:20
ESGJ 020420Z 14008KT 6000 BR BKN002 OVC005 12/11 Q1002 RERA REDZ

2006/10/02 04:20
ESGP 020420Z 21008KT 9999 RA BKN005 14/13 Q1000

2006/10/02 04:20
ESMK 020420Z 23004KT 8000 BR NSC 14/13 Q1003

2006/10/02 04:20
ESMS 020420Z 19006KT 3000 BR FEW003 SCT007 BKN036 14/14 Q1004

2006/10/02 04:20
ESMX 020420Z 13004KT 4000 BR SCT003 BKN009 13/13 Q1003

2006/10/02 04:20
ESNN 020420Z 00000KT 9999 BCFG BKN023 08/08 Q1003

2006/10/02 04:20
ESNO 020420Z 32005KT 9999 BKN004 08/07 Q1002

2006/10/02 04:20
ESNQ 020420Z 00000KT 9999 -RASN BKN005 BKN012 00/M00 Q1002

2006/10/02 04:20
ESNS 020420Z VRB02KT 0550 R10/P1500N R28/1000U FG VV010 09/08 Q1002

2006/10/02 04:20
ESNU 020420Z VRB01KT 9999 FEW001 SCT004 BKN027 09/09 Q1003

2006/10/02 04:20
ESPA 020420Z VRB03KT 0900 R14/P1500N R32/P1500N FG BKN002 OVC004 09/09 Q1003

2006/10/02 04:20
EDNY 020420Z 02003KT 310V070 9999 BKN070 15/15 Q1017

2006/10/02 04:20
ENAN 020420Z 21003KT 9999 -RA SCT012 BKN020 07/05 Q1001

2006/10/02 04:20
ENDU 020420Z 00000KT 9999 -RA FEW001 BKN035 03/02 Q1002

2006/10/02 04:20
ENEK 020420Z 20011KT 9999 FEW010 14/13 Q0993

2006/10/02 04:20
ENFL 020420Z 07003KT CAVOK 07/06 Q0997

2006/10/02 04:20
ENGC 020420Z 06017KT CAVOK 12/11 Q0997

2006/10/02 04:20
ENKB 020420Z 05005KT CAVOK 10/09 Q1000

2006/10/02 04:20
ENLI 020420Z 09006KT 7000 -RA SCT007 BKN014 14/13 Q0996

2006/10/02 04:20
EGGP 020420Z 25012KT 8000 SHRA BKN022 13/10 Q0997

2006/10/02 04:20
EGGW 020420Z 24015KT 190V280 9999 FEW020 12/10 Q1001

2006/10/02 04:20
EGNT 020420Z 27004KT 2500 BR FEW005 10/09 Q0994

2006/10/02 04:20
EBAW 020420Z 22013KT 9999 BKN018 15/12 Q1006 RESH TEMPO 23018G28KT

2006/10/02 04:20
EBBR 020420Z 22016KT 9999 FEW025 SCT032 15/11 Q1006 TEMPO 21018G28KT

2006/10/02 04:20
EBCI 020420Z 21015G25KT 190V250 9999 SCT020 15/12 Q1009 NOSIG

2006/10/02 04:20
EBLG 020420Z 21016KT 9999 BKN022 15/11 Q1009 NOSIG

2006/10/02 04:20
EBOS 020420Z 20012KT 9999 FEW020CB 13/12 Q1004 TEMPO TS

2006/10/02 04:20
ELLX 020420Z 21010KT 170V250 CAVOK 14/11 Q1012 NOSIG

2006/10/02 04:20
EGAA 020420Z 28008KT 9999 -SHRA BKN006 12/12 Q0997

2006/10/02 04:20
EGBB 020420Z 23009KT 9999 SCT026 BKN045 13/10 Q0999

2006/10/02 04:20
EGCC 020420Z 22010KT 5000 +SHRA FEW014 BKN019 12/12 Q0997 TEMPO 4000 +SHRA BKN010

2006/10/02 04:20
EGFF 020420Z 25015KT 9999 FEW012 14/12 Q1001

2006/10/02 04:20
EGGD 020420Z 22011KT 9999 SCT015 SCT040 12/10 Q1002

2006/10/02 04:20
EGGP 020420Z 25012KT 8000 SHRA BKN022 13/10 Q0997

2006/10/02 04:20
EGGW 020420Z 24015KT 190V280 9999 FEW020 12/10 Q1001

2006/10/02 04:20
EGJB 020420Z 23016KT 9999 FEW012 16/14 Q1006

2006/10/02 04:20
EGJJ 020420Z 24018KT 9999 BKN018 16/13 Q1007 NOSIG

2006/10/02 04:20
EGKK 020420Z 23007KT CAVOK 13/11 Q1003

2006/10/02 04:20
EGLL 020420Z 23014KT 9999 FEW028 14/11 Q1002 NOSIG

2006/10/02 04:20
LOWG 020420Z 00000KT 3000 BR FEW050 BKN070 14/14 Q1016 NOSIG

2006/10/02 04:20
LOWI 020420Z VRB01KT 9999 -RA FEW005 SCT022 BKN040 15/14 Q1018 TEMPO RA FEW005 BKN020

2006/10/02 04:20
LOWK 020420Z VRB01KT 9999 FEW050 SCT100 13/12 Q1017 NOSIG

2006/10/02 04:20
LOWL 020420Z VRB02KT 8000 FEW010 BKN034 BKN060 15/15 Q1017 NOSIG

2006/10/02 04:20
LOWS 020420Z 14004KT 9999 FEW005 SCT025 BKN045 15/14 Q1018 RERA NOSIG

2006/10/02 04:20
LOWW 020420Z 32004KT 9999 SCT076 BKN100 16/15 Q1016 NOSIG

2006/10/02 04:20
EDMA 020420Z 21008KT CAVOK 15/14 Q1016

2006/10/02 04:20
EGPK 020420Z 18002KT 9999 BKN009 12/11 Q0995

2006/10/02 04:19
K48I 020419Z AUTO 00000KT 1/2SM FG OVC001 11/10 A3021 RMK AO2

2006/10/02 04:20
KJNX 020420Z AUTO 00000KT 10SM CLR 13/12 A3016 RMK AO1

2006/10/02 04:21
KJQF 020421Z AUTO 00000KT 5SM BR CLR 13/12 A3018 RMK AO2

2006/10/02 04:20
KAYS 020420Z AUTO 18003KT 10SM CLR 23/19 A3011 RMK AO1

2006/10/02 04:20
KDBN 020420Z AUTO 00000KT 10SM CLR 17/16 A3012 RMK AO1

2006/10/02 04:23
K47A 020423Z AUTO 00000KT 10SM CLR 17/11 A3018 RMK AO2

2006/10/02 04:23
KEXX 020423Z AUTO 00000KT 10SM CLR 14/13 A3019 RMK AO2

2006/10/02 04:23
KFDK 020423Z AUTO 00000KT 7SM CLR 08/07 A3018 RMK AO2

2006/10/02 04:24
KGAO 020424Z AUTO 00000KT 4SM BR CLR 23/22 A3012 RMK AO2

2006/10/02 04:22
KMRN 020422Z AUTO 00000KT 7SM CLR 13/11 A3024 RMK AO2

2006/10/02 04:23
KOCW 020423Z AUTO 00000KT 10SM CLR 15/11 A3016 RMK AO2

2006/10/02 04:20
KOPN 020420Z AUTO 01005KT 7SM CLR 19/19 A3015 RMK AO1

2006/10/02 04:21
KPGV 020421Z AUTO 00000KT 3/4SM BR VV005 15/13 A3015 RMK AO2

2006/10/02 04:20
KRSN 020420Z AUTO 20004KT 10SM CLR 21/20 A3011 RMK AO2

2006/10/02 04:20
KTBR 020420Z AUTO 00000KT 10SM CLR 21/21 A3011 RMK AO1

2006/10/02 04:26
KTNB 020426Z AUTO 00000KT 10SM CLR 13/08 A3027 RMK AO2

2006/10/02 04:15
KTTA 020415Z AUTO 00000KT 10SM CLR 12/11 A3017 RMK AO2

2006/10/02 04:23
KUKF 020423Z AUTO 00000KT 10SM CLR 13/12 A3023 RMK AO1

2006/10/02 04:24
KUNV 020424Z AUTO 24005KT 10SM CLR 09/07 A3015 RMK AO2

2006/10/02 04:20
KUTA 020420Z AUTO 09004KT 10SM CLR 22/15 A3012 RMK AO2

2006/10/02 04:20
KVDI 020420Z AUTO 00000KT 7SM CLR 20/17 A3010 RMK AO1

2006/10/02 04:20
KWDR 020420Z AUTO 35005KT 10SM CLR 16/14 A3020 RMK AO1

2006/10/02 04:20
KLGC 020420Z AUTO 7SM CLR 17/17 A3016

2006/10/02 04:21
KBQK 020421Z AUTO 00000KT 7SM BKN070 BKN080 20/19 A3012

2006/10/02 04:20
KLGC 020420Z AUTO 7SM CLR 17/17 A3016

2006/10/02 04:21
KIPJ 020421Z AUTO 00000KT 10SM CLR 12/11 A3019

2006/10/02 04:20
KJNX 020420Z AUTO 00000KT 10SM CLR 13/12 A3016

2006/10/02 04:21
KTDF 020421Z AUTO 00000KT 7SM CLR 11/11 A3019

2006/10/02 04:25
KCTZ 020425Z AUTO 00000KT 10SM CLR 14/13 A3016

2006/10/02 04:20
KAYS 020420Z AUTO 18003KT 10SM CLR 23/19 A3011

2006/10/02 04:21
KJQF 020421Z AUTO 00000KT 5SM BR CLR 13/12 A3018

2006/10/02 04:22
KVUJ 020422Z AUTO 00000KT 10SM CLR 13/12 A3022

2006/10/02 04:20
KJNX 020420Z AUTO 00000KT 10SM CLR 13/12 A3016

2006/10/02 04:00
FMNM 020400Z 10002KT CAVOK 24/18 Q1015

2006/10/02 04:24
PADQ 020424Z 13010KT 7SM -RA SCT008 BKN012 OVC030 09/08 A2961 RMK AO2 P0000

2006/10/02 04:24
PADQ 020424Z 13010KT 7SM -RA SCT008 BKN012 OVC030 09/08 A2961 RMK AO2 P0000

2006/10/02 04:25
KRMG 020425Z AUTO 00000KT 3SM BR CLR 14/14 A3017 RMK AO2 TSNO

2006/10/02 04:20
LTCG 020420Z 13005KT 9999 SCT035 BKN100 18/15 Q1018 NOSIG RMK RWY29 17003KT

2006/10/02 04:20
LTFE 020420Z VRB03KT CAVOK 20/11 Q1013 NOSIG RMK RWY11 35004KT

2006/10/02 04:23
KMQI 020423Z AUTO 00000KT 10SM 16/14 A3014 RMK AO2

2006/10/02 04:25
KMWK 020425Z AUTO 00000KT 10SM CLR 13/10 A3020 RMK AO2

2006/10/02 04:23
K47A 020423Z AUTO 00000KT 10SM CLR 17/11 A3018 RMK AO2

2006/10/02 04:23
KEXX 020423Z AUTO 00000KT 10SM CLR 14/13 A3019 RMK AO2

2006/10/02 04:23
KFDK 020423Z AUTO 00000KT 7SM CLR 08/07 A3018 RMK AO2

2006/10/02 04:24
KGAO 020424Z AUTO 00000KT 4SM BR CLR 23/22 A3012 RMK AO2

2006/10/02 04:22
KMRN 020422Z AUTO 00000KT 7SM CLR 13/11 A3024 RMK AO2

2006/10/02 04:23
KOCW 020423Z AUTO 00000KT 10SM CLR 15/11 A3016 RMK AO2

2006/10/02 04:20
KOPN 020420Z AUTO 01005KT 7SM CLR 19/19 A3015 RMK AO1

2006/10/02 04:21
KPGV 020421Z AUTO 00000KT 3/4SM BR VV005 15/13 A3015 RMK AO2

2006/10/02 04:20
KRSN 020420Z AUTO 20004KT 10SM CLR 21/20 A3011 RMK AO2

2006/10/02 04:20
KTBR 020420Z AUTO 00000KT 10SM CLR 21/21 A3011 RMK AO1

2006/10/02 04:26
KTNB 020426Z AUTO 00000KT 10SM CLR 13/08 A3027 RMK AO2

2006/10/02 04:15
KTTA 020415Z AUTO 00000KT 10SM CLR 12/11 A3017 RMK AO2

2006/10/02 04:23
KUKF 020423Z AUTO 00000KT 10SM CLR 13/12 A3023 RMK AO1

2006/10/02 04:24
KUNV 020424Z AUTO 24005KT 10SM CLR 09/07 A3015 RMK AO2

2006/10/02 04:20
KUTA 020420Z AUTO 09004KT 10SM CLR 22/15 A3012 RMK AO2

2006/10/02 04:20
KVDI 020420Z AUTO 00000KT 7SM CLR 20/17 A3010 RMK AO1

2006/10/02 04:20
KWDR 020420Z AUTO 35005KT 10SM CLR 16/14 A3020 RMK AO1

2006/10/02 04:23
KMQI 020423Z AUTO 00000KT 10SM 16/14 A3014 RMK AO2

2006/10/02 04:25
KMWK 020425Z AUTO 00000KT 10SM CLR 13/10 A3020 RMK AO2

2006/10/02 04:20
LTAC 020420Z 02007KT CAVOK 11/08 Q1020 NOSIG RMK RWY21L 02007KT

2006/10/02 04:20
LTAF 020420Z VRB02KT 6000 SCT035 20/18 Q1010 BECMG 9999 RMK RWY23 01003KT

2006/10/02 04:20
LTAI 020420Z 31009KT 9999 FEW030 22/10 Q1011 NOSIG RMK RWY18C 33008KT RWY36R 32011KT RWY18L 31008KT

2006/10/02 04:20
LTBA 020420Z 34008KT 9999 SCT035 16/13 Q1019 NOSIG RMK RWY18L 36005KT RWY06 35007KT RWY24 33005KT

2006/10/02 04:20
LTBJ 020420Z 35014KT CAVOK 17/11 Q1015 NOSIG RMK RWY16 35017KT

2006/10/02 04:20
LTBS 020420Z 05006KT CAVOK 19/12 Q1011 NOSIG RMK RWY19 35010KT

2006/10/02 04:20
EFIV 020420Z AUTO 15003KT 9999 BKN016 OVC021 03/00 Q1007

2006/10/02 04:20
EFKE 020420Z 11006KT 090V150 2000 -RA BR SCT003 BKN005 OVC008 05/04 Q1004

2006/10/02 04:20
ENCN 020420Z 16005KT 9999 -DZ SCT015 14/13 Q0997

2006/10/02 04:00
FMMI 020400Z VRB01KT 9999 FEW016 16/14 Q1022 NOSIG

2006/10/02 04:00
FMMT 020400Z 00000KT 9999 FEW017 SCT033 22/21 Q1018

2006/10/02 04:15
LIPE 020415Z VRB03KT 9999 FEW070 16/14 Q1016

2006/10/02 04:15
LIPH 020415Z 00000KT 0800 R07/P2000 FG BKN001 17/17 Q1016

2006/10/02 04:20
LIPQ 020420Z VRB03KT 6000 SCT030 BKN080 20/20 Q1016

2006/10/02 04:15
LIPR 020415Z 19004KT CAVOK 19/17 Q1017

2006/10/02 04:15
LIPX 020415Z 00000KT 9999 BKN060 18/18 Q1017

2006/10/02 04:20
LIPZ 020420Z VRB01KT 2000 BR SCT060 19/16 Q1017

2006/10/02 04:15
LIRA 020415Z 00000KT 7000 SKC 16/15 Q1019

2006/10/02 04:15
LIRF 020415Z 09003KT 2700N MIFG SCT013 16/15 Q1019 BECMG 1500

2006/10/02 04:15
LIRP 020415Z 00000KT 9999 SCT030 SCT040 17/16 Q1019 NOSIG

2006/10/02 04:15
LIRQ 020415Z 14002KT 9999 BKN025 18/16 Q1019

2006/10/02 04:20
LCEN 020420Z 27004KT 8000 FEW025TCU 19/17 Q1011 NOSIG RMK RWY11 25005KT

2006/10/02 04:20
LIMC 020420Z VRB01KT 2000 BR SCT015 BKN030 18/15 Q1017 NOSIG

2006/10/02 04:25
EHAM 020425Z 20019G29KT 9999 -SHRA FEW025CB SCT040 14/12 Q1002 TEMPO 7000

2006/10/02 04:25
EHBK 020425Z 21018G28KT 9999 SCT028 BKN036 16/11 Q1007 NOSIG

2006/10/02 04:25
EHDL 020425Z AUTO 20013KT 9999 14/12 Q1004

2006/10/02 04:25
EHEH 020425Z 22009KT 9000 -RA SCT030 BKN050 14/13 Q1006 BLU BLU TEMPO WHT

2006/10/02 04:25
EHGG 020425Z 20013KT 170V230 CAVOK 13/11 Q1001 TEMPO 6000 SHRA

2006/10/02 04:25
EHGR 020425Z AUTO 21010KT 9999 14/12 Q1005

2006/10/02 04:25
EHLW 020425Z 20015KT 9999 -RA FEW014 SCT020 BKN070 14/12 Q1000 WHT

2006/10/02 04:25
EHRD 020425Z 21016KT 180V240 9999 -SHRA FEW012 SCT015 FEW018CB 15/13 Q1003 TEMPO 21020G35KT 4000 TSRA

2006/10/02 04:25
EHSB 020425Z AUTO 20012KT 9999 14/13 Q1003

2006/10/02 04:25
EHTW 020425Z AUTO 20009KT 9999 14/12 Q1004

2006/10/02 04:25
EHVK 020425Z AUTO 21017KT 9999 15/12 Q1005

2006/10/02 04:25
EHVL 020425Z AUTO 24028KT 9999 15/12 Q0999

2006/10/02 04:25
EHWO 020425Z 21011KT 9999 FEW027 SCT050 15/12 Q1005 BLU

2006/10/02 04:15
LIPX 020415Z 00000KT 9999 BKN060 18/18 Q1017

2006/10/02 04:20
LIBD 020420Z 21006KT 6000 FEW020 15/14 Q1017

2006/10/02 04:15
LIBR 020415Z 00000KT 8000 SKC 18/16 Q1018 NOSIG

2006/10/02 04:20
LICC 020420Z 27006KT CAVOK 16/13 Q1018

2006/10/02 04:15
LIEA 020415Z VRB01KT 9999 FEW015 BKN025 18/16 Q1019

2006/10/02 04:15
LIEE 020415Z 33002KT 7000 SCT004 SCT015 21/19 Q1018 NOSIG

2006/10/02 04:15
LIEO 020415Z VRB02KT CAVOK 16/14 Q1019

2006/10/02 04:20
LIMC 020420Z VRB01KT 2000 BR SCT015 BKN030 18/15 Q1017 NOSIG

2006/10/02 04:20
LIME 020420Z VRB01KT 5000 BR FEW025 BKN030 19/17 Q1017

2006/10/02 04:20
LIMF 020420Z VRB01KT 3000 BR SCT025 BKN050 17/15 Q1017

2006/10/02 04:20
LIMJ 020420Z 14011KT 9999 FEW015 BKN035 21/20 Q1018

2006/10/02 04:20
LIML 020420Z 00000KT 4000 BR BKN070 19/15 Q1017 NOSIG

2006/10/02 04:20
ENHF 020420Z 19007KT 130V240 FEW036 SCT091 BKN101 05/01 Q1003

2006/10/02 04:00
HKKI 020400Z 00000KT 9999 FEW017 BKN090 17/17 Q1017

2006/10/02 04:00
RPLC 020400Z 04004KT 320V110 9999 FEW027 BKN270 30/24 Q1006 A2973 RMK NOSIG

2006/10/02 04:20
LGAD 020420Z 00000KT 8000 SKC 15/15 Q1017

2006/10/02 04:20
LGAL 020420Z 00000KT 9999 FEW025 13/12 Q1019

2006/10/02 04:20
LGAV 020420Z 01007KT 9999 FEW020 20/13 Q1018 NOSIG

2006/10/02 04:20
LGEL 020420Z 35014KT CAVOK 20/13 Q1018

2006/10/02 04:20
LGIR 020420Z 31015KT 9999 FEW020 22/16 Q1015 NOSIG

2006/10/02 04:20
LGKL 020420Z 32005KT 9999 FEW025 17/14 Q1017

2006/10/02 04:20
LGKO 020420Z 36010KT CAVOK 21/16 Q1012

2006/10/02 04:20
LGKR 020420Z 00000KT 8000 FEW008 15/15 Q1017 NOSIG

2006/10/02 04:20
LGLM 020420Z 00000KT CAVOK 14/12 Q1018

2006/10/02 04:20
LGMT 020420Z 02010KT CAVOK 19/14 Q1017

2006/10/02 04:20
LGRP 020420Z 27007KT CAVOK 23/16 Q1010 NOSIG

2006/10/02 04:20
LGSA 020420Z 00000KT 9999 FEW020 19/16 Q1017

2006/10/02 04:20
LGSM 020420Z 34014G24KT 9999 FEW018 20/13 Q1013 RWY09 36014KT

2006/10/02 04:20
LGTS 020420Z 00000KT 7000 SKC 16/14 Q1019 NOSIG

2006/10/02 04:20
LTAC 020420Z 02007KT CAVOK 11/08 Q1020 NOSIG RMK RWY21L 02007KT

2006/10/02 04:20
EDHK 020420Z 20007KT 9999 FEW060 SCT220 13/10 Q1003 BLU+BLU+TEMPO GRN

2006/10/02 04:20
EFET 020420Z AUTO 12003KT 8000 -RA BKN006 BKN008 OVC018 01/01 Q1004

2006/10/02 04:20
EFJO 020420Z 13010KT 100V160 6000 -RA OVC003 05/05 Q1008

2006/10/02 04:20
EFKI 020420Z 13006KT 100V170 7000 -RA FEW004 OVC006 05/04 Q1005

2006/10/02 04:20
EFKS 020420Z AUTO 11010KT 7000 -SG FEW010 BKN019 OVC037 01/01 Q1007

2006/10/02 04:20
EFKT 020420Z 12003KT 5000 -SHRA BKN003 01/01 Q1005

2006/10/02 04:20
EFLP 020420Z 12005KT 090V160 1000 R06/P1500N R24/P1500D BR OVC001 09/09 Q1006

2006/10/02 04:20
EFMI 020420Z AUTO 13005KT 1900 DZ BR OVC002 09/09 Q1006

2006/10/02 04:20
EFSA 020420Z 13008KT 9999 OVC006 09/08 Q1006

2006/10/02 04:20
EFUT 020420Z 22004KT 1000 BR OVC001 11/11 Q1005

2006/10/02 04:20
EFVR 020420Z AUTO 13007KT 110V170 2600 -RA BR BKN003 09/09 Q1006

2006/10/02 03:50
EGXX 020350Z AUTO 23019KT 9999NDV // FEW029/// BKN050/// 13/12 Q0995

2006/10/02 04:20
ENHK 020420Z 11011KT 9999 FEW025 BKN044 07/02 Q1002

2006/10/02 04:20
ETGG 020420Z 17013KT 9999 FEW080 12/11 Q1002

2006/10/02 04:20
ETGY 020420Z 21012KT 9999 -SHRA FEW030 SCT060 BKN090 15/11 Q1005

2006/10/02 04:20
ETHB 020420Z 21012KT 9999 FEW035 16/11 Q1006 BLU+BLU+

2006/10/02 04:20
ETHC 020420Z 19002KT 9999 SCT035 13/12 Q1006 BLU+

2006/10/02 04:20
ETHE 020420Z 20007KT 9999 SCT030 BKN060 15/12 Q1005 BLU

2006/10/02 04:20
ETHF 020420Z 16008KT 9999 FEW013 SCT025 15/13 Q1009 BLACKBLU+

2006/10/02 04:20
ETHS 020420Z 20003KT 9999 SCT050 12/10 Q1006 BLU+BLU+

2006/10/02 04:20
ETMN 020420Z 20011KT 9999 FEW020 13/11 Q1003 BLU+

2006/10/02 04:20
ETND 020420Z 19007KT 9999 FEW025 13/11 Q1005 BLU+

2006/10/02 04:20
ETNH 020420Z 18008KT 9999 FEW060 12/09 Q1003 BLU+BLU+TEMPO GRN

2006/10/02 04:20
ETNL 020420Z 22007KT 9999 BKN150 14/13 Q1005 BLU BLU

2006/10/02 04:20
ETNS 020420Z 17008KT 9999 FEW038 SCT080 12/09 Q1002 BLU+

2006/10/02 04:20
ETNT 020420Z 20009KT 9999 FEW015 BKN070 13/11 Q1002 BLU

2006/10/02 04:20
ETNU 020420Z 18004KT 9999 SCT080 BKN200 14/12 Q1006 BLU+

2006/10/02 04:20
ETNW 020420Z 20008KT 9999 SCT038 15/11 Q1006 BLU+BLU+TEMPO BLU

2006/10/02 04:20
ETSA 020420Z 21009KT 9999 BKN060 BKN100 15/12 Q1016 BLU BLU

2006/10/02 04:20
ETSH 020420Z 19005KT 8000 SCT050 BKN100 15/14 Q1009 BLACKBLU

2006/10/02 04:00
FMNA 020400Z 160//KT 9999 VCRA BKN017 22/18Q1016

2006/10/02 04:00
FMSD 020400Z 00000KT 9999 FEW017 20/19Q014

2006/10/02 04:20
LTBR 020420Z 00000KT 3000 1200SE R07/1100D BR SKC 09/07 Q1020 NOSIG RMK RWY07 00000KT

2006/10/02 04:20
LTBU 020420Z 36007KT CAVOK 13/12 Q1020 RMK RWY23 35008KT

2006/10/02 04:20
LTFC 020420Z 05004KT 010V070 CAVOK 10/08 Q1017 NOSIG RMK RWY23 05003KT

2006/10/02 04:20
LTFH 020420Z 30010KT 9999 SCT036 BKN100 18/16 Q1019 NOSIG RMK RWY31 30008KT

2006/10/02 04:20
ENNK 020420Z 00000KT 9999 -RA FEW008 SCT030 BKN050 05/04 Q1001

2006/10/02 04:20
ENOV 020420Z 00000KT 9999 FEW000 03/03 Q0999

2006/10/02 04:20
ENSD 020420Z 00000KT 9999 VCFG FEW/// SCT001 06/04 Q0999

2006/10/02 04:20
ENSN 020420Z VRB02KT 6000 RA FEW004 SCT006 BKN008 12/12 Q0997

2006/10/02 04:20
ENSR 020420Z VRB02KT 9999 SCT030 BKN050 06/01 Q1002

2006/10/02 04:20
ENTO 020420Z 13005KT 080V160 6000 RA VV002 13/13 Q0998

2006/10/02 04:25
KRMG 020425Z AUTO 00000KT 3SM BR CLR 14/14 A3017

2006/10/02 04:24
K3LF 020424Z AUTO 17007KT 10SM CLR 18/12 A3009 RMK AO2

2006/10/02 04:23
KDNV 020423Z AUTO 22007KT 10SM CLR 19/13 A3007 RMK AO2

2006/10/02 04:27
KFEP 020427Z AUTO 17008KT 10SM CLR 21/12 A2996 RMK AO2 LTG DSNT N AND NE

2006/10/02 04:23
KGLE 020423Z AUTO 16007KT 10SM CLR 26/17 A3006 RMK AO2

2006/10/02 04:24
KHQZ 020424Z AUTO 16006KT 10SM CLR 24/17 A3006 RMK AO2

2006/10/02 04:25
KJSO 020425Z AUTO 18005KT 10SM CLR 25/22 A3012 RMK AO2

2006/10/02 04:18
KJWY 020418Z AUTO 16008KT 10SM CLR 26/19 A3006 RMK AO2

2006/10/02 04:24
KLOT 020424Z AUTO 20011KT 10SM CLR 18/12 A3000 RMK AO2

2006/10/02 04:23
KPPQ 020423Z AUTO 17009KT 10SM CLR 22/12 A3005 RMK AO2

2006/10/02 04:24
KRPJ 020424Z AUTO 17009KT 10SM BKN120 24/11 A2999 RMK AO2 LTG DSNT NE

2006/10/02 03:55
KTTS 020355Z 04003KT 10SM SKC 23/21 A3010 RMK SLP193

2006/10/02 04:25
KCQX 020425Z AUTO 00000KT 3/4SM BR SCT001 BKN013 OVC019 14/13 A2992 RMK AO2

2006/10/02 04:25
KAQO 020425Z AUTO 13003KT 10SM 24/17 A3011 RMK AO2

2006/10/02 04:23
KARM 020423Z AUTO 00000KT 10SM CLR 21/21 A3011 RMK AO2

2006/10/02 04:25
KASW 020425Z AUTO 00000KT 10SM SCT120 13/09 A3013 RMK AO2

2006/10/02 04:24
KBBD 020424Z AUTO 15007KT 10SM CLR 24/14 A3010 RMK

2006/10/02 04:25
KBKS 020425Z AUTO 13006KT 10SM CLR 23/22 A3007 RMK AO1

2006/10/02 04:25
KBPG 020425Z AUTO 17010KT 10SM CLR 22/14 A3009 RMK AO1

2006/10/02 04:20
KMDD 020420Z AUTO 17009KT 10SM CLR 23/16 A3008 RMK AO2

2006/10/02 04:26
KRSV 020426Z AUTO 10SM CLR 17/13 A3013 RMK AO2 TSNO

2006/10/02 04:25
KAAA 020425Z AUTO 18008KT 10SM CLR 20/13 A3006 RMK AO2

2006/10/02 04:25
KAJG 020425Z AUTO 00000KT 10SM 15/12 A3014 RMK AO2

2006/10/02 04:25
KALN 020425Z AUTO 16006KT 10SM CLR 21/11 A3009 RMK AO2

2006/10/02 04:25
KBWD 020425Z AUTO 17006KT 10SM CLR 24/16 A3007 RMK AO1

2006/10/02 04:25
KBYY 020425Z AUTO 00000KT 10SM CLR 21/21 A3010 RMK AO2

2006/10/02 04:25
KC09 020425Z AUTO 18008KT 10SM SCT100 19/11 A3003 RMK AO2

2006/10/02 04:23
KC75 020423Z AUTO 20010G14KT 10SM CLR 21/12 A3000 RMK AO2

2006/10/02 04:25
KCIR 020425Z AUTO 00000KT 10SM CLR 14/14 A3015 RMK AO2

2006/10/02 04:25
KCUL 020425Z AUTO 18003KT 10SM CLR 11/09 A3014 RMK AO2

2006/10/02 04:25
KDKB 020425Z AUTO 18010KT 10SM CLR 17/12 A2999 RMK AO2 LTG DSNT N

2006/10/02 04:25
KDKR 020425Z AUTO 16005KT 10SM CLR 24/22 A3013 RMK AO2

2006/10/02 04:25
KOLY 020425Z AUTO 00000KT 10SM CLR 18/15 A3012 RMK AO2

2006/10/02 04:25
KPNT 020425Z AUTO 19009KT 10SM CLR 21/11 A3004 RMK AO2

2006/10/02 04:24
KPYX 020424Z AUTO 20012KT 10SM CLR 23/14 A2998 RMK AO2

2006/10/02 04:27
KRPH 020427Z AUTO 16006KT 10SM CLR 27/14 A3001 RMK AO2

2006/10/02 04:27
KSEP 020427Z AUTO 16007KT 10SM CLR 26/16 A3007 RMK AO1

2006/10/02 04:20
KSLR 020420Z AUTO 17006KT 10SM CLR 26/18 A3009 RMK AO2

2006/10/02 04:20
KCPT 020420Z AUTO 17008KT 10SM CLR 26/18 A3008 RMK AO2

2006/10/02 04:27
KDUX 020427Z AUTO 16008KT 10SM CLR 19/11 A3002 RMK AO2

2006/10/02 04:25
KE38 020425Z AUTO 21004KT 10SM CLR 19/11 A3018 RMK AO2

2006/10/02 04:21
KEBG 020421Z AUTO 14006KT 10SM CLR 25/22 A3007 RMK AO2

2006/10/02 04:23
KFWS 020423Z AUTO 16008KT 10SM CLR A3007 RMK AO2

2006/10/02 04:24
KGNC 020424Z AUTO 19007KT 10SM CLR 22/17 A3010 RMK AO2

2006/10/02 04:25
KGOP 020425Z AUTO 17008KT 10SM CLR 27/19 A3009 RMK AO2 TSNO

2006/10/02 04:25
KGPM 020425Z AUTO 18007KT 10SM CLR 25/18 A3005 RMK AO1

2006/10/02 04:25
KGVT 020425Z AUTO 16005KT 10SM CLR 24/18 A3007 RMK AO2

2006/10/02 04:25
KGYB 020425Z AUTO 19005KT 10SM CLR 24/22 A3013 RMK AO2

2006/10/02 04:20
KGYI 020420Z AUTO 16013KT 10SM CLR 27/18 A3005 RMK AO2

2006/10/02 04:27
KHHF 020427Z AUTO 18016G21KT 10SM CLR 24/15 A2994 RMK AO2

2006/10/02 04:25
KJAS 020425Z AUTO 00000KT 10SM CLR 21/20 A3014 RMK AO2

2006/10/02 04:20
KJDD 020420Z AUTO 00000KT 10SM CLR 25/19 A3011 RMK AO2

2006/10/02 04:25
KRZN 020425Z AUTO 16008KT 10SM CLR 17/10 A2977 RMK AO2

2006/10/02 04:25
KSAR 020425Z AUTO 15006KT 10SM CLR 19/13 A3011 RMK AO2

2006/10/02 04:25
KSFY 020425Z AUTO 16009KT 10SM CLR 19/11 A2994 RMK AO2

2006/10/02 04:24
KSLO 020424Z AUTO 00000KT 10SM CLR 17/12 A3012 RMK AO2

2006/10/02 04:25
KTAZ 020425Z AUTO 18008KT 10SM CLR 18/13 A3007 RMK AO2

2006/10/02 04:25
KTIP 020425Z AUTO 21008KT 10SM CLR 22/11 A3008 RMK AO2

2006/10/02 04:25
KVYS 020425Z AUTO 17008KT 10SM CLR 20/11 A3001 RMK AO2

2006/10/02 04:00
DRRN 020400Z 16004KT 130V190 CAVOK 25/23 Q1012 NOSIG

2006/10/02 04:25
PHTO 020425Z 16004KT 7SM SCT015 BKN026 OVC080 24/23 A2998

2006/10/02 04:24
K3LF 020424Z AUTO 17007KT 10SM CLR 18/12 A3009 RMK AO2

2006/10/02 04:23
KDNV 020423Z AUTO 22007KT 10SM CLR 19/13 A3007 RMK AO2

2006/10/02 04:27
KFEP 020427Z AUTO 17008KT 10SM CLR 21/12 A2996 RMK AO2 LTG DSNT N AND NE

2006/10/02 04:23
KGLE 020423Z AUTO 16007KT 10SM CLR 26/17 A3006 RMK AO2

2006/10/02 04:24
KHQZ 020424Z AUTO 16006KT 10SM CLR 24/17 A3006 RMK AO2

2006/10/02 04:25
KJSO 020425Z AUTO 18005KT 10SM CLR 25/22 A3012 RMK AO2

2006/10/02 04:18
KJWY 020418Z AUTO 16008KT 10SM CLR 26/19 A3006 RMK AO2

2006/10/02 04:24
KLOT 020424Z AUTO 20011KT 10SM CLR 18/12 A3000 RMK AO2

2006/10/02 04:23
KPPQ 020423Z AUTO 17009KT 10SM CLR 22/12 A3005 RMK AO2

2006/10/02 04:24
KRPJ 020424Z AUTO 17009KT 10SM BKN120 24/11 A2999 RMK AO2 LTG DSNT NE

2006/10/02 04:25
KAQO 020425Z AUTO 13003KT 10SM 24/17 A3011 RMK AO2

2006/10/02 04:23
KARM 020423Z AUTO 00000KT 10SM CLR 21/21 A3011 RMK AO2

2006/10/02 04:25
KASW 020425Z AUTO 00000KT 10SM SCT120 13/09 A3013 RMK AO2

2006/10/02 04:24
KBBD 020424Z AUTO 15007KT 10SM CLR 24/14 A3010 RMK

2006/10/02 04:25
KBKS 020425Z AUTO 13006KT 10SM CLR 23/22 A3007 RMK AO1

2006/10/02 04:25
KBPG 020425Z AUTO 17010KT 10SM CLR 22/14 A3009 RMK AO1

2006/10/02 04:20
KMDD 020420Z AUTO 17009KT 10SM CLR 23/16 A3008 RMK AO2

2006/10/02 04:26
KRSV 020426Z AUTO 10SM CLR 17/13 A3013 RMK AO2 TSNO

2006/10/02 04:25
KAAA 020425Z AUTO 18008KT 10SM CLR 20/13 A3006 RMK AO2

2006/10/02 04:25
KAJG 020425Z AUTO 00000KT 10SM 15/12 A3014 RMK AO2

2006/10/02 04:25
KALN 020425Z AUTO 16006KT 10SM CLR 21/11 A3009 RMK AO2

2006/10/02 04:25
KBWD 020425Z AUTO 17006KT 10SM CLR 24/16 A3007 RMK AO1

2006/10/02 04:25
KBYY 020425Z AUTO 00000KT 10SM CLR 21/21 A3010 RMK AO2

2006/10/02 04:25
KC09 020425Z AUTO 18008KT 10SM SCT100 19/11 A3003 RMK AO2

2006/10/02 04:23
KC75 020423Z AUTO 20010G14KT 10SM CLR 21/12 A3000 RMK AO2

2006/10/02 04:25
KDKB 020425Z AUTO 18010KT 10SM CLR 17/12 A2999 RMK AO2 LTG DSNT N

2006/10/02 04:25
KDKR 020425Z AUTO 16005KT 10SM CLR 24/22 A3013 RMK AO2

2006/10/02 04:25
KOLY 020425Z AUTO 00000KT 10SM CLR 18/15 A3012 RMK AO2

2006/10/02 04:25
KPNT 020425Z AUTO 19009KT 10SM CLR 21/11 A3004 RMK AO2

2006/10/02 04:24
KPYX 020424Z AUTO 20012KT 10SM CLR 23/14 A2998 RMK AO2

2006/10/02 04:27
KRPH 020427Z AUTO 16006KT 10SM CLR 27/14 A3001 RMK AO2

2006/10/02 04:20
KSLR 020420Z AUTO 17006KT 10SM CLR 26/18 A3009 RMK AO2

2006/10/02 04:20
KCPT 020420Z AUTO 17008KT 10SM CLR 26/18 A3008 RMK AO2

2006/10/02 04:27
KDUX 020427Z AUTO 16008KT 10SM CLR 19/11 A3002 RMK AO2

2006/10/02 04:25
KE38 020425Z AUTO 21004KT 10SM CLR 19/11 A3018 RMK AO2

2006/10/02 04:21
KEBG 020421Z AUTO 14006KT 10SM CLR 25/22 A3007 RMK AO2

2006/10/02 04:23
KFWS 020423Z AUTO 16008KT 10SM CLR A3007 RMK AO2

2006/10/02 04:24
KGNC 020424Z AUTO 19007KT 10SM CLR 22/17 A3010 RMK AO2

2006/10/02 04:25
KGOP 020425Z AUTO 17008KT 10SM CLR 27/19 A3009 RMK AO2 TSNO

2006/10/02 04:25
KGPM 020425Z AUTO 18007KT 10SM CLR 25/18 A3005 RMK AO1

2006/10/02 04:25
KGVT 020425Z AUTO 16005KT 10SM CLR 24/18 A3007 RMK AO2

2006/10/02 04:25
KGYB 020425Z AUTO 19005KT 10SM CLR 24/22 A3013 RMK AO2

2006/10/02 04:20
KGYI 020420Z AUTO 16013KT 10SM CLR 27/18 A3005 RMK AO2

2006/10/02 04:27
KHHF 020427Z AUTO 18016G21KT 10SM CLR 24/15 A2994 RMK AO2

2006/10/02 04:25
KJAS 020425Z AUTO 00000KT 10SM CLR 21/20 A3014 RMK AO2

2006/10/02 04:20
KJDD 020420Z AUTO 00000KT 10SM CLR 25/19 A3011 RMK AO2

2006/10/02 04:25
KRZN 020425Z AUTO 16008KT 10SM CLR 17/10 A2977 RMK AO2

2006/10/02 04:25
KSAR 020425Z AUTO 15006KT 10SM CLR 19/13 A3011 RMK AO2

2006/10/02 04:24
KSLO 020424Z AUTO 00000KT 10SM CLR 17/12 A3012 RMK AO2

2006/10/02 04:25
KTAZ 020425Z AUTO 18008KT 10SM CLR 18/13 A3007 RMK AO2

2006/10/02 04:25
KTIP 020425Z AUTO 21008KT 10SM CLR 22/11 A3008 RMK AO2

2006/10/02 04:25
KVYS 020425Z AUTO 17008KT 10SM CLR 20/11 A3001 RMK AO2

2006/10/02 04:25
KCQX 020425Z AUTO 00000KT 3/4SM BR SCT001 BKN013 OVC019 14/13 A2992 RMK AO2

2006/10/02 04:26
KELM 020426Z 00000KT 3/4SM BR VV001 07/06 A3011 RMK AO2

2006/10/02 04:26
KFWN 020426Z AUTO 00000KT 1/4SM FG VV001 07/07 A3008 RMK AO2

2006/10/02 04:15
RJCT 020415Z 10006KT 9999 FEW010 SCT020 BKN030 19/14 Q1018 RMK 1ST010 3CU020 6CU030 A3006

2006/10/02 04:25
PHTO 020425Z 16004KT 7SM SCT015 BKN026 OVC080 24/23 A2998 RMK AO2 RAE24 P0000

2006/10/02 04:17
RJOH 020417Z VRB02KT 9999 -SHRA FEW010 BKN020 BKN050 20/17 Q1013 RMK 1CU010 5CU020 7SC050 A2992

2006/10/02 04:00
MKJS 020400Z E14003KT 9999 VCTS FEW020 FEW022CB BKN220 29/20 Q1014

2006/10/02 04:00
MYNN 020400Z 06006KT 9999 FEW020 28/24 Q1017

2006/10/02 04:25
CYQM 020425Z 05009G15KT 8SM -SHRA BKN006 BKN020 OVC050 11/ RMK SF5SC2SC1

2006/10/02 04:26
KELM 020426Z 00000KT 3/4SM BR VV001 07/06 A3011 RMK AO2

2006/10/02 04:26
KFWN 020426Z AUTO 00000KT 1/4SM FG VV001 07/07 A3008 RMK AO2

2006/10/02 03:55
KTTS 020355Z 04003KT 10SM SKC 23/21 A3010 RMK SLP193

2006/10/02 04:20
RJNG 020420Z VRB02KT 9000 -SHRA FEW003 SCT008 BKN015 20/18 Q1010 RMK 1CU003 4CU008 5CU015 A2984

2006/10/02 04:23
KDNV 020423Z AUTO 22007KT 10SM CLR 19/13 A3007

2006/10/02 04:27
KFEP 020427Z AUTO 17008KT 10SM CLR 21/12 A2996

2006/10/02 04:24
KLOT 020424Z AUTO 20011KT 10SM CLR 18/12 A3000

2006/10/02 04:23
KPPQ 020423Z AUTO 17009KT 10SM CLR 22/12 A3005

2006/10/02 04:23
MMMX 020423Z 31003KT 8SM VC-RA SCT025 BKN080 BKN200 14/12 A3038 RMK 8/463 -RA E10 PCPN S-SW

2006/10/02 04:20
KFMH 020420Z 27011KT 7SM OVC011 13/12 A2994

2006/10/02 04:20
ESKN 020420Z 09003KT 2600 R26/0800N BCFG SKC 09/08 Q1004

2006/10/02 04:20
ESOK 020420Z 08006KT 9999 FEW022 BKN085 11/10 Q1001

2006/10/02 04:20
ESOW 020420Z 00000KT 0400 R01/0650N R19/1900N BCFG NSC 05/05 Q1004

2006/10/02 04:20
ESSA 020420Z 08004KT 9999 BCFG NSC 07/07 Q1005 TEMPO 4000

2006/10/02 04:20
ESSB 020420Z 00000KT 9999 BCFG NSC 07/07 Q1005

2006/10/02 04:20
ESSD 020420Z VRB01KT 0300 R32/0750V1100N FG VV003 04/03 Q1004

2006/10/02 04:20
ESSP 020420Z 00000KT 1200 R09/0700V1200N R27/0600V0800N PRFG NSC 06/05 Q1004

2006/10/02 04:20
ESSV 020420Z 17006KT 9999 MIFG NSC 12/11 Q1005

2006/10/02 04:25
KCIR 020425Z AUTO 00000KT 10SM CLR 14/14 A3015 RMK AO2

2006/10/02 04:25
KCUL 020425Z AUTO 18003KT 10SM CLR 11/09 A3014 RMK AO2

2006/10/02 04:27
KSEP 020427Z AUTO 16007KT 10SM CLR 26/16 A3007 RMK AO1

2006/10/02 04:25
KSFY 020425Z AUTO 16009KT 10SM CLR 19/11 A2994 RMK AO2

2006/10/02 04:20
EGPA 020420Z AUTO 02021KT 9999 OVC009/// 12/11 Q0996

2006/10/02 04:20
EGPC 020420Z AUTO 02017KT 2500NDV RA SCT003/// SCT034/// 12/11 Q0995

2006/10/02 04:25
EHKD 020425Z 23021KT 5000 TSRA FEW013 SCT020CB BKN035 15/13 Q0999 WHT WHT TEMPO GRN

2006/10/02 03:55
KSKA 020355Z 24005KT 7SM SCT200 11/M00 A2990 RMK SLP132

2006/10/02 04:28
EFVR 020428Z 13007KT 2400 -RA BR BKN003 09/09 Q1006

2006/10/02 04:23
KGLE 020423Z AUTO 16007KT 10SM CLR 26/17 A3006

2006/10/02 04:20
KOPN 020420Z AUTO 01005KT 7SM CLR 19/19 A3015

2006/10/02 04:20
EGPC 020420Z AUTO 02017KT 2500NDV RA SCT003/// SCT034/// 12/11 Q0995

2006/10/02 04:20
EGPE 020420Z AUTO 02011KT 9999 RA BKN004/// 12/12 Q0994

2006/10/02 04:20
EGPL 020420Z AUTO 36014KT 9999 SCT026/// 11/09 Q0999

2006/10/02 04:20
EGPO 020420Z AUTO 01017KT 7000NDV BKN013/// BKN025/// 12/09 Q0999

2006/10/02 04:20
EGCN 020420Z 24011KT 9000 -RA SCT024 BKN030 13/12 Q0997

2006/10/02 04:20
ESOE 020420Z 02007KT 0150 R01/0750 R19/0500N FG VV002 07/06 Q1003

2006/10/02 04:20
ETHA 020420Z 26010KT 9999 BKN050 BKN070 14/10 Q1017 BLU BLU

2006/10/02 04:30
LQBK 020430Z 15004KT CAVOK 17/15 Q1017 NOSIG

2006/10/02 04:30
FAJS 020430Z 29005KT 7000 NSC 18/06 Q1016 NOSIG

2006/10/02 04:23
KFDK 020423Z AUTO 00000KT 7SM CLR 08/07 A3018

2006/10/02 04:20
KWDR 020420Z AUTO 35005KT 10SM CLR 16/14 A3020

2006/10/02 04:27
KHUL 020427Z AUTO 04004KT 10SM -RA SCT017 BKN026 OVC085 10/07 A3006 RMK AO2 RAB24 P0000

2006/10/02 04:28
KAQW 020428Z AUTO 00000KT 9SM SCT010 OVC019 12/11 A3002 RMK AO2

2006/10/02 04:28
KOFP 020428Z AUTO 00000KT 3SM BR CLR 12/11 A3019 RMK AO2

2006/10/02 04:28
KVTA 020428Z AUTO 00000KT 1/2SM FG CLR 07/06 A3017 RMK AO2

2006/10/02 04:28
KYIP 020428Z 00000KT 1/4SM FG CLR 07/06 A3013 RMK AO2

2006/10/02 04:24
KBIJ 020424Z AUTO 00000KT 4SM BR SCT055 21/19 A3012 RMK AO2

2006/10/02 04:25
KECU 020425Z AUTO 15011KT 10SM CLR 24/18 A3018 RMK AO2

2006/10/02 04:25
KENL 020425Z AUTO 17005KT 10SM CLR 18/12 A3012 RMK AO2

2006/10/02 04:25
KFOA 020425Z AUTO 16004KT 10SM CLR 16/12 A3013 RMK AO2

2006/10/02 04:26
KFWC 020426Z AUTO 19003KT 10SM CLR 17/13 A3013 RMK AO2

2006/10/02 04:25
KHBV 020425Z AUTO 12010KT 10SM CLR 25/22 A3009 RMK AO2

2006/10/02 04:25
KJXI 020425Z AUTO 15004KT 10SM CLR 24/19 A3010 RMK AO2

2006/10/02 04:25
KLBR 020425Z AUTO 12003KT 10SM CLR 22/16 A3007 RMK AO1

2006/10/02 04:23
KLHB 020423Z AUTO 14004KT 10SM CLR 25/21 A3009 RMK AO2

2006/10/02 04:24
KLNC 020424Z AUTO 17005KT 10SM CLR 26/19 A3007 RMK AO2

2006/10/02 04:25
KLUD 020425Z AUTO 17012KT 10SM CLR 26/16 A3005 RMK AO2

2006/10/02 04:27
KMEZ 020427Z AUTO 19005KT 10SM CLR 28/17 A3011 RMK AO2

2006/10/02 04:25
KORG 020425Z AUTO 00000KT 1SM BR VV007 21/21 A3012 RMK AO2

2006/10/02 04:24
KOSA 020424Z AUTO 14004KT 10SM CLR 22/18 A3009 RMK AO1

2006/10/02 04:25
KPCM 020425Z AUTO 00000KT 10SM CLR 20/18 A3013 RMK AO2

2006/10/02 04:26
KPEQ 020426Z AUTO 15010KT 10SM CLR 26/17 A3004 RMK AO2

2006/10/02 04:26
KPPA 020426Z AUTO 19018G23KT 10SM 22/16 A3002 RMK AO2

2006/10/02 04:27
KXBP 020427Z AUTO 17009G15KT 10SM CLR 27/16 A3004 RMK AO2 PWINO

2006/10/02 04:25
KF05 020425Z AUTO 17006KT 10SM CLR 23/16 A2999 RMK AO2

2006/10/02 04:20
KGDJ 020420Z AUTO 15008KT 10SM CLR 27/16 A3005 RMK AO2

2006/10/02 04:25
KHSB 020425Z AUTO 00000KT 10SM CLR 12/12 A3015 RMK AO2

2006/10/02 04:25
KIGQ 020425Z AUTO 19013KT 10SM -RA SCT033 SCT075 BKN110 18/13 A3001 RMK AO2

2006/10/02 04:25
KIJX 020425Z AUTO 20009KT 10SM CLR 20/12 A3005 RMK AO2 TSNO

2006/10/02 04:25
KIKK 020425Z AUTO 01004KT 10SM SCT120 19/13 A3011 RMK AO2

2006/10/02 04:25
KJOT 020425Z AUTO 17003KT 10SM CLR 16/13 A3001 RMK AO2 LTG DSNT N

2006/10/02 04:25
KM30 020425Z AUTO 00000KT 10SM CLR 13/13 A3015 RMK AO2

2006/10/02 04:25
KMKN 020425Z AUTO 17007KT 10SM 26/16 A3008 RMK AO2

2006/10/02 04:25
KMQB 020425Z AUTO 19009G15KT 10SM CLR 23/12 A3000 RMK AO2

2006/10/02 04:25
KPSN 020425Z AUTO 14004KT 10SM CLR 25/21 A3010 RMK AO2

2006/10/02 04:25
KPVW 020425Z AUTO 18009KT 10SM CLR 21/16 A3006 RMK AO2

2006/10/02 04:25
KRAS 020425Z AUTO 14010G14KT 10SM CLR 28/26 A3011 RMK AO2

2006/10/02 04:25
KRWV 020425Z AUTO 15005KT 10SM CLR 25/21 A3012 RMK AO2

2006/10/02 04:25
KSOA 020425Z AUTO 20003KT 10SM CLR 23/14 A3010 RMK AO2

2006/10/02 04:24
KUVA 020424Z AUTO 13009G14KT 10SM BKN049 26/22 A3009 RMK AO2

2006/10/02 04:25
K1H2 020425Z AUTO 17005KT 10SM CLR 19/12 A3010 RMK AO2 TSNO

2006/10/02 04:27
KERV 020427Z AUTO 14009KT 10SM CLR 23/20 A3012 RMK AO2

2006/10/02 04:25
KMWA 020425Z AUTO 16005KT 10SM CLR 19/14 A3015 RMK AO2

2006/10/02 04:25
KRBO 020425Z AUTO 12006KT 10SM CLR 25/23 A3007 RMK AO2

2006/10/02 04:25
KSNK 020425Z AUTO 20007KT 10SM CLR 22/17 A3008 RMK AO2

2006/10/02 04:27
KT82 020427Z AUTO 17006KT 10SM CLR 26/19 A3014 RMK AO1

2006/10/02 04:25
KVVG 020425Z AUTO 00000KT 10SM 22/22 A3012 RMK AO2

2006/10/02 04:25
CYQM 020425Z CCA 05009G15KT 8SM -SHRA BKN006 BKN020 OVC050 11/ RERA RMK SF5SC2SC1

2006/10/02 04:30
SAWE 020430Z 27003KT 4000 BR BKN010 02/02 Q1017

2006/10/02 04:27
KHUL 020427Z AUTO 04004KT 10SM -RA SCT017 BKN026 OVC085 10/07 A3006 RMK AO2 RAB24 P0000

2006/10/02 04:28
KAQW 020428Z AUTO 00000KT 9SM SCT010 OVC019 12/11 A3002 RMK AO2

2006/10/02 04:28
KOFP 020428Z AUTO 00000KT 3SM BR CLR 12/11 A3019 RMK AO2

2006/10/02 04:28
KVTA 020428Z AUTO 00000KT 1/2SM FG CLR 07/06 A3017 RMK AO2

2006/10/02 04:28
KYIP 020428Z 00000KT 1/4SM FG CLR 07/06 A3013 RMK AO2

2006/10/02 04:29
PPIZ 020429Z AUTO 05005KT 4SM +RA BR SCT004 BKN016 OVC049 01/M01 A2976 RMK AO2 TSNO P0000 $

2006/10/02 04:29
KENW 020429Z AUTO 08019G22KT 10SM FEW090 BKN110 17/12 A3006 RMK AO2 LTG DSNT N-SE TSB00E23

2006/10/02 04:29
KMMK 020429Z AUTO 00000KT 3SM BR SCT001 10/09 A3003 RMK AO2

2006/10/02 04:29
KPHD 020429Z AUTO 00000KT 5SM BR SCT001 08/07 A3018 RMK AO2

2006/10/02 04:29
KSFD 020429Z AUTO 00000KT 2SM HZ CLR 18/10 A2980 RMK AO2 TSNO

2006/10/02 04:29
KALB 020429Z 00000KT 1/2SM FG SCT001 BKN006 OVC085 09/09 A3004 RMK AO2 TWR VIS 1 VIS S 7

2006/10/02 04:24
KBIJ 020424Z AUTO 00000KT 4SM BR SCT055 21/19 A3012 RMK AO2

2006/10/02 04:25
KECU 020425Z AUTO 15011KT 10SM CLR 24/18 A3018 RMK AO2

2006/10/02 04:25
KENL 020425Z AUTO 17005KT 10SM CLR 18/12 A3012 RMK AO2

2006/10/02 04:25
KFOA 020425Z AUTO 16004KT 10SM CLR 16/12 A3013 RMK AO2

2006/10/02 04:26
KFWC 020426Z AUTO 19003KT 10SM CLR 17/13 A3013 RMK AO2

2006/10/02 04:25
KHBV 020425Z AUTO 12010KT 10SM CLR 25/22 A3009 RMK AO2

2006/10/02 04:25
KJXI 020425Z AUTO 15004KT 10SM CLR 24/19 A3010 RMK AO2

2006/10/02 04:25
KLBR 020425Z AUTO 12003KT 10SM CLR 22/16 A3007 RMK AO1

2006/10/02 04:23
KLHB 020423Z AUTO 14004KT 10SM CLR 25/21 A3009 RMK AO2

2006/10/02 04:24
KLNC 020424Z AUTO 17005KT 10SM CLR 26/19 A3007 RMK AO2

2006/10/02 04:25
KLUD 020425Z AUTO 17012KT 10SM CLR 26/16 A3005 RMK AO2

2006/10/02 04:27
KMEZ 020427Z AUTO 19005KT 10SM CLR 28/17 A3011 RMK AO2

2006/10/02 04:25
KORG 020425Z AUTO 00000KT 1SM BR VV007 21/21 A3012 RMK AO2

2006/10/02 04:24
KOSA 020424Z AUTO 14004KT 10SM CLR 22/18 A3009 RMK AO1

2006/10/02 04:25
KPCM 020425Z AUTO 00000KT 10SM CLR 20/18 A3013 RMK AO2

2006/10/02 04:26
KPEQ 020426Z AUTO 15010KT 10SM CLR 26/17 A3004 RMK AO2

2006/10/02 04:26
KPPA 020426Z AUTO 19018G23KT 10SM 22/16 A3002 RMK AO2

2006/10/02 04:27
KXBP 020427Z AUTO 17009G15KT 10SM CLR 27/16 A3004 RMK AO2 PWINO

2006/10/02 04:25
KF05 020425Z AUTO 17006KT 10SM CLR 23/16 A2999 RMK AO2

2006/10/02 04:20
KGDJ 020420Z AUTO 15008KT 10SM CLR 27/16 A3005 RMK AO2

2006/10/02 04:25
KHSB 020425Z AUTO 00000KT 10SM CLR 12/12 A3015 RMK AO2

2006/10/02 04:25
KIGQ 020425Z AUTO 19013KT 10SM -RA SCT033 SCT075 BKN110 18/13 A3001 RMK AO2

2006/10/02 04:25
KIJX 020425Z AUTO 20009KT 10SM CLR 20/12 A3005 RMK AO2 TSNO

2006/10/02 04:25
KIKK 020425Z AUTO 01004KT 10SM SCT120 19/13 A3011 RMK AO2

2006/10/02 04:25
KJOT 020425Z AUTO 17003KT 10SM CLR 16/13 A3001 RMK AO2 LTG DSNT N

2006/10/02 04:25
KM30 020425Z AUTO 00000KT 10SM CLR 13/13 A3015 RMK AO2

2006/10/02 04:25
KMQB 020425Z AUTO 19009G15KT 10SM CLR 23/12 A3000 RMK AO2

2006/10/02 04:25
KPVW 020425Z AUTO 18009KT 10SM CLR 21/16 A3006 RMK AO2

2006/10/02 04:25
KRAS 020425Z AUTO 14010G14KT 10SM CLR 28/26 A3011 RMK AO2

2006/10/02 04:25
KRWV 020425Z AUTO 15005KT 10SM CLR 25/21 A3012 RMK AO2

2006/10/02 04:24
KUVA 020424Z AUTO 13009G14KT 10SM BKN049 26/22 A3009 RMK AO2

2006/10/02 04:25
K1H2 020425Z AUTO 17005KT 10SM CLR 19/12 A3010 RMK AO2 TSNO

2006/10/02 04:27
KERV 020427Z AUTO 14009KT 10SM CLR 23/20 A3012 RMK AO2

2006/10/02 04:25
KMWA 020425Z AUTO 16005KT 10SM CLR 19/14 A3015 RMK AO2

2006/10/02 04:25
KRBO 020425Z AUTO 12006KT 10SM CLR 25/23 A3007 RMK AO2

2006/10/02 04:25
KSNK 020425Z AUTO 20007KT 10SM CLR 22/17 A3008 RMK AO2

2006/10/02 04:27
KT82 020427Z AUTO 17006KT 10SM CLR 26/19 A3014 RMK AO1

2006/10/02 04:25
KVVG 020425Z AUTO 00000KT 10SM 22/22 A3012 RMK AO2

2006/10/02 04:28
K3T5 020428Z AUTO 00000KT 10SM CLR 24/22 A3009 RMK AO2

2006/10/02 04:25
KT65 020425Z AUTO 13005KT 10SM CLR 27/23 A3008 RMK AO2

2006/10/02 04:00
HKEL 020400Z 11007KT CAVOK 10/08 Q1024

2006/10/02 04:30
UBBB 020430Z 34014KT 9999 SCT013 22/21 Q1015 88CLRD70 NOSIG

2006/10/02 04:30
UTTT 020430Z 14002MPS 7000 FEW100 22/09 Q1018 NOSIG 08CLRD70

2006/10/02 04:00
SKBO 020400Z 04003KT 9999 BKN017 12/10 A3033

2006/10/02 04:00
SKCG 020400Z 03003KT 9999 SKC 28/27 A2981

2006/10/02 04:00
SKCL 020400Z 04006KT 9000 FEW017CB FEW020 BKN090 23/19 A2993

2006/10/02 04:00
SKSP 020400Z 07005KT 9999 FEW023 29/26 A2990

2006/10/02 04:00
RPLB 020400Z 23004KT 9999 FEW018 BKN300 31/25 Q1006 NOSIG

2006/10/02 04:27
KHUL 020427Z AUTO 04004KT 10SM -RA SCT017 BKN026 OVC085 10/07 A3006

2006/10/02 04:30
LBGO 020430Z 09002MPS 1600 BR SCT100 10/09 Q1019 NOSIG

2006/10/02 04:15
LHDC 020415Z 18003KT 6000 NSC 13/11 Q1017 NOSIG

2006/10/02 04:15
LHKE 020415Z 00000MPS 1200 MIFG FEW200 11/10 Q1017 BECMG 1500 BR RMK RWY12 00000MPS AMB

2006/10/02 04:15
LHPP 020415Z 28002KT CAVOK 15/13 Q1017

2006/10/02 04:15
LHSN 020415Z VRB01MPS 5000 BR FEW200 12/11 Q1016 TEMPO 3000 BR RMK WHT

2006/10/02 04:20
LTFJ 020420Z 03006KT 4000 BR SCT010 12/11 Q1019 NOSIG RMK RWY24 02001KT

2006/10/02 04:30
UBBN 020430Z 09002KT 9999 BKN100 16/12 Q1016 14CLRD60 NOSIG RMK G/O QFE687

2006/10/02 04:29
PPIZ 020429Z AUTO 05005KT 4SM +RA BR SCT004 BKN016 OVC049 01/M01 A2976 RMK AO2 TSNO P0000 $

2006/10/02 04:29
KENW 020429Z AUTO 08019G22KT 10SM FEW090 BKN110 17/12 A3006 RMK AO2 LTG DSNT N-SE TSB00E23

2006/10/02 04:29
KMMK 020429Z AUTO 00000KT 3SM BR SCT001 10/09 A3003 RMK AO2

2006/10/02 04:29
KPHD 020429Z AUTO 00000KT 5SM BR SCT001 08/07 A3018 RMK AO2

2006/10/02 04:29
KSFD 020429Z AUTO 00000KT 2SM HZ CLR 18/10 A2980 RMK AO2 TSNO

2006/10/02 04:28
K3T5 020428Z AUTO 00000KT 10SM CLR 24/22 A3009 RMK AO2

2006/10/02 04:25
KT65 020425Z AUTO 13005KT 10SM CLR 27/23 A3008 RMK AO2

2006/10/02 04:30
DIAP 020430Z 19004KT 8000 -RA SCT011 BKN030 25/25 Q1012TEMPO 4000 RA VOKN006 BKN010 OVC030

2006/10/02 04:25
KMKN 020425Z AUTO 17007KT 10SM 26/16 A3008 RMK AO2

2006/10/02 04:25
KPSN 020425Z AUTO 14004KT 10SM CLR 25/21 A3010 RMK AO2

2006/10/02 04:25
KSOA 020425Z AUTO 20003KT 10SM CLR 23/14 A3010 RMK AO2

2006/10/02 04:29
KALB 020429Z 00000KT 1/2SM FG SCT001 BKN006 OVC085 09/09 A3004

2006/10/02 04:30
UTTT 020430Z 14002MPS 7000 FEW100 22/09 Q1018 NOSIG 08CLRD70

2006/10/02 04:20
LGPZ 020420Z 05004KT CAVOK 18/17 Q1018 NOSIG

2006/10/02 04:20
LGRX 020420Z 00000KT 8000 SKC 16/15 Q1017 NOSIG

2006/10/02 04:30
EFSI 020430Z 15002KT 1000 R32/P1500 BR OVC001 11/11 Q1003

2006/10/02 04:00
SKBG 020400Z 00000KT 9999 FEW020 BKN100 21/19 A2999

2006/10/02 04:00
SKPE 020400Z 12004KT 9999 FEW015 SCT090 21/19 A3006

2006/10/02 04:27
KSEP 020427Z AUTO 16007KT 10SM CLR 26/16 A3007

2006/10/02 04:25
KBPG 020425Z AUTO 17010KT 10SM CLR 22/14 A3009

2006/10/02 04:25
KBYY 020425Z AUTO 00000KT 10SM CLR 21/21 A3010

2006/10/02 04:24
KLNC 020424Z AUTO 17005KT 10SM CLR 26/19 A3007

2006/10/02 04:25
K1H2 020425Z AUTO 17005KT 10SM CLR 19/12 A3010

2006/10/02 04:25
KAAA 020425Z AUTO 18008KT 10SM CLR 20/13 A3006

2006/10/02 04:25
KC09 020425Z AUTO 18008KT 10SM SCT100 19/11 A3003

2006/10/02 04:23
KC75 020423Z AUTO 20010G14KT 10SM CLR 21/12 A3000

2006/10/02 04:25
KDKB 020425Z AUTO 18010KT 10SM CLR 17/12 A2999

2006/10/02 04:25
KENL 020425Z AUTO 17005KT 10SM CLR 18/12 A3012

2006/10/02 04:25
KFOA 020425Z AUTO 16004KT 10SM CLR 16/12 A3013

2006/10/02 04:26
KFWC 020426Z AUTO 19003KT 10SM CLR 17/13 A3013

2006/10/02 04:25
KHSB 020425Z AUTO 00000KT 10SM CLR 12/12 A3015

2006/10/02 04:25
KIGQ 020425Z AUTO 19013KT 10SM -RA SCT033 SCT075 BKN110 18/13 A3001

2006/10/02 04:25
KIJX 020425Z AUTO 20009KT 10SM CLR 20/12 A3005

2006/10/02 04:25
KIKK 020425Z AUTO 01004KT 10SM SCT120 19/13 A3011

2006/10/02 04:25
KJOT 020425Z AUTO 17003KT 10SM CLR 16/13 A3001

2006/10/02 04:25
KMQB 020425Z AUTO 19009G15KT 10SM CLR 23/12 A3000

2006/10/02 04:25
KMWA 020425Z AUTO 16005KT 10SM CLR 19/14 A3015

2006/10/02 04:25
KOLY 020425Z AUTO 00000KT 10SM CLR 18/15 A3012

2006/10/02 04:25
KPNT 020425Z AUTO 19009KT 10SM CLR 21/11 A3004

2006/10/02 04:25
KSAR 020425Z AUTO 15006KT 10SM CLR 19/13 A3011

2006/10/02 04:24
KSLO 020424Z AUTO 00000KT 10SM CLR 17/12 A3012

2006/10/02 04:25
KTAZ 020425Z AUTO 18008KT 10SM CLR 18/13 A3007

2006/10/02 04:25
KTIP 020425Z AUTO 21008KT 10SM CLR 22/11 A3008

2006/10/02 04:25
KVYS 020425Z AUTO 17008KT 10SM CLR 20/11 A3001

2006/10/02 03:56
KHLR 020356Z AUTO 16010KT 10SM CLR 26/19 A3008 RMK AO2 SLP178 T02610189 $

2006/10/02 04:31
LKTB 020431Z 00000KT 0600 R28/1400V2000D FG OVC002 13/12 Q1015 RMK REG QNH 1011

2006/10/02 04:31
K04V 020431Z AUTO 30004KT 10SM CLR 12/M06 A3029 RMK AO2

2006/10/02 04:30
K0CO 020430Z AUTO 10SM 03/M09 A3053 RMK AO2

2006/10/02 04:31
K5SM 020431Z AUTO 00000KT 10SM CLR 07/M06 A3044 RMK AO2

2006/10/02 04:25
KAEG 020425Z AUTO 26010KT 10SM CLR 14/M03 A3017 RMK A01 P000

2006/10/02 04:31
KANW 020431Z AUTO 16003KT 10SM CLR 13/09 A2984 RMK AO2

2006/10/02 04:31
KDUA 020431Z AUTO 17006KT 10SM CLR 26/18 A3005 RMK AO2

2006/10/02 04:30
KLCG 020430Z AUTO 18005KT 10SM CLR 15/12 A2977 RMK AO2

2006/10/02 04:30
KOGA 020430Z AUTO 31003KT 10SM CLR 14/07 A2989 RMK AO2

2006/10/02 04:27
KTRK 020427Z AUTO 00000KT 7SM BKN047 09/06 A3011 RMK AO1

2006/10/02 04:30
EPLL 020430Z 19002KT 2000 BR OVC003 13/13 Q1012

2006/10/02 04:30
EPWR 020430Z 22002KT CAVOK 13/12 Q1010

2006/10/02 04:30
GMAD 020430Z 07002KT 8000 FEW020 17/16 Q1014 NOSIG

2006/10/02 03:50
LTCF 020350Z 22003KT 9999 -SHRA SCT025 BKN080 07/06 Q1021

2006/10/02 04:30
KEWB 020430Z AUTO 31007KT 10SM SCT008 OVC011 13/12 A2996 RMK AO2

2006/10/02 04:31
KHEF 020431Z AUTO 00000KT 2 1/2SM CLR 09/06 A3018 RMK AO1

2006/10/02 04:30
KLBT 020430Z AUTO 00000KT 2SM BR CLR 14/13 A3017 RMK AO2 TSNO

2006/10/02 04:30
KLOZ 020430Z AUTO 00000KT 2 1/2SM BR CLR 11/10 A3023 RMK AO2

2006/10/02 04:29
PACM 020429Z AUTO 00000KT 10SM OVC009 08/07 A2952 RMK AO2 TSNO CIG 006V015 RAB04E20 P0000

2006/10/02 04:29
PACM 020429Z AUTO 00000KT 10SM OVC009 08/07 A2952 RMK AO2 TSNO CIG 006V015 RAB04E20 P0000

2006/10/02 04:30
KEWB 020430Z AUTO 31007KT 10SM SCT008 OVC011 13/12 A2996 RMK AO2

2006/10/02 04:31
KHEF 020431Z AUTO 00000KT 2 1/2SM CLR 09/06 A3018 RMK AO1

2006/10/02 04:30
KLBT 020430Z AUTO 00000KT 2SM BR CLR 14/13 A3017 RMK AO2 TSNO

2006/10/02 04:30
KLOZ 020430Z AUTO 00000KT 2 1/2SM BR CLR 11/10 A3023 RMK AO2

2006/10/02 04:29
PACM 020429Z AUTO 00000KT 10SM OVC009 08/07 A2952 RMK AO2 TSNO CIG 006V015 RAB04E20 P0000

2006/10/02 04:29
PACM 020429Z AUTO 00000KT 10SM OVC009 08/07 A2952 RMK AO2 TSNO CIG 006V015 RAB04E20 P0000

2006/10/02 04:31
K04V 020431Z AUTO 30004KT 10SM CLR 12/M06 A3029 RMK AO2

2006/10/02 04:30
K0CO 020430Z AUTO 10SM 03/M09 A3053 RMK AO2

2006/10/02 04:31
K5SM 020431Z AUTO 00000KT 10SM CLR 07/M06 A3044 RMK AO2

2006/10/02 04:25
KAEG 020425Z AUTO 26010KT 10SM CLR 14/M03 A3017 RMK A01 P000

2006/10/02 04:31
KANW 020431Z AUTO 16003KT 10SM CLR 13/09 A2984 RMK AO2

2006/10/02 04:31
KDUA 020431Z AUTO 17006KT 10SM CLR 26/18 A3005 RMK AO2

2006/10/02 04:30
KLCG 020430Z AUTO 18005KT 10SM CLR 15/12 A2977 RMK AO2

2006/10/02 04:30
KOGA 020430Z AUTO 31003KT 10SM CLR 14/07 A2989 RMK AO2

2006/10/02 04:27
KTRK 020427Z AUTO 00000KT 7SM BKN047 09/06 A3011 RMK AO1

2006/10/02 03:55
ETAD 020355Z COR 22014G19KT 9999 BKN021 13/11 A2988 RMK AO2A SLP110 T01320113 $ WR// WHT COR 0428

2006/10/02 04:31
KFOK 020431Z AUTO 33004KT 2SM BR CLR 10/09 A3002 RMK AO2 TSNO

2006/10/02 04:20
RJAF 020420Z 00000KT 4500 -RA BR FEW005 SCT012 BKN025 16/13 Q1013 RMK 2ST005 3ST012 5SC025 A2991

2006/10/02 04:30
K4O4 020430Z AUTO 15005KT 10SM CLR 22/17 A3009 RMK AO2

2006/10/02 04:30
KAFK 020430Z AUTO 20013G17KT 10SM CLR 25/13 A2985 RMK AO2

2006/10/02 04:31
KAQR 020431Z AUTO 17006KT 10SM CLR 25/18 A3004 RMK AO2

2006/10/02 04:30
KATS 020430Z AUTO 22005KT 10SM CLR 21/01 A3006 RMK AO2

2006/10/02 04:30
KAUH 020430Z AUTO 20009KT 10SM CLR 22/12 A2980 RMK AO2

2006/10/02 04:30
KAUN 020430Z AUTO 00000KT 10SM FEW026 BKN120 12/10 A3002 RMK A01 P000

2006/10/02 04:33
KAVK 020433Z AUTO 19013KT 10SM CLR 25/14 A2992 RMK AO2

2006/10/02 04:30
KAXS 020430Z AUTO 17008KT 10SM CLR 24/15 A3000 RMK AO2

2006/10/02 04:30
KBIE 020430Z AUTO 19015KT 10SM CLR 26/12 A2984 RMK AO2

2006/10/02 04:30
KBVN 020430Z AUTO 00000KT 10SM CLR 14/12 A2978 RMK AO2

2006/10/02 04:30
KBVS 020430Z AUTO 00000KT 10SM CLR 07/ A3002 RMK A01 P000

2006/10/02 04:30
KCCU 020430Z AUTO 24011G19KT 10SM CLR 05/M09 A3051 RMK AO2

2006/10/02 04:30
KCLK 020430Z AUTO 16007KT 10SM CLR 20/16 A2999 RMK AO2

2006/10/02 04:31
KCQB 020431Z AUTO 18009KT 10SM SCT110 25/17 A3000 RMK AO2

2006/10/02 04:30
KCUH 020430Z AUTO 18007KT 10SM CLR 23/18 A2999 RMK AO2

2006/10/02 04:30
KFET 020430Z AUTO 18013G16KT 10SM CLR 25/13 A2979 RMK AO2 TSNO

2006/10/02 04:30
KNQA 020430Z AUTO 00000KT 10SM CLR 17/11 A3014 RMK

2006/10/02 04:30
KRQO 020430Z AUTO 17010KT 10SM CLR 23/17 A2999 RMK AO2

2006/10/02 04:31
KWDG 020431Z AUTO 19010KT 10SM CLR 25/16 A2995 RMK AO2

2006/10/02 04:35
KGCM 020435Z AUTO 17006KT 10SM CLR 23/17 A3004 RMK AO2

2006/10/02 04:33
KGMJ 020433Z AUTO 16006KT 10SM CLR 24/18 A3005 RMK AO2

2006/10/02 04:30
KHDE 020430Z AUTO 32007KT 10SM CLR 14/07 A2984 RMK AO2

2006/10/02 04:30
KIBM 020430Z AUTO 22008KT 10SM CLR 15/M02 A3001 RMK AO2

2006/10/02 04:30
KJYR 020430Z AUTO 19008KT 10SM CLR 23/12 A2981 RMK AO2 PWINO TSNO

2006/10/02 04:30
KLAM 020430Z AUTO 20004KT 10SM CLR 20/M05 A3028 RMK AO2

2006/10/02 04:30
KLXN 020430Z AUTO 00000KT 10SM CLR 12/09 A2983 RMK AO2 TSNO

2006/10/02 04:30
KMLE 020430Z AUTO 17008G14KT 10SM CLR 26/13 A2981 RMK AO2

2006/10/02 04:30
KONP 020430Z AUTO 34004KT 4SM BR CLR 10/09 A3004 RMK AO2

2006/10/02 04:30
KORS 020430Z AUTO 00000KT 10SM CLR 08/08 A3000 RMK AO2

2006/10/02 04:23
MMMX 020423Z 31003KT 8SM VC-RA SCT025 BKN080 BKN200 14/12 A3038 RMK 8/463 -RA E10 PCPN S-SW

2006/10/02 04:30
KEWB 020430Z AUTO 31007KT 10SM SCT008 OVC011 13/12 A2996

2006/10/02 04:26
ETAD 020426Z 22011KT 9999 BKN025 13/11 A2986 RMK AO2A BKN025 V SCT WR// BLU

2006/10/02 04:00
ETAD 020400Z COR 22015G19KT 9999 SCT021 13/11 A2988 RMK AO2A SCT021 V BKN SLP110 $ WR// BLU COR 0430

2006/10/02 04:31
EGVA 020431Z AUTO 23010KT 9999 FEW018 12/09 A2957 RMK AO2 RAE0431 SLP012 $

2006/10/02 04:32
KSDM 020432Z AUTO 27009KT 6SM BR SCT004 18/17 A2995

2006/10/02 04:28
EGVA 020428Z AUTO 23013KT 9999 -RA SCT010 12/09 A2956 RMK AO2 SCT010 V BKN SLP011 $

2006/10/02 04:26
K1F0 020426Z AUTO 17006KT 10SM CLR 28/19 A3004 RMK AO2

2006/10/02 04:35
KCIU 020435Z AUTO 12008KT 10SM FEW040 OVC110 08/06 A3006 RMK AO1

2006/10/02 04:35
KCOD 020435Z 22003KT 10SM CLR 15/M03 A2995 RMK AO1

2006/10/02 04:33
KDUC 020433Z AUTO 17008KT 10SM CLR 25/17 A3001 RMK AO2

2006/10/02 04:35
KEGE 020435Z AUTO 09007KT 10SM CLR 11/M02 A3020 RMK AO1

2006/10/02 04:35
KEHR 020435Z AUTO 17007KT 10SM CLR 14/11 A3016 RMK AO1

2006/10/02 04:35
KESC 020435Z AUTO 15007KT 10SM OVC090 14/11 A2997 RMK AO1

2006/10/02 04:35
KFNL 020435Z AUTO 15003KT 10SM CLR 18/M07 A3004 RMK AO1

2006/10/02 04:35
KGDV 020435Z AUTO 36005KT 10SM CLR 12/01 A2986 RMK AO1

2006/10/02 04:35
KGUC 020435Z 00000KT 10SM CLR 08/M04 A3033 RMK AO1

2006/10/02 04:35
KGXY 020435Z AUTO 26004KT 10SM CLR 17/M04 A3004 RMK AO1

2006/10/02 04:35
KHDN 020435Z 06007KT 10SM CLR 11/M03 A3018 RMK AO1

2006/10/02 04:32
KHJH 020432Z AUTO 18010KT 10SM CLR 25/13 A2983 RMK AO2

2006/10/02 04:35
KHNB 020435Z AUTO 17003KT 9SM CLR 16/13 A3016 RMK AO1

2006/10/02 04:35
KIWD 020435Z AUTO 17015G22KT 10SM CLR 16/07 A2979 RMK AO1

2006/10/02 04:35
KJAC 020435Z AUTO 21003KT 10SM CLR 09/M03 A3009 RMK AO1

2006/10/02 04:33
KJWG 020433Z AUTO 21009KT 10SM CLR 26/17 A3000 RMK AO2

2006/10/02 04:31
KLRU 020431Z AUTO 26004KT 10SM CLR 19/06 A3014 RMK AO2

2006/10/02 04:35
KMBL 020435Z AUTO 11006KT 10SM FEW045 BKN110 11/07 A3003 RMK AO1

2006/10/02 04:35
KMNM 020435Z AUTO 16009KT 10SM OVC090 15/11 A2997 RMK AO1

2006/10/02 04:35
KMTW 020435Z AUTO 15009G15KT 10SM OVC090 15/12 A3001 RMK AO1 LTG DSNT NE TSE00B16E31

2006/10/02 04:35
KMVN 020435Z 00000KT 10SM CLR 15/11 A3015 RMK AO1

2006/10/02 04:32
KMYP 020432Z AUTO 25021KT 10SM CLR 10/M03 A3062 RMK AO2

2006/10/02 04:32
KONL 020432Z AUTO 24003KT 10SM CLR 18/13 A2979 RMK AO2

2006/10/02 04:35
KOUN 020435Z AUTO 17011KT 10SM SCT100 26/16 A3001 RMK AO2 TSNO

2006/10/02 04:30
KPNA 020430Z AUTO 29004KT 10SM CLR 07/00 A3014 RMK AO2

2006/10/02 04:30
KPTT 020430Z AUTO 18013KT 10SM CLR 24/11 A2993 RMK AO2

2006/10/02 04:32
KRKR 020432Z AUTO 00000KT 10SM CLR 21/19 A3006 RMK AO2

2006/10/02 04:35
KSDY 020435Z AUTO 32006KT 10SM CLR 10/02 A2985 RMK AO1

2006/10/02 04:30
KSOW 020430Z AUTO 18008KT 10SM CLR 15/M01 A3027 RMK AO2

2006/10/02 04:35
KSQI 020435Z 17004KT 10SM CLR 20/09 A2998 RMK AO1

2006/10/02 04:30
KSRR 020430Z AUTO 20008KT 10SM 15/M01 A3028 RMK AO2 TSNO

2006/10/02 04:35
KSUE 020435Z AUTO 15011G19KT 10SM OVC090 14/11 A2995 RMK AO1 LTG DSNT E

2006/10/02 04:26
KSZT 020426Z AUTO 00000KT 10SM CLR 07/M02 A2991 RMK AO1

2006/10/02 04:30
KTEX 020430Z AUTO 14005KT 10SM BKN100 12/M06 A3041 RMK AO2

2006/10/02 04:32
KWWR 020432Z AUTO 21014KT 10SM CLR 25/14 A2995 RMK AO2

2006/10/02 04:35
K11R 020435Z AUTO 16004KT 10SM CLR 25/23 A3010 RMK AO2

2006/10/02 04:33
KSNL 020433Z AUTO 18010KT 10SM CLR 26/16 A3002 RMK AO2

2006/10/02 04:32
KSRE 020432Z AUTO 15007KT 10SM 25/16 A3004 RMK AO2 TSNO

2006/10/02 04:33
KTIF 020433Z AUTO 00000KT 10SM CLR 14/05 A2986 RMK AO2

2006/10/02 04:33
KTQH 020433Z AUTO 15005KT 10SM CLR 24/18 A3005 RMK AO2

2006/10/02 04:34
PGUM 020434Z 19004KT 10SM FEW015CB OVC120 26/24 A2957

2006/10/02 04:00
HEAX 020400Z 32008KT 9999 FEW020 24/15 Q1011 NOSIG

2006/10/02 04:00
HEGN 020400Z 28012KT CAVOK 24/16 Q1010 NOSIG

2006/10/02 04:00
HELX 020400Z 20002KT CAVOK 22/14 Q1011 NOSIG

2006/10/02 04:00
HEMM 020400Z 27011KT 9999 BKN020 23/17 Q1013 NOSIG

2006/10/02 04:00
HEPS 020400Z 33008KT 8000 SKC 21/19 Q1012 NOSIG

2006/10/02 04:00
HESN 020400Z 36005KT CAVOK 24/10 Q1011 NOSIG

2006/10/02 04:30
RCKH 020430Z 24008KT 4000 HZ FEW012 SCT045 BKN100 30/24 Q1007 NOSIG

2006/10/02 04:30
RCSS 020430Z 07011KT 020V120 7000 FEW020 BKN035 BKN060 28/20 Q1010 NOSIG

2006/10/02 04:30
RCTP 020430Z 05022KT 8000 FEW018 BKN050 28/21 Q1010 NOSIG

2006/10/02 04:34
PGUM 020434Z 19004KT 10SM FEW015CB OVC120 26/24 A2957 RMK AO2 TSB02E28RAE17 TS MOV NE CB SE MOV NE P0000

2006/10/02 04:31
KFOK 020431Z AUTO 33004KT 2SM BR CLR 10/09 A3002 RMK AO2 TSNO

2006/10/02 04:32
PASC 020432Z 03003KT 10SM FEW010 OVC041 00/00 A2971 RMK AO2

2006/10/02 04:32
KEWN 020432Z AUTO 00000KT 2 1/2SM BR CLR 14/13 A3017 RMK AO2

2006/10/02 04:33
KHEF 020433Z AUTO 00000KT 1 1/2SM CLR 09/07 A3018 RMK AO1

2006/10/02 04:30
K4O4 020430Z AUTO 15005KT 10SM CLR 22/17 A3009 RMK AO2

2006/10/02 04:30
KAFK 020430Z AUTO 20013G17KT 10SM CLR 25/13 A2985 RMK AO2

2006/10/02 04:31
KAQR 020431Z AUTO 17006KT 10SM CLR 25/18 A3004 RMK AO2

2006/10/02 04:30
KATS 020430Z AUTO 22005KT 10SM CLR 21/01 A3006 RMK AO2

2006/10/02 04:30
KAUH 020430Z AUTO 20009KT 10SM CLR 22/12 A2980 RMK AO2

2006/10/02 04:30
KAUN 020430Z AUTO 00000KT 10SM FEW026 BKN120 12/10 A3002 RMK A01 P000

2006/10/02 04:33
KAVK 020433Z AUTO 19013KT 10SM CLR 25/14 A2992 RMK AO2

2006/10/02 04:30
KAXS 020430Z AUTO 17008KT 10SM CLR 24/15 A3000 RMK AO2

2006/10/02 04:30
KBIE 020430Z AUTO 19015KT 10SM CLR 26/12 A2984 RMK AO2

2006/10/02 04:30
KBVN 020430Z AUTO 00000KT 10SM CLR 14/12 A2978 RMK AO2

2006/10/02 04:30
KBVS 020430Z AUTO 00000KT 10SM CLR 07/ A3002 RMK A01 P000

2006/10/02 04:30
KCCU 020430Z AUTO 24011G19KT 10SM CLR 05/M09 A3051 RMK AO2

2006/10/02 04:30
KCLK 020430Z AUTO 16007KT 10SM CLR 20/16 A2999 RMK AO2

2006/10/02 04:31
KCQB 020431Z AUTO 18009KT 10SM SCT110 25/17 A3000 RMK AO2

2006/10/02 04:30
KCUH 020430Z AUTO 18007KT 10SM CLR 23/18 A2999 RMK AO2

2006/10/02 04:30
KFET 020430Z AUTO 18013G16KT 10SM CLR 25/13 A2979 RMK AO2 TSNO

2006/10/02 04:30
KNQA 020430Z AUTO 00000KT 10SM CLR 17/11 A3014 RMK

2006/10/02 04:30
KRQO 020430Z AUTO 17010KT 10SM CLR 23/17 A2999 RMK AO2

2006/10/02 04:31
KWDG 020431Z AUTO 19010KT 10SM CLR 25/16 A2995 RMK AO2

2006/10/02 04:35
KGCM 020435Z AUTO 17006KT 10SM CLR 23/17 A3004 RMK AO2

2006/10/02 04:33
KGMJ 020433Z AUTO 16006KT 10SM CLR 24/18 A3005 RMK AO2

2006/10/02 04:30
KHDE 020430Z AUTO 32007KT 10SM CLR 14/07 A2984 RMK AO2

2006/10/02 04:30
KIBM 020430Z AUTO 22008KT 10SM CLR 15/M02 A3001 RMK AO2

2006/10/02 04:30
KJYR 020430Z AUTO 19008KT 10SM CLR 23/12 A2981 RMK AO2 PWINO TSNO

2006/10/02 04:30
KLAM 020430Z AUTO 20004KT 10SM CLR 20/M05 A3028 RMK AO2

2006/10/02 04:30
KLXN 020430Z AUTO 00000KT 10SM CLR 12/09 A2983 RMK AO2 TSNO

2006/10/02 04:30
KMLE 020430Z AUTO 17008G14KT 10SM CLR 26/13 A2981 RMK AO2

2006/10/02 04:30
KONP 020430Z AUTO 34004KT 4SM BR CLR 10/09 A3004 RMK AO2

2006/10/02 04:30
KORS 020430Z AUTO 00000KT 10SM CLR 08/08 A3000 RMK AO2

2006/10/02 04:26
K1F0 020426Z AUTO 17006KT 10SM CLR 28/19 A3004 RMK AO2

2006/10/02 04:35
KCIU 020435Z AUTO 12008KT 10SM FEW040 OVC110 08/06 A3006 RMK AO1

2006/10/02 04:35
KCOD 020435Z 22003KT 10SM CLR 15/M03 A2995 RMK AO1

2006/10/02 04:33
KDUC 020433Z AUTO 17008KT 10SM CLR 25/17 A3001 RMK AO2

2006/10/02 04:35
KEGE 020435Z AUTO 09007KT 10SM CLR 11/M02 A3020 RMK AO1

2006/10/02 04:35
KEHR 020435Z AUTO 17007KT 10SM CLR 14/11 A3016 RMK AO1

2006/10/02 04:35
KESC 020435Z AUTO 15007KT 10SM OVC090 14/11 A2997 RMK AO1

2006/10/02 04:35
KFNL 020435Z AUTO 15003KT 10SM CLR 18/M07 A3004 RMK AO1

2006/10/02 04:35
KGDV 020435Z AUTO 36005KT 10SM CLR 12/01 A2986 RMK AO1

2006/10/02 04:35
KGUC 020435Z 00000KT 10SM CLR 08/M04 A3033 RMK AO1

2006/10/02 04:35
KGXY 020435Z AUTO 26004KT 10SM CLR 17/M04 A3004 RMK AO1

2006/10/02 04:35
KHDN 020435Z 06007KT 10SM CLR 11/M03 A3018 RMK AO1

2006/10/02 04:32
KHJH 020432Z AUTO 18010KT 10SM CLR 25/13 A2983 RMK AO2

2006/10/02 04:35
KHNB 020435Z AUTO 17003KT 9SM CLR 16/13 A3016 RMK AO1

2006/10/02 04:35
KIWD 020435Z AUTO 17015G22KT 10SM CLR 16/07 A2979 RMK AO1

2006/10/02 04:35
KJAC 020435Z AUTO 21003KT 10SM CLR 09/M03 A3009 RMK AO1

2006/10/02 04:33
KJWG 020433Z AUTO 21009KT 10SM CLR 26/17 A3000 RMK AO2

2006/10/02 04:31
KLRU 020431Z AUTO 26004KT 10SM CLR 19/06 A3014 RMK AO2

2006/10/02 04:35
KMBL 020435Z AUTO 11006KT 10SM FEW045 BKN110 11/07 A3003 RMK AO1

2006/10/02 04:35
KMNM 020435Z AUTO 16009KT 10SM OVC090 15/11 A2997 RMK AO1

2006/10/02 04:35
KMTW 020435Z AUTO 15009G15KT 10SM OVC090 15/12 A3001 RMK AO1 LTG DSNT NE TSE00B16E31

2006/10/02 04:35
KMVN 020435Z 00000KT 10SM CLR 15/11 A3015 RMK AO1

2006/10/02 04:32
KMYP 020432Z AUTO 25021KT 10SM CLR 10/M03 A3062 RMK AO2

2006/10/02 04:32
KONL 020432Z AUTO 24003KT 10SM CLR 18/13 A2979 RMK AO2

2006/10/02 04:35
KOUN 020435Z AUTO 17011KT 10SM SCT100 26/16 A3001 RMK AO2 TSNO

2006/10/02 04:30
KPNA 020430Z AUTO 29004KT 10SM CLR 07/00 A3014 RMK AO2

2006/10/02 04:30
KPTT 020430Z AUTO 18013KT 10SM CLR 24/11 A2993 RMK AO2

2006/10/02 04:32
KRKR 020432Z AUTO 00000KT 10SM CLR 21/19 A3006 RMK AO2

2006/10/02 04:35
KSDY 020435Z AUTO 32006KT 10SM CLR 10/02 A2985 RMK AO1

2006/10/02 04:35
KSQI 020435Z 17004KT 10SM CLR 20/09 A2998 RMK AO1

2006/10/02 04:30
KSRR 020430Z AUTO 20008KT 10SM 15/M01 A3028 RMK AO2 TSNO

2006/10/02 04:35
KSUE 020435Z AUTO 15011G19KT 10SM OVC090 14/11 A2995 RMK AO1 LTG DSNT E

2006/10/02 04:30
LDDU 020430Z 07003KT CAVOK 17/14 Q1019

2006/10/02 04:30
LDOS 020430Z 18003KT CAVOK 15/13 Q1017

2006/10/02 04:30
LDPL 020430Z 00000KT 3000 BR FEW040 16/16 Q1017 BECMG 5000

2006/10/02 04:30
LDSP 020430Z VRB01KT 9999 FEW060 14/11 Q1019 NOSIG

2006/10/02 04:30
LDZA 020430Z 25004KT CAVOK 14/14 Q1016 NOSIG

2006/10/02 04:30
LDZD 020430Z 12002KT CAVOK 16/16 Q1018

2006/10/02 04:30
LJLJ 020430Z 30002KT 9999 -RA FEW025 BKN040 BKN090 15/14 Q1017 NOSIG

2006/10/02 04:30
LJMB 020430Z 00000KT 4000 BR NSC 14/13 Q1016

2006/10/02 04:30
LJPZ 020430Z 10005KT 9999 FEW021 SCT050 OVC090 20/19 Q1017

2006/10/02 04:30
LKMT 020430Z 21007KT 5000 BR NSC 14/13 Q1014 NOSIG

2006/10/02 04:30
LKPR 020430Z 23011KT 9999 FEW023 16/14 Q1013 NOSIG

2006/10/02 04:30
LKTB 020430Z 00000KT 1500 BR OVC002 13/12 Q1015 TEMPO 800 FG

2006/10/02 04:30
LQSA 020430Z 00000KT 0800 R12/0550N FG SCT001 09/09 Q1021

2006/10/02 04:30
LWOH 020430Z 32004KT CAVOK 08/08 Q1021

2006/10/02 04:30
LWSK 020430Z 00000KT 6000 SKC 09/08 Q1021 TEMPO 5000 BR

2006/10/02 04:30
LZIB 020430Z 00000KT 7000 NSC 13/12 Q1016 NOSIG

2006/10/02 04:30
LZKZ 020430Z 00000KT 2000 MIFG FEW007 12/11 Q1016 NOSIG

2006/10/02 04:30
LZTT 020430Z VRB03KT CAVOK 11/10 Q1016

2006/10/02 04:30
EPGD 020430Z 20003KT 2800 BR SCT004 BKN007 12/11 Q1008

2006/10/02 04:30
EPKK 020430Z 00000KT 2000 BR MIFG BKN100 12/12 Q1013

2006/10/02 04:30
EPKT 020430Z 20004KT 2200 BR NSC 14/14 Q1013

2006/10/02 04:30
EPPO 020430Z 20004KT 2500 BR NSC 13/13 Q1009

2006/10/02 04:30
EPRZ 020430Z 25004KT 8000 BKN040 13/12 Q1014

2006/10/02 04:30
EPSC 020430Z 16005KT 3000 BR FEW002 BKN050 14/13 Q1007

2006/10/02 04:30
EPWA 020430Z 25004KT 180V270 2500 BR FEW004 BKN009 15/14 Q1011 NOSIG

2006/10/02 04:30
LPFR 020430Z 26003KT CAVOK 18/18 Q1014

2006/10/02 04:30
LPPR 020430Z 12006KT 9999 FEW020 BKN040 17/17 Q1012

2006/10/02 04:30
LPPS 020430Z 20013KT 9999 FEW016 SCT100 23/20 Q1013

2006/10/02 04:30
LPPT 020430Z 21003KT 8000 FEW005 BKN100 18/18 Q1013 NOSIG

2006/10/02 04:30
LFMN 020430Z 32007KT 9999 FEW023 17/17 Q1017 NOSIG

2006/10/02 04:30
LFOH 020430Z AUTO 21014KT 9999NDV BKN022/// 16/13 Q1008

2006/10/02 04:30
LFPB 020430Z 21012KT 9999 FEW020 BKN100 16/13 Q1010 NOSIG

2006/10/02 04:30
LFPG 020430Z 21014KT 9999 FEW016 BKN230 16/13 Q1010 NOSIG

2006/10/02 04:30
LFPN 020430Z AUTO 20011KT 9999NDV BKN014 BKN028 15/13 Q1011

2006/10/02 04:30
LFPO 020430Z 20010KT 170V230 9999 BKN014 BKN180 16/14 Q1011 NOSIG

2006/10/02 04:30
LFQQ 020430Z 22016KT 9999 SCT023 BKN032 15/12 Q1006 NOSIG

2006/10/02 04:30
LFRC 020430Z AUTO 23008KT 200V260 9999NDV FEW010 14/12 Q1006

2006/10/02 04:30
LFRD 020430Z AUTO 21008KT 9999NDV FEW020 15/14 Q1008

2006/10/02 04:30
LFRG 020430Z AUTO 21010KT 9999NDV FEW025 14/12 Q1008

2006/10/02 04:30
LFRZ 020430Z AUTO 23013KT 9999NDV SCT024/// BKN046/// OVC100/// //////TCU 17/15 Q1011

2006/10/02 04:30
LFSB 020430Z 16006KT 130V190 9999 FEW005 SCT087 BKN230 15/14 Q1015 NOSIG

2006/10/02 04:30
LFST 020430Z 20010KT 9999 FEW053 SCT066 16/15 Q1014 NOSIG

2006/10/02 04:30
LFTW 020430Z 00000KT 4000 BR BKN010 19/18 Q1017 BECMG 5000

2006/10/02 04:30
LFBA 020430Z 11005KT 0800 R29/0700N FG SKC 15/14 Q1014 TEMPO 0300 FG

2006/10/02 04:30
LFBC 020430Z 03003KT 360V070 CAVOK 13/12 Q1013

2006/10/02 04:30
LFKF 020430Z AUTO 02002KT 9000NDV NCD 13/12 Q1018

2006/10/02 04:30
LFPB 020430Z 21012KT 9999 FEW020 BKN100 16/13 Q1010 NOSIG

2006/10/02 04:30
LFPG 020430Z 21014KT 9999 FEW016 BKN230 16/13 Q1010 NOSIG

2006/10/02 04:30
LFQQ 020430Z 22016KT 9999 SCT023 BKN032 15/12 Q1006 NOSIG

2006/10/02 04:30
LFRH 020430Z AUTO 25015KT 9999NDV FEW005 SCT018 BKN028 17/14 Q1009

2006/10/02 04:30
LFSC 020430Z 20008KT 9999 FEW002 BKN160 16/14 Q1015

2006/10/02 04:30
LFSX 020430Z 21003KT 9999 SCT018 SCT030 BKN120 14/14 Q1015

2006/10/02 04:30
RKSI 020430Z 29007KT 250V320 7000 SKC 23/15 Q1015 NOSIG

2006/10/02 04:30
BIKF 020430Z 20002KT 9999 FEW019 OVC023 05/02 Q1011

2006/10/02 04:30
LPFR 020430Z 26003KT CAVOK 18/18 Q1014

2006/10/02 04:30
LPMA 020430Z 24015KT 9999 FEW016 FEW018TCU 22/21 Q1013 RS2111KT 052111KT 232315KT

2006/10/02 04:30
LPPR 020430Z 12006KT 9999 FEW020 BKN040 17/17 Q1012

2006/10/02 04:30
LPPS 020430Z 20013KT 9999 FEW016 SCT100 23/20 Q1013

2006/10/02 04:30
LPPT 020430Z 21003KT 8000 FEW005 BKN100 18/18 Q1013 NOSIG

2006/10/02 04:32
PASC 020432Z 03003KT 10SM FEW010 OVC041 00/00 A2971 RMK AO2

2006/10/02 04:32
KEWN 020432Z AUTO 00000KT 2 1/2SM BR CLR 14/13 A3017 RMK AO2

2006/10/02 04:33
KHEF 020433Z AUTO 00000KT 1 1/2SM CLR 09/07 A3018 RMK AO1

2006/10/02 04:00
CPFI 020400Z AUTO 12003KT 06/03 RMK AO1 T00550026

2006/10/02 04:00
CPRO 020400Z AUTO 05004KT 06/02 RMK AO1 T00600024 50004

2006/10/02 04:00
CPRY 020400Z AUTO 11006KT 05/03 RMK AO1 T00480030

2006/10/02 04:00
CPSV 020400Z AUTO 05007KT 04/01 RMK AO1 T00410011

2006/10/02 04:00
CXAK 020400Z AUTO 24005KT 05/03 RMK AO1 T00510025

2006/10/02 04:00
CXDB 020400Z AUTO 13003KT 05/03 RMK AO1 T00450032

2006/10/02 04:00
CXFM 020400Z AUTO 06006KT 05/02 RMK AO1 T00530021

2006/10/02 04:00
CXHD 020400Z AUTO 27004KT 05/01 RMK AO1 T00540006

2006/10/02 04:00
CXMO 020400Z AUTO 01002KT 07/02 RMK AO1 T00710022

2006/10/02 04:00
CXOL 020400Z AUTO 28004KT 05/03 RMK AO1 T00520025

2006/10/02 04:00
CXPL 020400Z AUTO 01006KT 06/02 RMK AO1 T00560024

2006/10/02 04:00
CXSL 020400Z AUTO 24001KT M00/M03 RMK AO1 T10031029

2006/10/02 04:00
CXSP 020400Z AUTO 28002KT 01/M02 RMK AO1 T00081024

2006/10/02 04:00
CXTH 020400Z AUTO 27004KT 05/M02 RMK AO1 T00461016

2006/10/02 04:00
CXVM 020400Z AUTO 29005KT 04/M01 RMK AO1 T00381008

2006/10/02 04:00
CZOL 020400Z AUTO 31002KT 03/M01 RMK AO1 T00291011

2006/10/02 04:00
CZPS 020400Z AUTO 31006KT 06/02 RMK AO1 T00600015

2006/10/02 04:00
HESH 020400Z 36012KT CAVOK 26/17 Q1009 NOSIG

2006/10/02 04:00
HETB 020400Z 00000KT CAVOK 17/12 Q1015 NOSIG

2006/10/02 04:30
K4O4 020430Z AUTO 15005KT 10SM CLR 22/17 A3009 RMK AO2

2006/10/02 04:30
LFBE 020430Z 10004KT 3000 MIFG BR NSC 12/12 Q1014 NOSIG

2006/10/02 04:30
LFCR 020430Z AUTO 13005KT 9999NDV NCD 14/12 Q1017

2006/10/02 04:30
LFJL 020430Z AUTO 20013KT 9999NDV NSC 15/12 Q1013

2006/10/02 04:30
LFMK 020430Z 09005KT 050V110 4000 BR SCT008 BKN013 19/18 Q1016

2006/10/02 04:30
LFMU 020430Z AUTO 01005KT 5000NDV FEW009 BKN015 OVC062 19/18 Q1016

2006/10/02 04:30
LFMV 020430Z AUTO 00000KT 5000NDV SCT031 18/17 Q1017

2006/10/02 04:30
LFOJ 020430Z 21011KT 9999 FEW026 BKN130 15/13 Q1012

2006/10/02 04:30
VDPP 020430Z 24006KT 9999 SCT015 30/26 Q1004

2006/10/02 04:30
WSSS 020430Z 20006KT 170V230 4000 HZ FEW018 BKN270 30/24 Q1011 NOSIG

2006/10/02 04:30
GMME 020430Z 16002KT 0600 FG BKN010 SCT016 17/U Q1015 NOSIG

2006/10/02 04:30
GMMN 020430Z 14004KT 0200 FG BKN003 18/18 Q1016 NOSIG

2006/10/02 04:30
GMMX 020430Z 11002KT CAVOK 20/16 Q1017 NOSIG

2006/10/02 04:30
GMTT 020430Z AUTO 08007KT 8000 FEW016 SCT233 21/16 Q1015 NOSIG

2006/10/02 04:30
VHHH 020430Z 35006KT 4800 HZ FEW040 BKN150 29/20 Q1010 NOSIG

2006/10/02 04:30
VMMC 020430Z 01010KT 330V030 4500 HZ SCT040 BKN080 27/22 Q1011 NOSIG

2006/10/02 04:32
KSDM 020432Z AUTO 27009KT 6SM BR SCT004 18/17 A2995 RMK AO2 TSNO

2006/10/02 04:28
KEHA 020428Z AUTO 20008KT 18/M01 RMK AO1 PK WND 11 000 T01831005

2006/10/02 04:30
KSOW 020430Z AUTO 18008KT 10SM CLR 15/M01 A3027 RMK AO2

2006/10/02 04:26
KSZT 020426Z AUTO 00000KT 10SM CLR 07/M02 A2991 RMK AO1

2006/10/02 04:30
KTEX 020430Z AUTO 14005KT 10SM BKN100 12/M06 A3041 RMK AO2

2006/10/02 04:32
KWWR 020432Z AUTO 21014KT 10SM CLR 25/14 A2995 RMK AO2

2006/10/02 04:35
K11R 020435Z AUTO 16004KT 10SM CLR 25/23 A3010 RMK AO2

2006/10/02 04:33
KSNL 020433Z AUTO 18010KT 10SM CLR 26/16 A3002 RMK AO2

2006/10/02 04:32
KSRE 020432Z AUTO 15007KT 10SM 25/16 A3004 RMK AO2 TSNO

2006/10/02 04:33
KTIF 020433Z AUTO 00000KT 10SM CLR 14/05 A2986 RMK AO2

2006/10/02 04:33
KTQH 020433Z AUTO 15005KT 10SM CLR 24/18 A3005 RMK AO2

2006/10/02 04:27
KTRK 020427Z AUTO 00000KT 7SM BKN047 09/06 A3011

2006/10/02 04:34
PGUM 020434Z 19004KT 10SM FEW015CB OVC120 26/24 A2957

2006/10/02 04:30
LFBD 020430Z 10003KT CAVOK 14/14 Q1013 NOSIG

2006/10/02 04:30
LFBH 020430Z AUTO 22007KT 9999NDV OVC046/// 19/14 Q1013

2006/10/02 04:30
LFBO 020430Z 14008KT 8000 FEW013 18/17 Q1015 NOSIG

2006/10/02 04:30
LFBZ 020430Z 13005KT CAVOK 14/13 Q1013 NOSIG

2006/10/02 04:30
LFGJ 020430Z AUTO 28002KT 4200NDV R05/0900VP2000U BR BKN005 14/14 Q1015

2006/10/02 04:30
LFKB 020430Z 21003KT 9999 4000S MIFG FEW020 16/15 Q1018 NOSIG

2006/10/02 04:30
LFKJ 020430Z 04008KT CAVOK 15/13 Q1018 NOSIG

2006/10/02 04:30
LFLL 020430Z 17006KT CAVOK 18/17 Q1016 NOSIG

2006/10/02 04:30
LFLS 020430Z 08005KT 0500 R09/P1500U FG BKN013 17/16 Q1017 NOSIG

2006/10/02 04:24
LFML 020424Z VRB02KT 9999 BKN026 20/17 Q1016 NOSIG

2006/10/02 04:30
EICK 020430Z 31008KT 9999 BKN025 BKN040 11/10 Q1001 NOSIG

2006/10/02 04:30
EIDW 020430Z 26007KT 9999 FEW004 SCT015 09/09 Q0999 NOSIG

2006/10/02 04:30
EINN 020430Z 31007KT 9999 FEW022 SCT034 BKN045 12/11 Q1002 NOSIG

2006/10/02 04:30
OKBK 020430Z 00000KT CAVOK 26/11 Q1011 NOSIG

2006/10/02 04:30
LBBG 020430Z 26003MPS 2200 BR SKC 11/11 Q1020 NOSIG

2006/10/02 04:30
LBPD 020430Z VRB01MPS 7000 SKC 12/11 Q1020 NOSIG

2006/10/02 04:30
LBSF 020430Z 12001MPS 3000 BR FEW001 10/09 Q1021 NOSIG

2006/10/02 04:30
LBWN 020430Z 00000MPS 0150 R09/0150V0350N R27/P1500N BCFG FEW200 10/10 Q1019 TEMPO 1500

2006/10/02 04:30
LHBP 020430Z VRB03KT 3000 BCFG BR NSC 12/11 Q1016 TEMPO 2000 BCFG BR

2006/10/02 04:30
LRAR 020430Z 14003MPS 6000 NSC 13/13 Q1017

2006/10/02 04:30
LRBS 020430Z 00000MPS 2000 BR SCT047 13/13 Q1019 TEMPO 1500 MIFG

2006/10/02 04:30
LRCK 020430Z 28003MPS CAVOK 11/10 Q1020 NOSIG

2006/10/02 04:30
LROP 020430Z VRB01MPS 2000 BR SCT049 BKN200 11/10 Q1019 NOSIG

2006/10/02 04:30
LRTM 020430Z 09002MPS 1800 BR SCT008 BKN200 09/09 Q1019

2006/10/02 04:30
LRTR 020430Z 15003MPS 5000 BR NSC 13/13 Q1017

2006/10/02 04:30
LUKK 020430Z 36001KT 5000 BR VCFG NSC 08/08 Q1018 26CLRD65 TEMPO 2000 BR

2006/10/02 04:30
DTMB 020430Z 14004KT 6000 SKC 22/22 Q1018 NOSIG

2006/10/02 04:30
DTTA 020430Z 15003KT 6000 FEW030 22/20 Q1017 NOSIG

2006/10/02 04:30
DTTJ 020430Z 19006KT 5000 SKC 21/20 Q1018 NOSIG

2006/10/02 04:31
KANW 020431Z AUTO 16003KT 10SM CLR 13/09 A2984

2006/10/02 04:30
KBIE 020430Z AUTO 19015KT 10SM CLR 26/12 A2984

2006/10/02 04:28
KEHA 020428Z AUTO 20008KT 18/M01

2006/10/02 04:34
PGUM 020434Z 19004KT 10SM FEW015CB OVC120 26/24 A2957 RMK AO2 TSB02E28RAE17 TS MOV NE CB SE MOV NE P0000

2006/10/02 04:20
ESPA 020420Z 10001KT 0700 R14/P1500N FG -DZ VV002 08/08 Q1002

2006/10/02 04:32
PASC 020432Z 03003KT 10SM FEW010 OVC041 00/00 A2971

2006/10/02 04:34
KHEF 020434Z AUTO 00000KT 1 1/4SM CLR 09/07 A3018 RMK AO1

2006/10/02 04:33
KMOD 020433Z AUTO 34009KT 5SM BR SCT007 SCT080 16/13 A3000 RMK AO2

2006/10/02 04:33
PPIZ 020433Z AUTO 05004KT 2 1/2SM +RA BR SCT004 BKN014 OVC024 01/M01 A2976 RMK AO2 TSNO VIS 3/4V4 P0000 $

2006/10/02 04:34
K20V 020434Z AUTO 00000KT 10SM CLR 07/M05 A3025 RMK AO2

2006/10/02 04:32
K4BM 020432Z AUTO 23008KT 10SM CLR 08/M08 A3049 RMK AO1

2006/10/02 04:34
KADH 020434Z AUTO 17012G16KT 10SM CLR 28/16 A3003 RMK AO2

2006/10/02 04:34
PGUM 020434Z 19004KT 10SM FEW015CB OVC120 26/24 A2957

2006/10/02 04:34
PGUM 020434Z 19004KT 10SM FEW015CB OVC120 26/24 A2957 RMK AO2 TSB02E28RAE17 TS MOV NE CB SE MOV NE P0000

2006/10/02 04:34
PGUM 020434Z 19004KT 10SM FEW015CB OVC120 26/24 A2957

2006/10/02 04:36
PANI 020436Z AUTO 11008KT 10SM BKN047 09/04 A2952 RMK AO1

2006/10/02 04:36
PANV 020436Z 04004KT 10SM OVC001 06/05 A2957 RMK AO1

2006/10/02 04:36
PAPG 020436Z 00000KT 10SM BKN050 06/04 A3015 RMK AO1 WEA

2006/10/02 04:36
PAPH 020436Z AUTO 23017G22KT 8SM BKN009 OVC016 09/07 A2948 RMK AO1

2006/10/02 04:36
PAPO 020436Z AUTO 35017KT 10SM SCT017 BKN023 OVC030 03/00 A2976 RMK AO1

2006/10/02 04:36
PARC 020436Z AUTO 25005KT 10SM FEW021 SCT032 BKN046 M01/M04 A2965 RMK AO1

2006/10/02 04:36
PASA 020436Z AUTO 05019G25KT 1 3/4SM OVC004 04/02 A2963 RMK AO1

2006/10/02 04:36
PASD 020436Z 25017G24KT 10SM BKN024 OVC036 10/06 A2954 RMK AO1 WEA

2006/10/02 04:36
PASH 020436Z AUTO 04013KT BKN019 BKN024 04/00 A2976 RMK AO1

2006/10/02 04:36
PASK 020436Z AUTO 05005KT 1 1/2SM SCT002 OVC008 04/02 A2971 RMK AO1

2006/10/02 04:36
PASL 020436Z AUTO 00000KT 10SM OVC046 07/06 A2963 RMK AO1 TSNO

2006/10/02 04:36
PASM 020436Z AUTO 08009KT 10SM OVC041 06/04 A2954 RMK AO1

2006/10/02 04:36
PASX 020436Z AUTO 09008KT 10SM SCT070 BKN110 08/02 A2973 RMK AO1

2006/10/02 04:36
PATG 020436Z AUTO 04007KT 9SM SCT016 BKN021 OVC033 09/07 A2941 RMK AO1

2006/10/02 04:36
PAUN 020436Z AUTO 07011KT 10SM OVC032 05/03 A2962 RMK AO1

2006/10/02 04:36
PAVD 020436Z 00000KT 10SM FEW030 OVC050 05/04 A2998 RMK AO1 0347Z WEA

2006/10/02 04:36
PAWG 020436Z 15007KT 10SM SCT037 BKN050 06/02 A3014 RMK AO1 WEA

2006/10/02 04:36
PAWN 020436Z AUTO 02004KT 10SM CLR 01/M01 A2968 RMK AO1

2006/10/02 04:36
PAZK 020436Z AUTO 00000KT 10SM CLR M01/M03 A2980 RMK AO1

2006/10/02 04:36
PFYU 020436Z 01003KT 10SM CLR 01/M01 A2975 RMK AO1

2006/10/02 04:35
KAIZ 020435Z AUTO 18009KT 10SM CLR 22/12 A3008 RMK AO1

2006/10/02 04:35
KARG 020435Z AUTO 10003KT 10SM CLR 19/13 A3012 RMK AO1

2006/10/02 04:35
KAUO 020435Z AUTO 04006KT 10SM CLR 19/17 A3015 RMK AO1

2006/10/02 04:35
KAWO 020435Z AUTO 00000KT 10SM CLR 07/06 A3001 RMK AO1

2006/10/02 04:35
KBID 020435Z AUTO 34007KT 10SM 13/12 A2999 RMK AO1

2006/10/02 04:35
KBJI 020435Z 11003KT 10SM CLR 14/10 A2972 RMK AO1

2006/10/02 04:35
KBKX 020435Z AUTO 00000KT 10SM CLR 14/13 A2981 RMK AO1

2006/10/02 04:35
KBLM 020435Z AUTO 30007KT 10SM CLR 12/05 A3008 RMK AO1

2006/10/02 04:35
KBTP 020435Z AUTO 00000KT 10SM CLR 08/06 A3018 RMK AO1

2006/10/02 04:35
KBVX 020435Z AUTO 12004KT 10SM CLR 20/12 A3011 RMK AO1

2006/10/02 04:34
KCAD 020434Z AUTO 19003KT 10SM BKN110 07/06 A3006 RMK AO2

2006/10/02 04:35
KCGZ 020435Z AUTO 28005KT 10SM CLR 27/04 A2993 RMK AO1

2006/10/02 04:35
KCOE 020435Z AUTO 16005KT 10SM CLR 10/03 A2993 RMK AO1

2006/10/02 04:35
KCVN 020435Z AUTO 19008KT 10SM CLR 17/09 A3011 RMK AO1

2006/10/02 04:35
KCVO 020435Z AUTO 30008KT 10SM CLR 15/09 A2999 RMK AO1

2006/10/02 04:35
KCWI 020435Z AUTO 20014G19KT 10SM CLR 22/09 A2996 RMK AO1

2006/10/02 04:35
KDVL 020435Z AUTO 32008KT 10SM CLR 13/05 A2975 RMK AO1

2006/10/02 04:35
KDYR 020435Z AUTO 11003KT 10SM CLR 17/11 A3015 RMK AO1

2006/10/02 04:35
KEAR 020435Z AUTO 18005KT 10SM CLR 16/08 A2983 RMK AO1

2006/10/02 04:35
KEEN 020435Z AUTO 35004KT 10SM OVC013 11/09 A3002 RMK AO1

2006/10/02 04:35
KENV 020435Z 00000KT 10SM CLR 16/M06 A2989 RMK AO1

2006/10/02 04:35
KEUL 020435Z AUTO 12004KT 10SM CLR 12/03 A2987 RMK AO1

2006/10/02 04:35
KEWK 020435Z AUTO 16011G18KT 10SM CLR 25/14 A2997 RMK AO1

2006/10/02 04:35
KFAM 020435Z AUTO 16005KT 10SM CLR 18/11 A3013 RMK AO1

2006/10/02 04:35
KFKL 020435Z AUTO 00000KT 10SM CLR 08/07 A3017 RMK AO1

2006/10/02 04:35
KFLP 020435Z AUTO 00000KT 10SM CLR 20/17 A3011 RMK AO1

2006/10/02 04:35
KFOD 020435Z AUTO 20013G18KT 10SM CLR 22/15 A2980 RMK AO1

2006/10/02 04:35
KGAD 020435Z AUTO 00000KT 10SM CLR 16/15 A3018 RMK AO1

2006/10/02 04:35
KGBD 020435Z 18014KT 10SM CLR 24/12 A2989 RMK AO1

2006/10/02 04:35
KGPZ 020435Z AUTO 00000KT 10SM CLR 15/08 A2974 RMK AO1

2006/10/02 04:35
KGTR 020435Z 05003KT 10SM CLR 22/17 A3014 RMK AO1

2006/10/02 04:35
KHEZ 020435Z AUTO 00000KT 10SM CLR 21/18 A3012 RMK AO1

2006/10/02 04:35
KHYS 020435Z AUTO 19011KT 10SM CLR 23/12 A2985 RMK AO1

2006/10/02 04:35
KJHW 020435Z AUTO 28004KT 10SM CLR 09/05 A3014 RMK AO1

2006/10/02 04:36
KJSV 020436Z AUTO 06004KT 10SM CLR 22/17 A3006 RMK AO2

2006/10/02 04:35
KKLS 020435Z AUTO 00000KT 10SM CLR 11/08 A2999 RMK AO1

2006/10/02 04:35
KLBL 020435Z 19012KT 10SM CLR 22/15 A2997 RMK AO1

2006/10/02 04:35
KLCI 020435Z AUTO 09003KT 10SM SCT034 OVC046 09/06 A3004 RMK AO1

2006/10/02 04:35
KLEW 020435Z AUTO 01006KT 10SM BKN001 BKN015 OVC034 09/08 A3004 RMK AO1 P0003

2006/10/02 04:35
KLGD 020435Z AUTO 00000KT 10SM CLR 10/01 A2995 RMK AO1

2006/10/02 04:35
KLKV 020435Z AUTO 17006KT 10SM CLR 12/M03 A3004 RMK AO1

2006/10/02 04:35
KLPC 020435Z AUTO 28003KT 8SM FEW002 SCT034 BKN046 14/12 A3000 RMK AO1 P0001

2006/10/02 04:35
KMKT 020435Z AUTO 17008KT 10SM CLR 21/13 A2975 RMK AO1

2006/10/02 04:35
KMML 020435Z AUTO 26007KT 10SM CLR 16/11 A2976 RMK AO1

2006/10/02 04:31
KMNH 020431Z AUTO 24008KT 10SM CLR 15/M06 A3018 RMK AO2

2006/10/02 04:35
KMRF 020435Z AUTO 17003KT 10SM CLR 15/08 A3023 RMK AO1

2006/10/02 04:35
KMSV 020435Z AUTO 28005KT 10SM CLR 12/06 A3008 RMK AO1

2006/10/02 04:35
KMYR 020435Z AUTO 05003KT 10SM CLR 19/15 A3015 RMK AO1

2006/10/02 04:35
KOAJ 020435Z AUTO 00000KT 10SM CLR 13/11 A3017 RMK AO1

2006/10/02 04:35
KOCF 020435Z AUTO 00000KT 10SM CLR 19/17 A3013 RMK AO1

2006/10/02 04:34
KOKM 020434Z AUTO 17005KT CLR 23/17 A3001 RMK AO1 PWINO

2006/10/02 04:35
KOLU 020435Z AUTO 23008G16KT 10SM CLR 24/13 A2980 RMK AO1

2006/10/02 04:35
KOTG 020435Z AUTO 21007KT 10SM CLR 18/13 A2978 RMK AO1

2006/10/02 04:35
KOTH 020435Z 27003KT 6SM CLR 11/10 A3004 RMK AO1 SLP173

2006/10/02 04:35
KOXC 020435Z 00000KT 10SM CLR 10/09 A3004 RMK AO1

2006/10/02 04:35
KPIB 020435Z AUTO 00000KT 10SM CLR 20/19 A3014 RMK AO1

2006/10/02 04:35
KPQI 020435Z AUTO 02004KT 10SM SCT024 BKN031 OVC045 10/04 A3006 RMK AO1

2006/10/02 04:35
KPTV 020435Z AUTO 00000KT 8SM FEW120 16/12 A3000 RMK AO1

2006/10/02 04:35
KPVU 020435Z 12004KT 10SM CLR 15/03 A3000 RMK AO1

2006/10/02 04:35
KPWT 020435Z AUTO 03004KT 10SM CLR 11/07 A3000 RMK AO1

2006/10/02 04:35
KRKD 020435Z AUTO 03006KT 5SM SCT009 BKN015 OVC055 11/10 A2998 RMK AO1 P0005

2006/10/02 04:35
KROG 020435Z AUTO 15007KT 10SM CLR 21/17 A3008 RMK AO1

2006/10/02 04:35
CYTE 020435Z AUTO 05002KT 7SM -RA OVC006 OVC023 01/ A2988

2006/10/02 04:30
GCLP 020430Z 33004KT CAVOK 21/18 Q1015 NOSIG

2006/10/02 04:30
GCTS 020430Z 03004KT CAVOK 22/17 Q1015 NOSIG

2006/10/02 04:30
GEML 020430Z 00000KT 8000 BKN004 22/21 Q1016

2006/10/02 04:34
K20V 020434Z AUTO 00000KT 10SM CLR 07/M05 A3025 RMK AO2

2006/10/02 04:34
KADH 020434Z AUTO 17012G16KT 10SM CLR 28/16 A3003 RMK AO2

2006/10/02 04:35
KAIZ 020435Z AUTO 18009KT 10SM CLR 22/12 A3008 RMK AO1

2006/10/02 04:35
KARG 020435Z AUTO 10003KT 10SM CLR 19/13 A3012 RMK AO1

2006/10/02 04:35
KAUO 020435Z AUTO 04006KT 10SM CLR 19/17 A3015 RMK AO1

2006/10/02 04:35
KAWO 020435Z AUTO 00000KT 10SM CLR 07/06 A3001 RMK AO1

2006/10/02 04:35
KBID 020435Z AUTO 34007KT 10SM 13/12 A2999 RMK AO1

2006/10/02 04:35
KBJI 020435Z 11003KT 10SM CLR 14/10 A2972 RMK AO1

2006/10/02 04:35
KBKX 020435Z AUTO 00000KT 10SM CLR 14/13 A2981 RMK AO1

2006/10/02 04:35
KBLM 020435Z AUTO 30007KT 10SM CLR 12/05 A3008 RMK AO1

2006/10/02 04:35
KBTP 020435Z AUTO 00000KT 10SM CLR 08/06 A3018 RMK AO1

2006/10/02 04:35
KBVX 020435Z AUTO 12004KT 10SM CLR 20/12 A3011 RMK AO1

2006/10/02 04:34
KCAD 020434Z AUTO 19003KT 10SM BKN110 07/06 A3006 RMK AO2

2006/10/02 04:35
KCGZ 020435Z AUTO 28005KT 10SM CLR 27/04 A2993 RMK AO1

2006/10/02 04:35
KCOE 020435Z AUTO 16005KT 10SM CLR 10/03 A2993 RMK AO1

2006/10/02 04:35
KCVN 020435Z AUTO 19008KT 10SM CLR 17/09 A3011 RMK AO1

2006/10/02 04:35
KCVO 020435Z AUTO 30008KT 10SM CLR 15/09 A2999 RMK AO1

2006/10/02 04:35
KCWI 020435Z AUTO 20014G19KT 10SM CLR 22/09 A2996 RMK AO1

2006/10/02 04:35
KDYR 020435Z AUTO 11003KT 10SM CLR 17/11 A3015 RMK AO1

2006/10/02 04:35
KEEN 020435Z AUTO 35004KT 10SM OVC013 11/09 A3002 RMK AO1

2006/10/02 04:35
KENV 020435Z 00000KT 10SM CLR 16/M06 A2989 RMK AO1

2006/10/02 04:35
KEUL 020435Z AUTO 12004KT 10SM CLR 12/03 A2987 RMK AO1

2006/10/02 04:35
KEWK 020435Z AUTO 16011G18KT 10SM CLR 25/14 A2997 RMK AO1

2006/10/02 04:35
KFAM 020435Z AUTO 16005KT 10SM CLR 18/11 A3013 RMK AO1

2006/10/02 04:35
KFKL 020435Z AUTO 00000KT 10SM CLR 08/07 A3017 RMK AO1

2006/10/02 04:35
KFLP 020435Z AUTO 00000KT 10SM CLR 20/17 A3011 RMK AO1

2006/10/02 04:35
KFOD 020435Z AUTO 20013G18KT 10SM CLR 22/15 A2980 RMK AO1

2006/10/02 04:35
KGAD 020435Z AUTO 00000KT 10SM CLR 16/15 A3018 RMK AO1

2006/10/02 04:35
KGBD 020435Z 18014KT 10SM CLR 24/12 A2989 RMK AO1

2006/10/02 04:35
KGTR 020435Z 05003KT 10SM CLR 22/17 A3014 RMK AO1

2006/10/02 04:35
KHEZ 020435Z AUTO 00000KT 10SM CLR 21/18 A3012 RMK AO1

2006/10/02 04:35
KHYS 020435Z AUTO 19011KT 10SM CLR 23/12 A2985 RMK AO1

2006/10/02 04:35
KJHW 020435Z AUTO 28004KT 10SM CLR 09/05 A3014 RMK AO1

2006/10/02 04:36
KJSV 020436Z AUTO 06004KT 10SM CLR 22/17 A3006 RMK AO2

2006/10/02 04:35
KKLS 020435Z AUTO 00000KT 10SM CLR 11/08 A2999 RMK AO1

2006/10/02 04:35
KLBL 020435Z 19012KT 10SM CLR 22/15 A2997 RMK AO1

2006/10/02 04:35
KLCI 020435Z AUTO 09003KT 10SM SCT034 OVC046 09/06 A3004 RMK AO1

2006/10/02 04:35
KLEW 020435Z AUTO 01006KT 10SM BKN001 BKN015 OVC034 09/08 A3004 RMK AO1 P0003

2006/10/02 04:35
KLGD 020435Z AUTO 00000KT 10SM CLR 10/01 A2995 RMK AO1

2006/10/02 04:35
KLKV 020435Z AUTO 17006KT 10SM CLR 12/M03 A3004 RMK AO1

2006/10/02 04:35
KLPC 020435Z AUTO 28003KT 8SM FEW002 SCT034 BKN046 14/12 A3000 RMK AO1 P0001

2006/10/02 04:35
KMKT 020435Z AUTO 17008KT 10SM CLR 21/13 A2975 RMK AO1

2006/10/02 04:35
KMML 020435Z AUTO 26007KT 10SM CLR 16/11 A2976 RMK AO1

2006/10/02 04:31
KMNH 020431Z AUTO 24008KT 10SM CLR 15/M06 A3018 RMK AO2

2006/10/02 04:35
KMRF 020435Z AUTO 17003KT 10SM CLR 15/08 A3023 RMK AO1

2006/10/02 04:35
KMSV 020435Z AUTO 28005KT 10SM CLR 12/06 A3008 RMK AO1

2006/10/02 04:35
KMYR 020435Z AUTO 05003KT 10SM CLR 19/15 A3015 RMK AO1

2006/10/02 04:35
KOAJ 020435Z AUTO 00000KT 10SM CLR 13/11 A3017 RMK AO1

2006/10/02 04:35
KOCF 020435Z AUTO 00000KT 10SM CLR 19/17 A3013 RMK AO1

2006/10/02 04:34
KOKM 020434Z AUTO 17005KT CLR 23/17 A3001 RMK AO1 PWINO

2006/10/02 04:35
KOLU 020435Z AUTO 23008G16KT 10SM CLR 24/13 A2980 RMK AO1

2006/10/02 04:35
KOTG 020435Z AUTO 21007KT 10SM CLR 18/13 A2978 RMK AO1

2006/10/02 04:35
KOTH 020435Z 27003KT 6SM CLR 11/10 A3004 RMK AO1 SLP173

2006/10/02 04:35
KOXC 020435Z 00000KT 10SM CLR 10/09 A3004 RMK AO1

2006/10/02 04:35
KPIB 020435Z AUTO 00000KT 10SM CLR 20/19 A3014 RMK AO1

2006/10/02 04:35
KPQI 020435Z AUTO 02004KT 10SM SCT024 BKN031 OVC045 10/04 A3006 RMK AO1

2006/10/02 04:35
KPTV 020435Z AUTO 00000KT 8SM FEW120 16/12 A3000 RMK AO1

2006/10/02 04:35
KPVU 020435Z 12004KT 10SM CLR 15/03 A3000 RMK AO1

2006/10/02 04:35
KPWT 020435Z AUTO 03004KT 10SM CLR 11/07 A3000 RMK AO1

2006/10/02 04:35
KRKD 020435Z AUTO 03006KT 5SM SCT009 BKN015 OVC055 11/10 A2998 RMK AO1 P0005

2006/10/02 04:35
KROG 020435Z AUTO 15007KT 10SM CLR 21/17 A3008 RMK AO1

2006/10/02 04:35
KRUT 020435Z AUTO 00000KT 10SM OVC020 11/09 A3003 RMK AO1

2006/10/02 04:35
KRUT 020435Z AUTO 00000KT 10SM OVC020 11/09 A3003 RMK AO1

2006/10/02 04:35
KSFM 020435Z 36008KT 10SM BKN008 BKN031 OVC039 09/07 A3003 RMK AO1

2006/10/02 04:35
KSFZ 020435Z AUTO 34007KT 9SM OVC003 11/09 A2998 RMK AO1

2006/10/02 04:35
KSGJ 020435Z AUTO 00000KT 10SM CLR 22/19 A3013 RMK AO1

2006/10/02 04:35
KSGT 020435Z AUTO 14005KT 10SM CLR A3008 RMK AO1

2006/10/02 04:35
KSGU 020435Z AUTO 12004KT 10SM CLR 26/01 A2994 RMK AO1

2006/10/02 04:35
KSKX 020435Z AUTO 00000KT 10SM CLR 09/M06 A3028 RMK AO1

2006/10/02 04:35
KSLG 020435Z AUTO 16007KT 10SM CLR 22/14 A3006 RMK AO1

2006/10/02 04:35
KSMN 020435Z AUTO 09003KT 10SM CLR 11/00 A2990 RMK AO1

2006/10/02 04:35
KTVF 020435Z AUTO 00000KT 10SM CLR 12/09 A2971 RMK AO1

2006/10/02 04:35
KUDG 020435Z AUTO 00000KT 10SM CLR 15/14 A3019 RMK AO1

2006/10/02 04:35
KVBT 020435Z AUTO 15006KT 10SM CLR 21/17 A3008 RMK AO1

2006/10/02 04:35
KVIS 020435Z AUTO 00000KT 10SM BKN110 16/13 A2998 RMK AO1

2006/10/02 04:35
KWVL 020435Z AUTO 36007KT 5SM SCT002 BKN022 OVC041 09/08 A2999 RMK AO1 P0007

2006/10/02 04:35
KWWD 020435Z AUTO 32006KT 10SM CLR 17/08 A3010 RMK AO1

2006/10/02 04:35
KYKN 020435Z AUTO 03003KT 10SM CLR 15/11 A2979 RMK AO1

2006/10/02 04:35
K1A6 020435Z AUTO 00000KT 10SM CLR 14/13 A3027 RMK AO2

2006/10/02 04:35
KCFS 020435Z AUTO 00000KT 10SM CLR 07/05 A3010 RMK AO2

2006/10/02 04:36
KEFT 020436Z AUTO 19009G14KT 10SM CLR 19/12 A2995 RMK AO2

2006/10/02 04:35
KETB 020435Z AUTO 22017G23KT 10SM +RA 18/13 A3001 RMK AO2 P0017

2006/10/02 04:35
KFBL 020435Z AUTO 17008KT 10SM CLR 20/12 A2978 RMK AO2

2006/10/02 04:34
KFPK 020434Z AUTO 00000KT 10SM OVC120 08/07 A3011 RMK AO2

2006/10/02 04:34
KGOV 020434Z AUTO 00000KT 10SM BKN110 03/03 A3008 RMK AO2

2006/10/02 04:36
KHYX 020436Z AUTO 14004KT 10SM CLR 09/07 A3009 RMK AO2

2006/10/02 04:35
KMRJ 020435Z AUTO 18009KT 10SM CLR 19/13 A2992 RMK AO2

2006/10/02 04:35
KBDH 020435Z AUTO 00000KT 10SM CLR 15/12 A2975 RMK AO2

2006/10/02 04:32
KGLW 020432Z AUTO 00000KT 7SM CLR 12/05 A3025 RMK AO1

2006/10/02 04:35
KHAI 020435Z AUTO 00000KT 10SM OVC120 11/09 A3011 RMK AO2

2006/10/02 04:37
KLCK 020437Z AUTO 00000KT 10SM CLR 12/09 A3016 RMK AO2

2006/10/02 04:35
KLDM 020435Z AUTO 15007KT 10SM -RA OVC110 13/08 A3002 RMK AO2

2006/10/02 04:35
KMGN 020435Z AUTO 35003KT 10SM SCT110 10/07 A3007 RMK AO2

2006/10/02 04:35
KMOP 020435Z AUTO 00000KT 10SM BKN110 07/06 A3009 RMK AO2

2006/10/02 04:36
KMZH 020436Z AUTO 03003KT 10SM CLR 10/09 A2974 RMK AO2

2006/10/02 04:35
KRNP 020435Z AUTO 00000KT 5SM BR CLR 06/06 A3010 RMK AO2

2006/10/02 04:37
KSAW 020437Z AUTO 18008KT 10SM CLR 11/09 A2995 RMK AO2

2006/10/02 04:36
KSJX 020436Z AUTO 11005KT 10SM SCT110 10/08 A3004 RMK AO2

2006/10/02 04:36
PAAK 020436Z AUTO 00000KT 5SM FEW004 SCT021 BKN046 08/07 A2959 RMK AO1

2006/10/02 04:36
PAAK 020436Z AUTO 00000KT 5SM FEW004 SCT021 BKN046 08/07 A2959 RMK AO1

2006/10/02 04:36
PABV 020436Z AUTO 19006KT 10SM OVC095 06/03 A2979 RMK AO1

2006/10/02 04:36
PADK 020436Z AUTO 01003KT 4SM FEW027 SCT047 09/08 A2957 RMK AO1

2006/10/02 04:36
PADU 020436Z 23013G22KT 10SM BKN031 BKN047 09/03 A2968 RMK AO1 0350 WEA

2006/10/02 04:36
PAEM 020436Z AUTO 05008KT 10SM SCT015 OVC024 07/06 A2954 RMK AO1

2006/10/02 04:36
PAFE 020436Z AUTO 07006KT 10SM FEW028 OVC050 06/03 A3014 RMK AO1

2006/10/02 04:36
PAFM 020436Z AUTO 00000KT 10SM OVC023 02/01 A2974 RMK AO1

2006/10/02 04:36
PAGL 020436Z AUTO 10SM FEW030 OVC038 06/02 A2965 RMK AO1

2006/10/02 04:36
PAGS 020436Z AUTO 13004KT 10SM SCT017 OVC025 08/03 A3014 RMK AO1

2006/10/02 04:36
PAHL 020436Z AUTO 10004KT 10SM FEW008 OVC014 03/02 A2964 RMK AO1

2006/10/02 04:36
PAHP 020436Z AUTO 04006KT 5SM SCT019 BKN024 OVC030 09/07 A2950 RMK AO1 TSNO

2006/10/02 04:36
PAHY 020436Z AUTO 00000KT 10SM CLR 06/05 A3014 RMK AO1

2006/10/02 04:36
PAII 020436Z AUTO 12015G20KT 10SM BKN004 OVC030 08/07 A2943 RMK AO1 P0002

2006/10/02 04:36
PAIN 020436Z AUTO 16005KT 10SM FEW046 BKN065 OVC080 03/M02 A2978 RMK AO1

2006/10/02 04:36
PAKK 020436Z AUTO 01007G14KT 10SM OVC026 04/01 A2963 RMK AO1

2006/10/02 04:36
PAKP 020436Z AUTO 20006KT 10SM BKN040 OVC046 M01/M02 A2966 RMK AO1

2006/10/02 04:36
PAMD 020436Z AUTO 13016KT 8SM FEW006 SCT011 BKN020 09/08 A2988 RMK AO1 P0002

2006/10/02 04:36
PAMH 020436Z AUTO 12004KT 10SM FEW070 SCT100 03/00 A2972 RMK AO1

2006/10/02 04:36
PAMM 020436Z AUTO 00000KT 10SM CLR 06/04 A3015 RMK AO1

2006/10/02 04:34
KIJD 020434Z AUTO 32005KT 10SM FEW016 BKN028 13/11 A3001 RMK AO2 $

2006/10/02 04:34
KLBT 020434Z AUTO 00000KT 1 1/2SM BR CLR 13/13 A3017 RMK AO2 P0001 TSNO

2006/10/02 04:33
PAMB 020433Z AUTO 08011G15KT 3SM BR BKN009 OVC012 08/07 A2944 RMK AO2 PWINO TSNO CIG 006V011 P0004 $

2006/10/02 04:34
PAOU 020434Z AUTO 24019KT 1 1/4SM -RA BR SCT006 OVC012 09/08 A2950 RMK AO2 TSNO P0000 $

2006/10/02 04:34
KMVY 020434Z AUTO 31005KT 10SM BKN010 BKN014 OVC021 14/13 A2994 RMK AO2 CIG 008V012 TSNO

2006/10/02 04:35
KYIP 020435Z 00000KT 1/2SM FG CLR 07/06 A3013 RMK AO2

2006/10/02 04:35
PADQ 020435Z 14009KT 10SM -RA FEW008 SCT012 OVC025 09/08 A2961 RMK AO2 P0000

2006/10/02 04:30
HECA 020430Z 00000KT 6000 SKC 22/18 Q1012 NOSIG

2006/10/02 04:32
K4BM 020432Z AUTO 23008KT 10SM CLR 08/M08 A3049 RMK AO1

2006/10/02 04:35
KDVL 020435Z AUTO 32008KT 10SM CLR 13/05 A2975 RMK AO1

2006/10/02 04:35
KEAR 020435Z AUTO 18005KT 10SM CLR 16/08 A2983 RMK AO1

2006/10/02 04:35
KGPZ 020435Z AUTO 00000KT 10SM CLR 15/08 A2974 RMK AO1

2006/10/02 04:36
PADK 020436Z AUTO 01003KT 4SM FEW027 SCT047 09/08 A2957 RMK AO1

2006/10/02 04:30
VIAR 020430Z 27003KT 4000 FU SKC 27/Q1009

2006/10/02 04:30
VIDP 020430Z 26003KT 2500 HZ FEW200 31/21 Q1009 BEC 3000

2006/10/02 04:34
KHEF 020434Z AUTO 00000KT 1 1/4SM CLR 09/07 A3018 RMK AO1

2006/10/02 04:33
KMOD 020433Z AUTO 34009KT 5SM BR SCT007 SCT080 16/13 A3000 RMK AO2

2006/10/02 04:33
PPIZ 020433Z AUTO 05004KT 2 1/2SM +RA BR SCT004 BKN014 OVC024 01/M01 A2976 RMK AO2 TSNO VIS 3/4V4 P0000 $

2006/10/02 04:34
KIJD 020434Z AUTO 32005KT 10SM FEW016 BKN028 13/11 A3001 RMK AO2 $

2006/10/02 04:34
KLBT 020434Z AUTO 00000KT 1 1/2SM BR CLR 13/13 A3017 RMK AO2 P0001 TSNO

2006/10/02 04:33
PAMB 020433Z AUTO 08011G15KT 3SM BR BKN009 OVC012 08/07 A2944 RMK AO2 PWINO TSNO CIG 006V011 P0004 $

2006/10/02 04:34
KMVY 020434Z AUTO 31005KT 10SM BKN010 BKN014 OVC021 14/13 A2994 RMK AO2 CIG 008V012 TSNO

2006/10/02 04:35
KYIP 020435Z 00000KT 1/2SM FG CLR 07/06 A3013 RMK AO2

2006/10/02 04:36
LFSO 020436Z 20010KT CAVOK 15/12 Q1013

2006/10/02 04:30
RJBB 020430Z 01004KT 340V070 9999 FEW003 SCT015 BKN080 22/20 Q1011 NOSIG

2006/10/02 04:30
RJGG 020430Z 01010KT 6000 -RA BR FEW005 SCT008 BKN010 20/18 Q1010 TEMPO 4000 SHRA BR FEW005 BKN008 BKN015

2006/10/02 04:30
VILK 020430Z VRB03LT 6000 SKC 32/24 Q1008 NOSIG

2006/10/02 04:30
LCLK 020430Z 31003KT 260V340 9999 FEW020 FEW030TCU 22/18 Q1010 NOSIG

2006/10/02 04:30
LCPH 020430Z 04004KT CAVOK 21/17 Q1010

2006/10/02 04:30
UMMM 020430Z 13002MPS 4000 BR BKN100 10/09 Q1012 NOSIG RMK QFE738

2006/10/02 04:30
UMMS 020430Z VRB02MPS 7000 BKN166 11/10 Q1013 31000070 NOSIG

2006/10/02 04:35
KSFM 020435Z 36008KT 10SM BKN008 BKN031 OVC039 09/07 A3003 RMK AO1

2006/10/02 04:35
KSFZ 020435Z AUTO 34007KT 9SM OVC003 11/09 A2998 RMK AO1

2006/10/02 04:35
KSGJ 020435Z AUTO 00000KT 10SM CLR 22/19 A3013 RMK AO1

2006/10/02 04:35
KSGT 020435Z AUTO 14005KT 10SM CLR A3008 RMK AO1

2006/10/02 04:35
KSGU 020435Z AUTO 12004KT 10SM CLR 26/01 A2994 RMK AO1

2006/10/02 04:35
KSKX 020435Z AUTO 00000KT 10SM CLR 09/M06 A3028 RMK AO1

2006/10/02 04:35
KSLG 020435Z AUTO 16007KT 10SM CLR 22/14 A3006 RMK AO1

2006/10/02 04:35
KSMN 020435Z AUTO 09003KT 10SM CLR 11/00 A2990 RMK AO1

2006/10/02 04:35
KTVF 020435Z AUTO 00000KT 10SM CLR 12/09 A2971 RMK AO1

2006/10/02 04:35
KUDG 020435Z AUTO 00000KT 10SM CLR 15/14 A3019 RMK AO1

2006/10/02 04:35
KVBT 020435Z AUTO 15006KT 10SM CLR 21/17 A3008 RMK AO1

2006/10/02 04:35
KVIS 020435Z AUTO 00000KT 10SM BKN110 16/13 A2998 RMK AO1

2006/10/02 04:35
KWVL 020435Z AUTO 36007KT 5SM SCT002 BKN022 OVC041 09/08 A2999 RMK AO1 P0007

2006/10/02 04:35
KWWD 020435Z AUTO 32006KT 10SM CLR 17/08 A3010 RMK AO1

2006/10/02 04:35
KYKN 020435Z AUTO 03003KT 10SM CLR 15/11 A2979 RMK AO1

2006/10/02 04:35
K1A6 020435Z AUTO 00000KT 10SM CLR 14/13 A3027 RMK AO2

2006/10/02 04:35
KCFS 020435Z AUTO 00000KT 10SM CLR 07/05 A3010 RMK AO2

2006/10/02 04:36
KEFT 020436Z AUTO 19009G14KT 10SM CLR 19/12 A2995 RMK AO2

2006/10/02 04:35
KETB 020435Z AUTO 22017G23KT 10SM +RA 18/13 A3001 RMK AO2 P0017

2006/10/02 04:35
KFBL 020435Z AUTO 17008KT 10SM CLR 20/12 A2978 RMK AO2

2006/10/02 04:34
KFPK 020434Z AUTO 00000KT 10SM OVC120 08/07 A3011 RMK AO2

2006/10/02 04:34
KGOV 020434Z AUTO 00000KT 10SM BKN110 03/03 A3008 RMK AO2

2006/10/02 04:36
KHYX 020436Z AUTO 14004KT 10SM CLR 09/07 A3009 RMK AO2

2006/10/02 04:35
KMRJ 020435Z AUTO 18009KT 10SM CLR 19/13 A2992 RMK AO2

2006/10/02 04:32
KGLW 020432Z AUTO 00000KT 7SM CLR 12/05 A3025 RMK AO1

2006/10/02 04:35
KHAI 020435Z AUTO 00000KT 10SM OVC120 11/09 A3011 RMK AO2

2006/10/02 04:37
KLCK 020437Z AUTO 00000KT 10SM CLR 12/09 A3016 RMK AO2

2006/10/02 04:35
KLDM 020435Z AUTO 15007KT 10SM -RA OVC110 13/08 A3002 RMK AO2

2006/10/02 04:35
KMGN 020435Z AUTO 35003KT 10SM SCT110 10/07 A3007 RMK AO2

2006/10/02 04:35
KMOP 020435Z AUTO 00000KT 10SM BKN110 07/06 A3009 RMK AO2

2006/10/02 04:36
KMZH 020436Z AUTO 03003KT 10SM CLR 10/09 A2974 RMK AO2

2006/10/02 04:35
KRNP 020435Z AUTO 00000KT 5SM BR CLR 06/06 A3010 RMK AO2

2006/10/02 04:37
KSAW 020437Z AUTO 18008KT 10SM CLR 11/09 A2995 RMK AO2

2006/10/02 04:36
KSJX 020436Z AUTO 11005KT 10SM SCT110 10/08 A3004 RMK AO2

2006/10/02 04:36
PAAK 020436Z AUTO 00000KT 5SM FEW004 SCT021 BKN046 08/07 A2959 RMK AO1

2006/10/02 04:36
PAAK 020436Z AUTO 00000KT 5SM FEW004 SCT021 BKN046 08/07 A2959 RMK AO1

2006/10/02 04:36
PABV 020436Z AUTO 19006KT 10SM OVC095 06/03 A2979 RMK AO1

2006/10/02 04:36
PADU 020436Z 23013G22KT 10SM BKN031 BKN047 09/03 A2968 RMK AO1 0350 WEA

2006/10/02 04:36
PAEM 020436Z AUTO 05008KT 10SM SCT015 OVC024 07/06 A2954 RMK AO1

2006/10/02 04:36
PAFE 020436Z AUTO 07006KT 10SM FEW028 OVC050 06/03 A3014 RMK AO1

2006/10/02 04:36
PAFM 020436Z AUTO 00000KT 10SM OVC023 02/01 A2974 RMK AO1

2006/10/02 04:36
PAGL 020436Z AUTO 10SM FEW030 OVC038 06/02 A2965 RMK AO1

2006/10/02 04:36
PAGS 020436Z AUTO 13004KT 10SM SCT017 OVC025 08/03 A3014 RMK AO1

2006/10/02 04:36
PAHL 020436Z AUTO 10004KT 10SM FEW008 OVC014 03/02 A2964 RMK AO1

2006/10/02 04:36
PAHP 020436Z AUTO 04006KT 5SM SCT019 BKN024 OVC030 09/07 A2950 RMK AO1 TSNO

2006/10/02 04:36
PAHY 020436Z AUTO 00000KT 10SM CLR 06/05 A3014 RMK AO1

2006/10/02 04:36
PAII 020436Z AUTO 12015G20KT 10SM BKN004 OVC030 08/07 A2943 RMK AO1 P0002

2006/10/02 04:36
PAIN 020436Z AUTO 16005KT 10SM FEW046 BKN065 OVC080 03/M02 A2978 RMK AO1

2006/10/02 04:36
PAKK 020436Z AUTO 01007G14KT 10SM OVC026 04/01 A2963 RMK AO1

2006/10/02 04:36
PAKP 020436Z AUTO 20006KT 10SM BKN040 OVC046 M01/M02 A2966 RMK AO1

2006/10/02 04:36
PAMD 020436Z AUTO 13016KT 8SM FEW006 SCT011 BKN020 09/08 A2988 RMK AO1 P0002

2006/10/02 04:36
PAMH 020436Z AUTO 12004KT 10SM FEW070 SCT100 03/00 A2972 RMK AO1

2006/10/02 04:36
PAMM 020436Z AUTO 00000KT 10SM CLR 06/04 A3015 RMK AO1

2006/10/02 04:36
PANI 020436Z AUTO 11008KT 10SM BKN047 09/04 A2952 RMK AO1

2006/10/02 04:36
PANV 020436Z 04004KT 10SM OVC001 06/05 A2957 RMK AO1

2006/10/02 04:36
PAPG 020436Z 00000KT 10SM BKN050 06/04 A3015 RMK AO1 WEA

2006/10/02 04:35
PADQ 020435Z 14009KT 10SM -RA FEW008 SCT012 OVC025 09/08 A2961 RMK AO2 P0000

2006/10/02 04:30
LYBE 020430Z VRB02KT CAVOK 16/13 Q1018 NOSIG

2006/10/02 04:30
LYNI 020430Z 11002KT CAVOK 09/09 Q1020 NOSIG

2006/10/02 04:30
LYPG 020430Z 30003KT 270V340 CAVOK 16/14 Q1019 NOSIG

2006/10/02 04:30
LYTV 020430Z VRB01KT CAVOK 13/12 Q1019

2006/10/02 04:36
PAPH 020436Z AUTO 23017G22KT 8SM BKN009 OVC016 09/07 A2948 RMK AO1

2006/10/02 04:36
PAPO 020436Z AUTO 35017KT 10SM SCT017 BKN023 OVC030 03/00 A2976 RMK AO1

2006/10/02 04:36
PARC 020436Z AUTO 25005KT 10SM FEW021 SCT032 BKN046 M01/M04 A2965 RMK AO1

2006/10/02 04:36
PASA 020436Z AUTO 05019G25KT 1 3/4SM OVC004 04/02 A2963 RMK AO1

2006/10/02 04:36
PASD 020436Z 25017G24KT 10SM BKN024 OVC036 10/06 A2954 RMK AO1 WEA

2006/10/02 04:36
PASH 020436Z AUTO 04013KT BKN019 BKN024 04/00 A2976 RMK AO1

2006/10/02 04:36
PASK 020436Z AUTO 05005KT 1 1/2SM SCT002 OVC008 04/02 A2971 RMK AO1

2006/10/02 04:36
PASL 020436Z AUTO 00000KT 10SM OVC046 07/06 A2963 RMK AO1 TSNO

2006/10/02 04:36
PASM 020436Z AUTO 08009KT 10SM OVC041 06/04 A2954 RMK AO1

2006/10/02 04:36
PASX 020436Z AUTO 09008KT 10SM SCT070 BKN110 08/02 A2973 RMK AO1

2006/10/02 04:36
PATG 020436Z AUTO 04007KT 9SM SCT016 BKN021 OVC033 09/07 A2941 RMK AO1

2006/10/02 04:36
PAUN 020436Z AUTO 07011KT 10SM OVC032 05/03 A2962 RMK AO1

2006/10/02 04:36
PAVD 020436Z 00000KT 10SM FEW030 OVC050 05/04 A2998 RMK AO1 0347Z WEA

2006/10/02 04:36
PAWG 020436Z 15007KT 10SM SCT037 BKN050 06/02 A3014 RMK AO1 WEA

2006/10/02 04:36
PAWN 020436Z AUTO 02004KT 10SM CLR 01/M01 A2968 RMK AO1

2006/10/02 04:36
PAZK 020436Z AUTO 00000KT 10SM CLR M01/M03 A2980 RMK AO1

2006/10/02 04:36
PFYU 020436Z 01003KT 10SM CLR 01/M01 A2975 RMK AO1

2006/10/02 04:30
UMMM 020430Z 13002MPS 4000 BR BKN100 10/09 Q1012 NOSIG RMK QFE738

2006/10/02 04:30
UMMS 020430Z VRB02MPS 7000 BKN166 11/10 Q1013 31000070 NOSIG

2006/10/02 04:30
RJAA 020430Z 34011KT 9999 FEW008 BKN010 19/17 Q1011 NOSIG

2006/10/02 04:30
RJCC 020430Z 19014KT 9999 FEW035 SCT070 BKN/// 20/12 Q1016

2006/10/02 04:30
RJTT 020430Z 35009KT 9999 FEW015 SCT030 BKN/// 21/16 Q1011

2006/10/02 04:30
LEAL 020430Z 28002KT CAVOK 18/12 Q1016 NOSIG

2006/10/02 04:30
LEBB 020430Z VRB02KT CAVOK 15/13 Q1013 NOSIG

2006/10/02 04:30
LECO 020430Z 17005KT 7000 -RA FEW001 BKN028 14/13 Q1013

2006/10/02 04:30
LEGE 020430Z 00000KT 0500 R20/0800V2000U FG FEW020 17/17 Q1017

2006/10/02 04:30
LEGR 020430Z 00000KT CAVOK 14/10 Q1018

2006/10/02 04:30
LEIB 020430Z 33002KT 9000 SCT010 20/19 Q1017 NOSIG

2006/10/02 04:30
LEJR 020430Z 22005KT CAVOK 19/17 Q1014

2006/10/02 04:30
LEMD 020430Z 35003KT CAVOK 12/07 Q1017 NOSIG

2006/10/02 04:30
LEMG 020430Z 30006KT CAVOK 19/14 Q1016 NOSIG

2006/10/02 04:30
LEMH 020430Z 23004KT 8000 FEW009 20/19 Q1017

2006/10/02 04:30
LEPA 020430Z VRB01KT 0050 R24R/0275N R06L/P2000 R06R/0375D R24L/0250N FG VV001 19/18 Q1017 NOSIG

2006/10/02 04:30
LEPP 020430Z 32005KT CAVOK 13/11 Q1016

2006/10/02 04:30
LESO 020430Z 22003KT 190V250 CAVOK 16/14 Q1013

2006/10/02 04:30
LEST 020430Z 00000KT 6000 BKN009 13/13 Q1013 NOSIG

2006/10/02 04:30
LEVC 020430Z 30003KT CAVOK 18/16 Q1016 NOSIG

2006/10/02 04:30
LEVT 020430Z 00000KT 9999 FEW050 BKN170 11/10 Q1016

2006/10/02 04:30
LEVX 020430Z 19006KT 9999 FEW010 SCT035 BKN045 15/14 Q1013

2006/10/02 04:30
LEXJ 020430Z VRB02KT CAVOK 15/14 Q1012

2006/10/02 04:30
LEZG 020430Z 14003KT 9999 FEW040 16/14 Q1016

2006/10/02 04:30
LEZL 020430Z 01002KT CAVOK 20/19 Q1014 NOSIG

2006/10/02 04:36
PAVD 020436Z 00000KT 10SM FEW030 OVC050 05/04 A2998

2006/10/02 04:36
PAWG 020436Z 15007KT 10SM SCT037 BKN050 06/02 A3014

2006/10/02 04:36
PFYU 020436Z 01003KT 10SM CLR 01/M01 A2975

2006/10/02 04:36
CYMH 020436Z AUTO 00000KT 2 3/8SM CLR 02/01 A3037 RMK VSBY VRBL 0.7V9.+

2006/10/02 04:36
PADK 020436Z AUTO 01003KT 4SM FEW027 SCT047 09/08 A2957

2006/10/02 04:35
KPQI 020435Z AUTO 02004KT 10SM SCT024 BKN031 OVC045 10/04 A3006

2006/10/02 04:35
K11R 020435Z AUTO 16004KT 10SM CLR 25/23 A3010

2006/10/02 04:35
KGDV 020435Z AUTO 36005KT 10SM CLR 12/01 A2986

2006/10/02 04:35
KCIU 020435Z AUTO 12008KT 10SM FEW040 OVC110 08/06 A3006

2006/10/02 04:37
KSAW 020437Z AUTO 18008KT 10SM CLR 11/09 A2995

2006/10/02 04:35
KMYR 020435Z AUTO 05003KT 10SM CLR 19/15 A3015

2006/10/02 04:35
KDVL 020435Z AUTO 32008KT 10SM CLR 13/05 A2975

2006/10/02 04:35
KEAR 020435Z AUTO 18005KT 10SM CLR 16/08 A2983

2006/10/02 04:35
KGPZ 020435Z AUTO 00000KT 10SM CLR 15/08 A2974

2006/10/02 04:35
KJAC 020435Z AUTO 21003KT 10SM CLR 09/M03 A3009

2006/10/02 04:32
KONL 020432Z AUTO 24003KT 10SM CLR 18/13 A2979

2006/10/02 04:35
KUDG 020435Z AUTO 00000KT 10SM CLR 15/14 A3019

2006/10/02 04:30
KSOW 020430Z AUTO 18008KT 10SM CLR 15/M01 A3027

2006/10/02 04:36
KEWB 020436Z AUTO VRB06KT 10SM BKN006 OVC011 13/12 A2996 RMK AO2

2006/10/02 04:36
KFLL 020436Z 07010G17KT 10SM BKN028 BKN035 BKN060 28/22 A3005 RMK AO2

2006/10/02 04:36
KFWN 020436Z AUTO 00000KT 1/2SM FG SCT001 BKN009 07/07 A3008 RMK AO2

2006/10/02 04:36
KVTA 020436Z AUTO 00000KT 2SM BR CLR 07/07 A3017 RMK AO2

2006/10/02 04:37
KBOS 020437Z 36009KT 10SM FEW008 SCT012 OVC029 12/10 A2998 RMK AO2 T01170100

2006/10/02 04:37
KSLK 020437Z AUTO 00000KT 10SM SCT014 BKN023 OVC070 10/09 A3001 RMK AO2

